key,name,latitude,longitude,address,pub_start,pub_end,tel,opentime,wifi,newlatte
1,カフェゴーガ お茶の水店,35.7001436613,139.761901738,東京都千代田区神田駿河台,,,03-3293-8835,月～土： 07:00～22:00    日祝： 08:00～21:00定休日： 不定休,1,0
10,カフェゴーガ 南青山２丁目店,35.6699633342,139.717392379,東京都港区南青山2-26-37ＮＸＢ青山1F,,,03-5410-3363,"月～金： 07:00～22:00
    土： 08:00～22:00
    日祝： 08:00～21:00
定休日： 不定休
",1,0
100,カフェゴーガ 赤坂見附店,35.6772512074,139.735675525,東京都港区赤坂3-21-20赤坂ロングビーチビル1F,,,03-5570-1305,"月～金： 07:00～22:00
    土： 07:00～20:00
    日祝： 08:00～19:00
定休日： 不定休
",1,1
101,カフェゴーガ 仙川駅前店,35.6613838978,139.585804258,東京都調布市仙川町1-49-2パール仙川1F,,,03-5384-6150,"07:00～22:30
定休日： 不定休
",1,1
102,カフェゴーガ 茅ヶ崎スルガビル店,35.3311024839,139.406617126,神奈川県茅ヶ崎市元町2-3Ｇ．Ｃ．ＣＨＩＧＡＳＡＫＩ3F,,,0467-58-2139,"07:00～22:30
定休日： 不定休
",1,0
103,カフェゴーガ 横浜ビブレ店,35.4648677133,139.61865169,神奈川県横浜市西区南幸2-15-13横浜ビブレ1F,,,045-321-0681,"08:00～23:00
定休日： 不定休
",1,1
104,カフェゴーガ ベストウェスタンホテル名古屋栄4丁目店,35.1691209758,136.913048062,愛知県名古屋市中区栄4-6-1ベストウェスタンホテル名古屋,,,052-251-7773,"月～木： 07:00～22:00
    金土： 07:00～22:30
    日祝： 07:00～22:00
定休日： 不定休
",1,0
105,カフェゴーガ 水道橋後楽森ビル店,35.7034761462,139.749637603,東京都文京区後楽1-4-14後楽森ビル1F,,,03-5802-3901,"月～金： 07:00～21:00
    土日祝： 08:00～20:00
定休日： 不定休
",1,1
106,カフェゴーガ 桜木町駅前店,35.4508505654,139.632492298,神奈川県横浜市中区桜木町1-101-1クロスゲート2F,,,045-683-3162,"07:00～22:30
定休日： 不定休
",1,0
107,カフェゴーガ さいたま新都心店,35.8932432181,139.630849008,埼玉県さいたま市中央区新都心10けやきひろば（013区画）,,,048-601-0057,"月～木： 07:00～22:00
    金： 07:00～22:30
    土： 08:00～22:30
    日祝： 08:30～22:00
定休日： 不定休
",1,1
108,カフェゴーガ 自由が丘駅前店,35.607888577,139.669236459,東京都目黒区自由が丘1-11-6丸栄ビル1F,,,03-3725-8471,"07:00～23:00
定休日： 不定休
",1,1
109,カフェゴーガ IWATAYA本店本館店,33.5889314674,130.397780801,福岡県福岡市中央区天神2-5-35岩田屋本店本館１Ｆ,,,092-732-8361,"月～木： 08:00～22:00
    金土： 08:00～23:00
    日祝： 08:00～22:00
定休日： 不定休
",0,1
11,カフェゴーガ 新宿サザンテラス店,35.6878994503,139.700285197,東京都渋谷区代々木2-2-1新宿サザンテラス内,,,03-3370-3255,"月～木： 07:00～22:30
    金土： 07:00～23:00
    日祝： 07:00～22:30
定休日： 不定休
",1,0
110,カフェゴーガ 京橋 京阪モール店,34.6969109726,135.532059773,大阪府大阪市都島区東野田町2-1-38京阪モール2F,,,06-6351-8919,"月～金： 07:00～23:00
    土日祝： 08:00～23:00
定休日： 不定休
",1,1
111,カフェゴーガ 志木駅前店,35.8227950522,139.574808572,埼玉県新座市東北2-39-1井下田第２ビル1F,,,048-476-0551,"月～金： 07:00～22:00
    土日祝： 08:00～22:00
定休日： 不定休
",1,0
112,カフェゴーガ 碑文谷ダイエー店,35.622259522,139.684114006,東京都目黒区碑文谷4-1-1碑文谷ダイエー2F,,,03-5704-6761,"09:00～21:30
定休日： 不定休
",1,1
113,カフェゴーガ イオンモール川口前川店,35.8325121472,139.706539963,埼玉県川口市前川1-1-11,,,048-262-1044,"10:00～22:00
定休日： 不定休
",1,0
114,カフェゴーガ イオンモール岡崎店,34.9378251039,137.164289236,愛知県岡崎市戸崎町外山38-5,,,0564-59-1010,"10:00～22:00
定休日： 不定休
",1,0
115,カフェゴーガ 明石ビブレ店,34.6815880821,134.938790583,兵庫県明石市大久保町ゆりのき通り1-3-2明石ビブレ,,,078-937-7114,"08:00～22:00
定休日： 不定休
",1,0
116,カフェゴーガ 丸井 柏ＶＡＴ店,35.8618216915,139.971249407,千葉県柏市柏1-1-11丸井柏ＶＡＴ2F,,,04-7167-3508,"07:00～22:30
定休日： 不定休
",0,1
117,カフェゴーガ 柏 高島屋ステーションモール店,35.8628576833,139.970760233,千葉県柏市末広町1-1柏高島屋ステーションモールＳ館1F,,,04-7148-2412,"月～金： 07:00～22:00
    土日祝： 08:00～22:00
定休日： 不定休
",1,0
118,カフェゴーガ マリノアシティ福岡・ピアウォーク店,33.59528222,130.32072663,福岡県福岡市西区小戸2-13-16マリノアシティ福岡,,,092-891-5822,"10:00～21:00
定休日： 不定休
",1,0
119,カフェゴーガ ザザシティ浜松店,34.7051212553,137.729482179,静岡県浜松市中区鍛冶町15ザザシティ浜松西館,,,053-413-5154,"08:00～22:00
定休日： 不定休
",1,0
12,カフェゴーガ 人形町店,35.6870792876,139.781365167,東京都中央区日本橋人形町3-6-7人形町共同ビル1F,,,03-3669-2024,"月～金： 07:00～22:00
    土日祝： 07:00～21:00
定休日： 不定休
",1,1
120,カフェゴーガ 高田馬場早稲田通り店,35.712238347,139.706649658,東京都新宿区高田馬場1-25-32１０８ビル1F,,,03-3207-5800,"07:00～23:00
定休日： 不定休
",1,0
121,カフェゴーガ 仙台エスパル店,38.2591792275,140.881710348,宮城県仙台市青葉区中央1-1-1エスパル1F,,,022-711-1351,"07:00～22:00
定休日： 不定休
",1,1
122,カフェゴーガ アトレ亀戸店,35.69767061,139.826515374,東京都江東区亀戸5-1-1アトレ亀戸1F,,,03-5609-1485,"月～木： 07:00～22:00
    金： 07:00～22:30
    土日祝： 07:00～22:00
定休日： 不定休
",1,1
123,カフェゴーガ 内神田店,35.6907424965,139.764868035,東京都千代田区内神田1-2-8楠本第２ビル1F,,,03-3219-2711,"月～金： 07:00～21:00
    土日祝： 08:00～19:00
定休日： 不定休
",1,0
124,カフェゴーガ 名古屋 アピタ長久手店,35.1724664207,137.03851971,愛知県長久手市戸田谷901-1アピタ長久手店,,,0561-61-7022,"10:00～22:00
定休日： 不定休
",1,1
125,カフェゴーガ 木場イトーヨーカドー店,35.6668249063,139.804076992,東京都江東区木場1-5-30イトーヨーカドー木場店1F,,,03-5606-2791,"月～金： 07:00～23:00
    土日祝： 08:00～23:00
定休日： 不定休
",1,0
126,カフェゴーガ ちゃやまちアプローズタワー店,34.7082080738,135.498893397,大阪府大阪市北区茶屋町19-19アプローズタワー1F,,,06-6376-3531,"07:00～23:00
定休日： 不定休
",1,1
127,カフェゴーガ 南池袋店,35.7270543625,139.712384611,東京都豊島区南池袋2-16-4ＳＫビル,,,03-5391-0089,"月～金： 07:00～22:30
    土日祝： 08:00～22:30
定休日： 不定休
",1,1
128,カフェゴーガ 青葉台東急スクエア店,35.5419818358,139.515834456,神奈川県横浜市青葉区青葉台2-1-1青葉台東急スクエアＳｏｕｔｈ1F,,,045-985-8162,"月～木： 07:00～22:00
    金： 07:00～22:30
    土日祝： 07:00～22:00
定休日： 不定休
",1,1
129,カフェゴーガ 大分わさだトキハ店,33.1883716575,131.581667036,大分県大分市玉沢楠本755-1トキハわさだタウン1F,,,097-542-7895,"09:00～22:00
定休日： 不定休
",1,1
13,カフェゴーガ 四谷３丁目店,35.6875568355,139.72342579,東京都新宿区四谷2-14-4ミツヤ四谷ビル1F,,,03-3356-3991,"月～金： 07:00～21:00
    土： 08:00～21:00
    日祝： 08:00～20:00
定休日： 不定休
",1,1
130,カフェゴーガ イオン南砂店,35.6721207229,139.835549134,東京都江東区南砂6-7-15イオン南砂店1F,,,03-5677-3769,"08:00～23:00
定休日： 不定休
ラストオーダー： 22:30",1,0
131,カフェゴーガ 須磨大丸店,34.6779831165,135.093616502,兵庫県神戸市須磨区中落合2-2-4大丸須磨店,,,078-796-1560,"09:00～21:00
定休日： 不定休
",1,1
132,カフェゴーガ りんくうプレミアム・アウトレット店,34.4059929311,135.293997385,大阪府泉佐野市りんくう往来南3‐28りんくうプレミアム・アウトレット1F,,,072-463-7524,"09:30～20:00
定休日： 不定休
",1,1
133,カフェゴーガ 岡山ロッツ店,34.662525249,133.928339822,岡山県岡山市北区中山下1-11-54ロッツ1F,,,086-233-6070,"08:00～22:00
定休日： 不定休
",1,0
134,カフェゴーガ 王子駅前店,35.7541158005,139.737784033,東京都北区王子1-9-5京徳ビル1F,,,03-3911-7891,"月～金： 07:00～22:00
    土日祝： 08:00～22:00
定休日： 不定休
",0,1
135,カフェゴーガ イオン桑名店,35.0722183533,136.662512498,三重県桑名市新西方1-22イオン桑名,,,0594-21-8517,"09:00～21:00
定休日： 不定休
",1,0
136,カフェゴーガ 表参道B-SIDE店,35.6669315288,139.706785344,東京都渋谷区神宮前5-11-2Ｂ－ＳＩＤＥ,,,03-3797-6821,"08:00～22:00
定休日： 不定休
",1,1
137,カフェゴーガ 銀座マロニエ通り店,35.6722734089,139.767621435,東京都中央区銀座3-7-3銀座オーミビル1F,,,03-3567-5713,"07:00～22:30
定休日： 不定休
",1,0
138,カフェゴーガ イオン幕張店,35.651672949,140.044517165,千葉県千葉市美浜区ひび野1-3イオン幕張1F,,,043-276-2883,"08:00～22:00
定休日： 不定休
",1,0
139,カフェゴーガ 成田空港店,35.7654583838,140.384507023,千葉県成田市三里塚御料牧場1-1成田空港第１旅客ターミナルビル,,,0476-33-0215,"07:00～21:30
定休日： 不定休
",0,0
14,カフェゴーガ 下北沢店,35.6628298876,139.66722743,東京都世田谷区北沢2-30-6下北沢ＵＣビル1F,,,03-3467-0266,"08:00～22:00
定休日： 不定休
",1,0
140,カフェゴーガ 紙屋町シャレオ店,34.394050768,132.457181863,広島県広島市中区紙屋町地下街シャレオ202,,,082-546-3135,"07:30～22:00
定休日： 不定休
",1,0
141,カフェゴーガ 名駅地下街 サンロード店,35.1706705864,136.884340653,愛知県名古屋市中村区名駅4-7-25名駅地下街サンロード,,,052-586-3252,"07:30～21:30
定休日： 不定休
",1,1
142,カフェゴーガ 武蔵境イトーヨーカドー店,35.7011775351,139.544726949,東京都武蔵野市境南町2-3-6イトーヨーカドー武蔵境店西館,,,0422-34-7308,"07:00～22:30
定休日： 不定休
",1,1
143,カフェゴーガ 立川伊勢丹店,35.6998909263,139.412944063,東京都立川市曙町2-5-1伊勢丹立川店1F,,,042-526-8920,"07:30～22:00
定休日： 不定休
",0,1
144,カフェゴーガ カナート洛北店,35.0409154354,135.778996203,京都府京都市左京区高野西開町36カナート洛北1F,,,075-712-1400,"10:00～21:00
定休日： 不定休
",1,0
145,カフェゴーガ 赤坂溜池タワー店,35.6712510784,139.739256893,東京都港区赤坂2-17-1赤坂溜池タワー,,,03-3505-6810,"月～金： 07:00～19:00
定休日： 土 ・日・祝
",1,0
146,カフェゴーガ 浅草雷門通り店,35.7108678112,139.794803789,東京都台東区雷門2-16-7グランコピエ浅草雷門,,,03-5828-8091,"07:00～22:00
定休日： 不定休
",1,1
147,カフェゴーガ 新宿南口店,35.6869611441,139.696093366,東京都渋谷区代々木2-13-8エスト新宿ビル,,,03-5388-9411,"月～金： 07:00～21:00
    土： 07:30～21:00
    日祝： 07:30～20:30
定休日： 不定休
",1,1
148,カフェゴーガ 田町駅西口店,35.647060494,139.748506406,東京都港区芝5-33-8第一田町ビル1F,,,03-3452-8840,"月～金： 06:30～21:00
    土： 08:00～20:00
    日祝： 09:00～20:00
定休日： 不定休
",1,1
149,カフェゴーガ イオン茨木店,34.8117352607,135.558315639,大阪府茨木市松ヶ本町8-30イオン茨木ショッピングセンター１F,,,072-625-1197,"09:00～22:00
定休日： 不定休
",1,1
15,カフェゴーガ 明大前店,35.6691250249,139.650024124,東京都世田谷区松原2-46-5Ｒｙｕ’ｓビル1F,,,03-5376-6931,"07:30～22:00
定休日： 不定休
",1,1
150,カフェゴーガ イオン光明池店,34.4703373072,135.477361138,大阪府和泉市室堂町824-55イオン光明池,,,0725-55-7830,"09:00～21:30
定休日： 不定休
",1,0
151,カフェゴーガ ホテルセントラーザ博多店,33.5906039331,130.421962882,福岡県福岡市博多区博多駅中央街4-23ホテルセントラーザ博多1F,,,092-471-7125,"月～土： 07:00～24:00
    日祝： 07:00～23:00
定休日： 不定休
",1,0
152,カフェゴーガ 千葉オーロラモールジュンヌ店,35.6110688023,140.115075675,千葉県千葉市中央区新町1001オーロラモールジュンヌ,,,043-245-2533,"月～金： 07:00～21:30
    土日祝： 08:00～21:30
定休日： 不定休
",1,1
153,カフェゴーガ 新宿ダイアンビル店,35.6902886658,139.701812182,東京都新宿区新宿3-36-6大安ビル1F,,,03-3353-4775,"07:00～23:00
定休日： 不定休
",1,1
154,カフェゴーガ ホテルグランテラス 仙台国分町店,38.2624145019,140.869518989,宮城県仙台市青葉区国分町2-2-2ホテルグランテラス仙台国分町1F,,,022-712-5272,"月～木： 07:30～22:00
    金： 07:30～24:00
    土： 08:00～24:00
    日祝： 08:00～22:00
定休日： 不定休
",1,1
155,カフェゴーガ 横浜北幸店,35.4668944108,139.61692674,神奈川県横浜市西区北幸2-6-1横浜APビル,,,045-320-2136,"07:00～22:00
定休日： 不定休
",1,1
156,カフェゴーガ 宇都宮福田屋店,36.5735670995,139.900199478,栃木県宇都宮市今泉町237福田屋ショッピングプラザ宇都宮店,,,028-624-1381,"10:00～21:00
定休日： 不定休
",1,1
157,カフェゴーガ 豊洲センタービル店,35.6563022886,139.79651977,東京都江東区豊洲3-3-3豊洲センタービル1F,,,03-5548-1458,"月～金： 07:00～21:00
    土日祝： 08:00～20:00
定休日： 不定休
",1,1
158,カフェゴーガ 新横浜３丁目店,35.5107413984,139.61754467,神奈川県横浜市港北区新横浜3-17-2友泉新横浜ビル,,,045-473-4681,"07:00～22:00
定休日： 不定休
",1,0
159,カフェゴーガ 栄東急イン店,35.1684505981,136.903220576,愛知県名古屋市中区栄3-1-8名古屋栄東急イン1F,,,052-262-2156,"月～木： 07:00～22:00
    金土： 07:00～22:30
    日祝： 07:00～22:00
定休日： 不定休
",1,0
16,カフェゴーガ 学芸大駅前店,35.6291476774,139.684299785,東京都目黒区鷹番3-15-25鳥芳ビル1F,,,03-5722-5490,"月～金： 07:30～22:30
    土日祝： 08:00～22:30
定休日： 不定休
",1,0
160,カフェゴーガ 天王洲店,35.6233966471,139.749127999,東京都品川区東品川2-2-4天王洲ファーストタワー,,,03-5461-0652,"月～金： 07:00～22:00
    土日祝： 07:00～21:00
定休日： 不定休
",1,1
161,カフェゴーガ 丸の内新東京ビル店,35.6774605449,139.762643832,東京都千代田区丸の内3-3-1丸の内新東京ビル,,,03-3216-3552,"月～金： 07:00～22:30
    土： 08:00～21:00
    日祝： 10:00～20:00
定休日： 不定休
",1,0
162,カフェゴーガ 京都Porta店,34.9865303538,135.759352839,京都府京都市下京区烏丸通塩小路下ル東塩小路町902駅前地下街ポルタ,,,075-343-2377,"07:30～22:00
定休日： 不定休
",1,0
163,カフェゴーガ 奈良学園前駅店,34.6968845113,135.750391642,奈良県奈良市学園南3-1-5奈良西部会館1F,,,0742-48-5056,"月～土： 07:00～22:00
    日祝： 08:00～22:00
定休日： 不定休
",1,1
164,カフェゴーガ アトレ松戸店,35.7847892511,139.90051855,千葉県松戸市松戸1181アトレ松戸,,,047-331-5818,"月～土： 07:00～22:00
    日祝： 08:00～22:00
定休日： 不定休
",1,0
165,カフェゴーガ 神田駅前店,35.6933484411,139.771295437,東京都千代田区神田鍛冶町3-2神田サンミビル,,,03-3251-7039,"月～木： 06:30～22:00
    金： 06:30～22:30
    土： 08:00～20:00
    日祝： 09:00～19:00
定休日： 不定休
",1,1
166,カフェゴーガ 姫路フォーラス店,34.8293738134,134.692915031,兵庫県姫路市東駅前町100姫路フォーラス,,,079-221-3077,"08:00～22:00
定休日： 不定休
",1,0
167,カフェゴーガ 中野通り店,35.7068390381,139.665442218,東京都中野区中野5-64-5中野サンピオーネビル1F,,,03-3388-2980,"07:00～22:30
定休日： 不定休
",1,1
168,カフェゴーガ 宇都宮パルコ店,36.5607432288,139.886323443,栃木県宇都宮市馬場通り3-1-1宇都宮パルコ1F,,,028-632-8301,"月～土： 08:00～21:00
    日祝： 09:00～21:00
定休日： 不定休
",1,0
169,カフェゴーガ 高崎駅ビル モントレー店,36.3228811735,139.0118348,群馬県高崎市八島町222高崎駅ビルモントレー2F,,,027-326-4919,"月～木： 07:00～22:00
    金土： 07:00～22:30
    日祝： 07:00～22:00
定休日： 不定休
",1,1
17,カフェゴーガ 西五反田店,35.623615611,139.72295794,東京都品川区西五反田1-18-1ゴタンダエクス1F,,,03-5434-2219,"07:00～22:30
定休日： 不定休
",1,1
170,カフェゴーガ 上野マルイ店,35.7111774489,139.775959784,東京都台東区上野6-15-1上野マルイ店B1F,,,03-3837-7470,"07:00～22:30
定休日： 不定休
",0,0
171,カフェゴーガ 新宿グリーンタワービル店,35.6922521317,139.68961866,東京都新宿区西新宿6-14-1新宿グリーンタワー,,,03-3342-7337,"月～金： 07:00～20:00
    土日祝： 07:30～19:30
定休日： 不定休
",1,0
172,カフェゴーガ 郡山モルティ店,37.3995261618,140.387879278,福島県郡山市駅前2-11-1ビッグアイモルティ2F,,,024-921-4556,"07:30～21:00
定休日： 不定休
",1,1
173,カフェゴーガ 新潟万代シテイ店,37.9166636953,139.056009131,新潟県新潟市中央区万代1-6-1,,,025-249-5110,"07:00～22:00
定休日： 不定休
",1,1
174,カフェゴーガ 飯能ＰｅＰｅ店,35.8509325863,139.319685131,埼玉県飯能市仲町11-21飯能ＰｅＰｅ2F,,,042-974-6866,"07:00～22:00
定休日： 不定休
",1,1
175,カフェゴーガ 大分フォーラス店,33.2361514372,131.607191882,大分県大分市中央町1-2-7大分フォーラス1F,,,097-536-8166,"月～金： 07:00～22:00
    土日祝： 08:00～22:00
定休日： 不定休
",1,1
176,カフェゴーガ センター南店,35.5428994101,139.573412965,神奈川県横浜市都筑区茅ヶ崎中央14キーサウス,,,045-943-1815,"07:30～22:00
定休日： 不定休
",1,0
177,カフェゴーガ 三井住友銀行名古屋ビル店,35.1685421834,136.899124523,愛知県名古屋市中区錦2-18-19三井住友銀行名古屋ビル1F,,,052-232-1516,"月～金： 07:00～22:00
    土： 08:00～22:00
    日祝： 08:00～21:00
定休日： 不定休
",1,0
178,カフェゴーガ 横須賀モアーズシティ店,35.2781533132,139.670552089,神奈川県横須賀市若松町2-30横須賀モアーズシティ2F,,,046-822-1341,"月～木： 07:00～22:00
    金土： 07:00～22:30
    日祝： 07:00～22:00
定休日： 不定休
",1,0
179,カフェゴーガ 仙台クリスロード店,38.261620271,140.876885081,宮城県仙台市青葉区中央2-5-3第二やまふくビル,,,022-265-6610,"月～木： 07:30～22:00
    金： 07:30～22:30
    土： 08:00～22:30
    日祝： 08:00～22:00
定休日： 不定休
",1,1
18,カフェゴーガ 品川インターシティ店,35.6266870033,139.741959832,東京都港区港南2-15-2品川インターシティ2F(206),,,03-5462-8771,"月～金： 07:30～21:00
    土日祝： 08:00～20:00
定休日： 不定休
",1,0
180,カフェゴーガ 広島駅アッセ店,34.3968182939,132.475611038,広島県広島市南区松原町2-37広島ステーションビル（アッセ）,,,082-261-0153,"07:00～22:00
定休日： 不定休
",1,1
181,カフェゴーガ 四ツ橋店,34.6736767328,135.496913762,大阪府大阪市西区北堀江1-1-18第一住建四ツ橋ビル,,,06-6532-6567,"月～金： 07:00～22:30
    土日祝： 08:00～22:30
定休日： 不定休
",1,1
182,カフェゴーガ 愛宕グリーンヒルズ店,35.6619194655,139.748803752,東京都港区愛宕2-5-1ＭＯＲＩタワー（愛宕グリーンヒルズ）,,,03-3435-1755,"月～金： 07:00～21:00
    土： 08:00～19:00
    日祝： 09:00～19:00
定休日： 不定休
",1,0
183,カフェゴーガ 中目黒山手通り店,35.6453156254,139.697634044,東京都目黒区上目黒3-1-3Ｊフラッツ中目黒,,,03-5721-9293,"07:00～22:30
定休日： 不定休
",1,0
184,カフェゴーガ 武蔵浦和ＢＥＡＮＳ店,35.8457146937,139.646925694,埼玉県さいたま市南区別所7-12-1武蔵浦和ビーンズ1F,,,048-865-3505,"月～木： 07:00～22:00
    金土日祝： 07:00～22:30
定休日： 不定休
",1,1
185,カフェゴーガ 三宮ダイエー店,34.6952241754,135.196204966,兵庫県神戸市中央区雲井通6-1-15三宮ダイエー,,,078-241-6715,"月～金： 07:00～22:00
    土日祝： 08:00～22:00
定休日： 不定休
",1,0
186,カフェゴーガ 大津パルコ店,35.0041897427,135.880207822,滋賀県大津市打出浜14-30大津パルコ1F,,,077-527-7107,"08:30～22:00
定休日： 不定休
",1,0
187,カフェゴーガ ルミネ大宮店,35.9062558835,139.624583651,埼玉県さいたま市大宮区錦町630ルミネ大宮２3F,,,048-648-1107,"07:00～23:00
定休日： 不定休
",1,1
188,カフェゴーガ ららぽーとTOKYO-BAY　南館店,35.6846904484,139.992223599,千葉県船橋市浜町2-1-1ららぽーとTOKYO-BAY南館２Ｆ,,,047-437-7068,"月～金： 08:00～21:00
    土日祝： 09:00～21:00
定休日： 不定休
",1,1
189,カフェゴーガ 三宮生田新道店,34.6930693147,135.190979943,兵庫県神戸市中央区下山手通2-1-13第１３シャルマンビル,,,078-331-0038,"月～金： 08:00～23:00
    土日祝： 08:30～23:00
定休日： 不定休
",1,1
19,カフェゴーガ 本郷東大前店,35.707933642,139.760787583,東京都文京区本郷4-1-4コスモス本郷1F,,,03-3818-1102,"月～土： 07:00～22:00
    日祝： 08:00～21:00
定休日： 不定休
",1,1
190,カフェゴーガ 平塚ラスカ店,35.3277129672,139.34992199,神奈川県平塚市宝町1-1ラスカステーションビル3F,,,0463-24-2407,"07:00～22:00
定休日： 不定休
",1,1
191,カフェゴーガ 静岡呉服町通り店,34.9736686925,138.384362093,静岡県静岡市葵区呉服町2-8-9アクロス辻源ビル1F,,,054-272-8800,"月～金： 07:00～22:00
    土日祝： 08:00～22:00
定休日： 不定休
",1,0
192,カフェゴーガ 金町駅南口店,35.7688973887,139.871516413,東京都葛飾区金町6-4-2ラヴィクレール金町,,,03-3826-2323,"月～土： 07:00～22:00
    日祝： 08:00～22:00
定休日： 不定休
",1,0
193,カフェゴーガ 広島本通り店,34.3923415805,132.461426589,広島県広島市中区本通り9-1,,,082-240-0231,"月～木： 08:00～22:00
    金土： 08:00～23:00
    日祝： 08:00～22:00
定休日： 不定休
",1,0
194,カフェゴーガ 日吉店,35.5537717462,139.646506395,神奈川県横浜市港北区日吉2-2-3山村ビル1F,,,045-564-5082,"07:00～22:30
定休日： 不定休
",1,0
195,カフェゴーガ 京都祇園ホテル店,35.0036102091,135.776142047,京都府京都市東山区祇園町南側555祇園ホテル1F,,,075-551-2198,"08:00～22:00
定休日： 不定休
",1,1
196,カフェゴーガ ウィング上大岡店,35.4092502171,139.596350548,神奈川県横浜市港南区上大岡西1-6-1ウィング上大岡2F,,,045-846-2909,"08:00～21:00
定休日： 不定休
",1,1
197,カフェゴーガ 晴海 トリトンスクエア店,35.6564556309,139.782066797,東京都中央区晴海1-8-10晴海アイランドトリトンスクエアオフィスタワーX,,,03-5548-4478,"月～金： 07:00～20:00
    土： 09:00～17:00
定休日： 日・祝
",1,0
198,カフェゴーガ フォーシーズ溜池山王ビル店,35.6700340261,139.741533149,東京都港区赤坂2-10-11フォーシーズ溜池山王ビル,,,03-5570-3010,"月～金： 07:00～22:00
    土： 08:00～20:00
    日祝： 08:00～19:00
定休日： 不定休
",1,1
199,カフェゴーガ 西武本川越駅店,35.9145813855,139.481664304,埼玉県川越市新富町1-22本川越駅構内,,,049-225-8840,"月～木： 07:00～22:00
    金土： 07:00～22:30
    日祝： 07:00～22:00
定休日： 不定休
",1,0
2,カフェゴーガ 日比谷店,35.6702583922,139.754322632,東京都千代田区内幸町,,,03-3506-8170,"月～金： 07:30～20:00
    土： 08:00～19:00
定休日： 日・祝
",1,1
20,カフェゴーガ 渋谷文化村通り店,35.6602029037,139.696591779,東京都渋谷区道玄坂2-25-6ホリウチビル1F,,,03-5456-1950,"07:00～28:45
定休日： 不定休
",1,0
200,カフェゴーガ からすま京都ホテル店,35.0018962105,135.759365741,京都府京都市下京区烏丸通綾小路下ル二帖半敷町652からすま京都ホテル,,,075-344-5232,"07:00～23:00
定休日： 不定休
",1,1
201,カフェゴーガ 取手ボックスヒル店,35.8966479056,140.063178224,茨城県取手市中央町2-5取手ボックスヒル3F,,,0297-72-1710,"月～土： 07:00～22:00
    日祝： 08:00～22:00
定休日： 不定休
",1,1
202,カフェゴーガ イオンモール東浦店,34.9783874507,136.97452785,愛知県知多郡東浦町緒川申新田二区67-8,,,0562-82-2723,"09:00～22:00
定休日： 不定休
",1,1
203,カフェゴーガ 名鉄 神宮前駅店,35.1261447137,136.911586551,愛知県名古屋市熱田区神宮3-6-34名鉄パレ百貨店神宮,,,052-683-5013,"月～土： 07:00～21:30
    日祝： 07:00～21:00
定休日： 不定休
",1,1
204,カフェゴーガ なんば 御堂筋グランドビル店,34.6676190994,135.499891572,大阪府大阪市中央区難波2-2-3御堂筋グランドビルB1F,,,06-6212-4550,"月～金： 07:30～22:30
    土日祝： 08:00～22:30
定休日： 不定休
",1,1
205,カフェゴーガ 草津Ａ・ＳＱＵＡＲＥ店,35.0246403465,135.960490491,滋賀県草津市西渋川1-23-1Ａ・ＳＱＵＡＲＥ,,,077-561-6578,"10:00～22:00
定休日： 不定休
",1,0
206,カフェゴーガ ＮＨＫ広島ビル店,34.3904705669,132.455554385,広島県広島市中区大手町2-11-10ＮＨＫ広島放送センター2F,,,082-240-1136,"月～金： 07:30～21:00
    土日祝： 08:30～20:00
定休日： 不定休
",1,0
207,カフェゴーガ 東香里ＴＳＵＴＡＹＡ店,34.7818901014,135.652690287,大阪府枚方市東香里3-3-13東香里ＴＳＵＴＡＹＡ,,,072-852-9511,"月～木： 10:00～22:00
    金土： 10:00～22:30
    日祝： 10:00～22:00
定休日： 不定休
",1,1
208,カフェゴーガ 桜通り大津店,35.1739714443,136.905959539,愛知県名古屋市中区丸の内3-20-17中外東京海上ビル1F,,,052-962-1055,"月～木： 07:00～22:00
    金土： 07:00～22:30
    日祝： 08:00～22:00
定休日： 不定休
",1,0
209,カフェゴーガ 福岡朝日ビル店,33.5906541443,130.418457615,福岡県福岡市博多区博多駅前2-1-1福岡朝日ビル1F,,,092-483-7255,"月～土： 07:00～22:30
    日祝： 07:00～22:00
定休日： 不定休
",1,0
21,カフェゴーガ 梅田ＨＥＰ ＦＩＶＥ店,34.7042401986,135.500820919,大阪府大阪市北区角田町5-15阪急ファイブ(701),,,06-6366-3680,"11:00～23:00
定休日： 不定休
",1,1
210,カフェゴーガ 横浜チャイナタウン店,35.4439904542,139.647724682,神奈川県横浜市中区山下町79-1イーストハイム1F,,,045-212-1183,"07:30～22:30
定休日： 不定休
",1,0
211,カフェゴーガ ギャラリエアピタ知立店,34.9982219764,137.052927926,愛知県知立市長篠町大山18-1ギャラリエアピタ知立,,,0566-81-7373,"08:00～22:00
定休日： 不定休
",1,0
212,カフェゴーガ 新所沢パルコ店,35.80533927,139.45494072,埼玉県所沢市緑町1-2新所沢パルコ,,,04-2998-8167,"08:00～22:00
定休日： 不定休
",1,0
213,カフェゴーガ 新大阪ニッセイビル店,34.7341805322,135.496522398,大阪府大阪市淀川区宮原3-4-30ニッセイ新大阪ビル,,,06-6350-1778,"07:30～22:00
定休日： 不定休
",1,0
214,カフェゴーガ アズ熊谷店,36.1399212422,139.390272906,埼玉県熊谷市筑波2-115熊谷駅ビルＡＺ２,,,048-527-4510,"07:00～22:30
定休日： 不定休
",1,0
215,カフェゴーガ 浅草駅前店,35.7119741377,139.79800875,東京都台東区花川戸1-5-1,,,03-5828-1318,"07:00～22:00
定休日： 不定休
",1,0
216,カフェゴーガ 静岡 丸井店,34.9739812172,138.387690413,静岡県静岡市葵区伝馬町5-4丸井静岡店,,,054-221-8121,"月～金： 07:00～22:00
    土日祝： 08:00～22:00
定休日： 不定休
",0,1
217,カフェゴーガ 新潟ラフォーレ店,37.9224953547,139.043591838,新潟県新潟市中央区西堀通6-866ラフォーレ原宿新潟店B1F,,,025-226-5902,"08:00～22:00
定休日： 不定休
",1,1
218,カフェゴーガ 水戸 シルバーインホテル店,36.372711397,140.474760177,茨城県水戸市宮町2-3-28水戸シルバーインホテル,,,029-224-4825,"月～土： 07:00～22:00
    日祝： 07:30～21:00
定休日： 不定休
",1,1
219,カフェゴーガ ダイエー市川コルトンプラザ店,35.7165207637,139.934838566,千葉県市川市鬼高1-1-1ダイエー市川コルトンプラザ,,,047-376-5670,"10:00～21:00
定休日： 不定休
",1,0
22,カフェゴーガ 丸の内三菱ビル店,35.67977698,139.763571426,東京都千代田区丸の内2-5-2三菱ビル,,,03-5288-9050,"月～金： 07:00～21:00
    土日祝： 08:00～20:00
定休日： 不定休
",1,1
220,カフェゴーガ 横浜公園店,35.4455554377,139.64046188,神奈川県横浜市中区日本大通り60朝日生命横浜ビル1F,,,045-212-3906,"07:00～22:00
定休日： 不定休
",1,1
221,カフェゴーガ 神戸旧居留地店,34.6879884427,135.189462803,兵庫県神戸市中央区栄町通1-2-1ＭＲＳＸビル,,,078-392-3107,"月～木： 07:00～22:00
    金： 07:00～23:00
    土日祝： 08:00～23:00
定休日： 不定休
",1,1
222,カフェゴーガ 川越クレアモール店,35.911905578,139.482659067,埼玉県川越市新富町2-11-1丸広アネックス,,,049-226-5507,"09:00～21:00
定休日： 不定休
",1,0
223,カフェゴーガ 御徒町春日通り店,35.7078641865,139.775632742,東京都台東区上野6-2-1ヨシダビル,,,03-5818-2277,"07:00～22:30
定休日： 不定休
",1,0
224,カフェゴーガ 神戸元町駅前店,34.6896168794,135.189446896,兵庫県神戸市中央区三宮町3-7-6神戸フクトクビル,,,078-332-2277,"月～金： 07:00～22:00
    土日祝： 08:00～22:00
定休日： 不定休
",1,0
225,カフェゴーガ 相模大野レガロ店,35.5324870019,139.435394352,神奈川県相模原市南区相模大野3-16-1レガロ1F,,,042-740-1251,"07:00～22:30
定休日： 不定休
",1,1
226,カフェゴーガ ゆめタウン大牟田店,33.0366984608,130.453989061,福岡県大牟田市旭町2-28ゆめタウン大牟田,,,0944-53-8833,"09:30～22:00
定休日： 不定休
",1,0
227,カフェゴーガ 大和オークシティ店,35.4890836921,139.457213983,神奈川県大和市下鶴間1-2-1イオン大和ショッピングセンター,,,046-200-3520,"月～金： 10:00～23:00
    土日祝： 09:00～23:00
定休日： 不定休
",1,0
228,カフェゴーガ ルミネ藤沢店,35.3388419533,139.487246184,神奈川県藤沢市藤沢438-1ルミネ藤沢,,,0466-27-5186,"07:00～22:30
定休日： 不定休
",1,1
229,カフェゴーガ 松坂屋 豊田店,35.0868590016,137.155041753,愛知県豊田市西町6-85-1松坂屋豊田店,,,0565-35-6252,"月～金： 07:30～22:00
    土日祝： 08:00～22:00
定休日： 不定休
",1,1
23,カフェゴーガ ゲートシティ大崎店,35.619168454,139.731266066,東京都品川区大崎1-11-1ゲートシティ大崎,,,03-5496-3027,"07:00～22:30
定休日： 不定休
",1,0
230,カフェゴーガ 新宿新南口店,35.6888554975,139.702481637,東京都新宿区新宿4-1-9新宿ユースビル1F,,,03-3356-4580,"07:00～23:00
定休日： 不定休
",1,1
232,カフェゴーガ 池袋サンシャインシティ アルパ店,35.7298180548,139.718056513,東京都豊島区東池袋3-1-1サンシャインシティアルパ2F,,,03-3980-8161,"月～金： 07:00～22:00
    土日祝： 07:30～22:00
定休日： 不定休
",1,1
233,カフェゴーガ なんば南海通店,34.6651610683,135.502147053,大阪府大阪市中央区難波千日前12-30難波長和ビル,,,06-6643-7570,"07:00～22:30
定休日： 不定休
",1,1
234,カフェゴーガ 千葉パルコ店,35.609685997,140.120934141,千葉県千葉市中央区中央2-2-2千葉パルコ,,,043-224-6520,"08:00～22:00
定休日： 不定休
",1,0
235,カフェゴーガ 札幌グランドホテル店,43.0630144394,141.351145716,北海道札幌市中央区北1条西4丁目札幌グランドホテル1F,,,011-222-8060,"月～金： 07:00～22:00
    土日祝： 07:30～22:00
定休日： 不定休
",1,1
236,カフェゴーガ 仙台駅東口店,38.2595064861,140.885795549,宮城県仙台市宮城野区榴岡1-2-10エンドウビル1F,,,022-293-1501,"07:00～22:00
定休日： 不定休
",1,0
237,カフェゴーガ 高松丸亀町フェスタ店,34.3430204329,134.049746951,香川県高松市丸亀町6-1フェスタ河野１,,,087-826-7401,"月～木： 08:00～21:30
    金土： 08:00～22:00
    日祝： 08:00～21:30
定休日： 不定休
",1,1
238,カフェゴーガ アトレ上野店,35.7121240262,139.776639962,東京都台東区上野7-1-1アトレ上野1F,,,03-5826-5855,"07:00～23:00
定休日： 不定休
",1,0
239,カフェゴーガ 飯田橋メトロピア店,35.7019753734,139.74391287,東京都新宿区神楽坂1-13南北線飯田橋駅構内,,,03-3269-3898,"月～金： 06:30～22:30
    土： 07:00～22:30
    日祝： 07:00～21:30
定休日： 不定休
",0,0
24,カフェゴーガ 池袋明治通り店,35.7278098271,139.711806846,東京都豊島区南池袋1-18-17Ｉ＆Ｋビル1F,,,03-3590-0065,"月～木： 07:00～22:30
    金土日祝： 07:00～23:00
定休日： 不定休
",1,1
240,カフェゴーガ メディアモール天神店,33.5907557651,130.40054882,福岡県福岡市中央区天神1-10-13天神ＭＭＴビル1F,,,092-713-8781,"07:00～23:00
定休日： 不定休
",1,1
241,カフェゴーガ ホテル京阪　ユニバーサル・タワー店,34.668174909,135.43833027,大阪府大阪市此花区島屋6-2-45ホテル京阪ユニバーサル・タワー,,,06-6468-8784,"07:00～22:00
定休日： 不定休
",1,1
242,カフェゴーガ 熊本Ｎｅｗ－Ｓ店,32.8031973638,130.710647109,熊本県熊本市中央区上通町2-2Ｎｅｗ－Ｓ,,,096-327-5077,"月～木： 08:00～22:00
    金土： 08:00～23:00
    日祝： 08:00～22:00
定休日： 不定休
",1,0
243,カフェゴーガ 吉祥寺駅前店,35.7039948028,139.580488849,東京都武蔵野市吉祥寺本町1-15-9吉祥寺岩崎ビル,,,0422-20-2406,"06:30～23:00
定休日： 不定休
",1,0
244,カフェゴーガ 高松瓦町駅店,34.3392753269,134.05254828,香川県高松市常磐町1-3-1琴電瓦町ビル,,,087-812-7121,"08:00～21:00
定休日： 不定休
",1,1
245,カフェゴーガ 川崎 丸井店,35.529797962,139.696531122,神奈川県川崎市川崎区日進町1-11丸井川崎店,,,044-246-6765,"07:00～23:00
定休日： 不定休
",0,1
246,カフェゴーガ 福岡赤坂門店,33.5888119164,130.390948874,福岡県福岡市中央区大名2-4-22新日本ビル1F,,,092-732-0223,"月～木： 07:00～22:00
    金： 07:00～23:00
    土： 08:00～23:00
    日祝： 08:00～21:00
定休日： 不定休
",1,1
247,カフェゴーガ 大手町東京サンケイビル店,35.6871056713,139.765331498,東京都千代田区大手町1-7-2東京サンケイビルB1階,,,03-5204-8207,"月～金： 07:00～21:00
    土： 09:00～18:00
定休日： 日・祝
",1,1
248,カフェゴーガ 錦糸町 丸井店,35.6950539986,139.813652674,東京都墨田区江東橋3-9-10丸井錦糸町店,,,03-3631-4701,"07:00～22:30
定休日： 不定休
",0,1
249,カフェゴーガ 戸塚店,35.4013074902,139.534724921,神奈川県横浜市戸塚区戸塚町10ラピス戸塚１1F,,,045-881-5355,"07:00～22:00
定休日： 不定休
",1,1
25,カフェゴーガ 井の頭公園店,35.7007992717,139.578221962,東京都武蔵野市吉祥寺南町1-15-7重川ビル,,,0422-47-3406,"08:00～22:30
定休日： 不定休
",1,0
250,カフェゴーガ 名駅地下街 ユニモール店,35.171505516,136.885426635,愛知県名古屋市中村区名駅4-5-26先ユニモール,,,052-565-8757,"07:30～21:30
定休日： 不定休
",1,0
251,カフェゴーガ ヴィーナスフォート ファミリー店,35.6252689523,139.781245801,東京都江東区青海1-3-15ヴィーナスフォートファミリー,,,03-5500-5090,"月～金： 09:30～21:00
    土日祝： 09:30～22:00
定休日： 不定休
",1,0
252,カフェゴーガ 海老名店,35.4518004535,139.393359891,神奈川県海老名市中央1-4-1ビナウォーク５番館,,,046-234-3068,"07:00～22:30
定休日： 不定休
",1,0
253,カフェゴーガ 北浦和駅前店,35.8720410156,139.645268231,埼玉県さいたま市浦和区北浦和4-5-2伊吹ビル,,,048-825-3988,"07:00～22:00
定休日： 不定休
",1,1
254,カフェゴーガ 横浜西口店,35.4656057066,139.61960991,神奈川県横浜市西区南幸1-9-13葉山ビル,,,045-316-3743,"07:00～23:00
定休日： 不定休
",1,1
255,カフェゴーガ ザ・モールみずほ１６店,35.7846907274,139.348325803,東京都西多摩郡瑞穂町高根623ザ・モールみずほ１６,,,042-556-1025,"10:00～21:00
定休日： 不定休
",1,1
256,カフェゴーガ 成田空港第２ターミナル店,35.7735475888,140.388526873,千葉県成田市古込1-1成田空港第２旅客ターミナルビル,,,0476-34-6358,"07:00～21:30
定休日： 不定休
",0,0
257,カフェゴーガ 渋谷２丁目店,35.6606030453,139.707149217,東京都渋谷区渋谷2-9-8マトリクス・ワンビル,,,03-3406-0180,"月～木： 07:00～22:00
    金土： 07:00～22:30
    日祝： 07:00～22:00
定休日： 不定休
",1,0
258,カフェゴーガ 中目黒駅前店,35.6435002915,139.699204831,東京都目黒区上目黒2-1-1中目黒ゲートタウンタワーB1F,,,03-3792-5261,"07:00～22:30
定休日： 不定休
",1,1
259,カフェゴーガ 香林坊１０９店,36.562770707,136.653334902,石川県金沢市香林坊2-1-1ＫＯＨＲＩＮＢＯ１０９,,,076-220-5147,"月～木： 07:00～22:00
    金土： 07:00～23:00
    日祝： 07:00～22:00
定休日： 不定休
",1,1
26,カフェゴーガ アクセス表参道店,35.6646749105,139.7116431,東京都港区北青山3-6-17アクセス表参道ビル,,,03-5466-2510,"月～金： 07:00～22:30
    土： 08:00～22:30
    日祝： 08:00～22:00
定休日： 不定休
",1,1
260,カフェゴーガ パークプレイス大分店,33.1956574723,131.657025442,大分県大分市公園通り西2-1パークプレイス大分,,,097-520-7715,"月～木： 09:30～22:30
    金： 09:30～23:00
    土： 09:00～23:00
    日祝： 09:00～22:30
定休日： 不定休
",1,0
261,カフェゴーガ 栄 チェリープラザ店,35.1657284123,136.904541703,愛知県名古屋市中区栄3-19-8栄ミナミ平和ビル,,,052-238-6536,"月～木： 07:00～22:00
    金： 07:00～23:00
    土： 08:00～23:00
    日祝： 08:00～22:00
定休日： 不定休
",1,1
262,カフェゴーガ ゆりかもめ新橋駅店,35.6656517493,139.759283543,東京都港区東新橋1-1-8,,,03-3574-8860,"07:00～22:30
定休日： 不定休
",1,1
263,カフェゴーガ 栄広小路店,35.1690614131,136.905915879,愛知県名古屋市中区錦3-24-24錦324ビル,,,052-955-1518,"月～木： 07:00～22:30
    金： 07:00～23:00
    土： 08:00～23:00
    日祝： 08:00～22:00
定休日： 不定休
",1,0
264,カフェゴーガ 武蔵ヶ辻めいてつエムザ店,36.5715564636,136.65503519,石川県金沢市武蔵町15-1めいてつエムザ,,,076-260-5540,"07:00～22:00
定休日： 不定休
",1,0
265,カフェゴーガ 茅場町店,35.6794078752,139.780753349,東京都中央区日本橋茅場町1-12-2樋口本店ビル1F,,,03-3660-1615,"月～金： 06:30～22:00
    土： 07:00～20:00
    日祝： 08:00～20:00
定休日： 不定休
",1,1
266,カフェゴーガ 多摩センター三越店,35.6228138294,139.425216871,東京都多摩市落合1-46-1多摩センター三越店,,,042-338-2361,"07:00～22:00
定休日： 不定休
",0,1
267,カフェゴーガ 丸の内ビル店,35.6810021351,139.764045774,東京都千代田区丸の内2-4-1丸の内ビルディング,,,03-5220-7748,"07:00～22:00
定休日： 不定休
",1,0
268,カフェゴーガ 池袋西口店,35.7310458173,139.708795003,東京都豊島区西池袋1-17-10エキニア池袋,,,03-5951-1007,"月～金： 07:00～22:30
    土日祝： 08:00～22:30
定休日： 不定休
",1,0
269,カフェゴーガ すすきのイトーヨーカドー店,43.0553269566,141.352763714,北海道札幌市中央区南4条西4丁目1,,,011-533-8191,"07:30～22:00
定休日： 不定休
",1,1
27,カフェゴーガ ららぽーとTOKYO-BAY　北館店,35.6858911324,139.99102281,千葉県船橋市浜町2-1-1ららぽーとTOKYO-BAY北館１Ｆ,,,047-433-7720,"09:00～22:00
定休日： 不定休
",1,0
270,カフェゴーガ 仙台アエル店,38.2625924684,140.881412438,宮城県仙台市青葉区中央1-3-1仙台ＡＥＲ,,,022-723-8039,"07:30～21:00
定休日： 不定休
",1,1
271,カフェゴーガ 札幌南一条店,43.0591565839,141.354881139,北海道札幌市中央区南1条西2丁目5南一条Ｋビル1F,,,011-221-1216,"07:30～22:00
定休日： 不定休
",1,1
272,カフェゴーガ 阪急池田駅店,34.8217013207,135.425585092,大阪府池田市栄町1-1阪急池田ブランマルシェ２番館,,,0727-53-3720,"月～金： 07:00～22:00
    土日祝： 08:00～22:00
定休日： 不定休
",1,0
273,カフェゴーガ ＪＲ高槻駅南店,34.8500183312,135.61867053,大阪府高槻市紺屋町7‐12寺本ビル,,,0726-83-6153,"08:00～22:00
定休日： 不定休
",1,1
274,カフェゴーガ 大船ルミネウィング店,35.352832892,139.531241886,神奈川県鎌倉市大船1-4-1ルミネウィング,,,0467-48-5081,"07:00～22:30
定休日： 不定休
",1,1
275,カフェゴーガ 那覇国際通り牧志店,26.2165504722,127.688290573,沖縄県那覇市牧志2-1-1プランタビル,,,098-862-8026,"月～金： 07:30～24:00
    土日祝： 08:00～24:00
定休日： 不定休
",1,0
276,カフェゴーガ ルミネ新宿店,35.6890170894,139.699190514,東京都新宿区西新宿1-1-5ルミネ１新宿,,,03-3342-8678,"11:00～23:00
定休日： 不定休
",1,1
277,カフェゴーガ 中之島三井ビル店,34.6935803882,135.494111967,大阪府大阪市北区中之島3-3-3中之島三井ビルディング,,,06-4803-9031,"月～金： 07:00～20:00
    土： 08:00～19:00
定休日： 日・祝
",1,1
278,カフェゴーガ 山科駅前店,34.9923371295,135.817055835,京都府京都市山科区安朱中小路町5山科駅NKビル,,,075-582-6811,"07:00～23:00
定休日： 不定休
",1,1
279,カフェゴーガ 金山駅南口店,35.1421622618,136.901103351,愛知県名古屋市熱田区金山町1-2-26ヤガミ金山ビル,,,052-678-1471,"07:00～22:00
定休日： 不定休
",1,0
28,カフェゴーガ 麻布十番店,35.6557051901,139.736333407,東京都港区麻布十番1-11-14ＳＢＳビル,,,03-5575-0917,"月～木： 06:30～22:00
    金： 06:30～22:30
    土： 07:00～22:30
    日祝： 07:00～22:00
定休日： 不定休
",1,1
280,カフェゴーガ 桜橋プラザビル店,34.6980685504,135.495890502,大阪府大阪市北区曽根崎新地1-4-12桜橋プラザビル,,,06-6346-0381,"月～金： 07:00～23:00
    土： 08:00～23:00
    日祝： 08:00～22:00
定休日： 不定休
",1,1
281,カフェゴーガ 栄公園 オアシス２１店,35.1717014664,136.909229094,愛知県名古屋市東区東桜1-11-1オアシス21,,,052-950-5160,"月～木： 07:00～22:00
    金土： 07:00～22:30
    日祝： 07:00～22:00
定休日： 不定休
",1,1
282,カフェゴーガ 泉中央セルバ店,38.3235248552,140.882287337,宮城県仙台市泉区泉中央1-4-1泉中央セルバ,,,022-218-3620,"月～土： 07:30～22:00
    日祝： 07:30～21:00
定休日： 不定休
",1,0
283,カフェゴーガ 長崎ゆめタウン夢彩都店,32.7464468186,129.870740864,長崎県長崎市元船町10－1ゆめタウン夢彩都,,,095-823-7303,"09:00～22:00
定休日： 不定休
",1,0
284,カフェゴーガ ルミネ立川店,35.6981633515,139.413985723,東京都立川市曙町2-1-1ルミネ立川,,,042-540-0930,"07:00～22:00
定休日： 不定休
",1,1
285,カフェゴーガ 大泉学園ゆめりあフェンテ店,35.7494880916,139.586167116,東京都練馬区東大泉5-43-1ゆめりあフェンテ,,,03-5933-0261,"07:00～22:00
定休日： 不定休
",1,0
286,カフェゴーガ 神保町１丁目店,35.6961857215,139.760193451,東京都千代田区神田神保町1-2アイピー第一ビル,,,03-5217-0325,"月～金： 07:00～22:00
    土日祝： 08:00～22:00
定休日： 不定休
",1,0
287,カフェゴーガ 千里中央店,34.8098149151,135.494968766,大阪府豊中市新千里東町1-3-221せんちゅうパル,,,06-6871-4588,"月～金： 07:30～22:00
    土日祝： 08:00～22:00
定休日： 不定休
",1,0
288,カフェゴーガ 高松ゆめタウン店,34.3169505918,134.04232599,香川県高松市三条町中所608-1ゆめタウン高松,,,087-868-5613,"09:30～22:00
定休日： 不定休
",1,0
289,カフェゴーガ 美浜アメリカンビレッジ店,26.3162151961,127.757987696,沖縄県中頭郡北谷町美浜16-2美浜メディアステーション,,,098-921-7235,"月～木： 09:00～23:00
    金土： 09:00～24:00
    日祝： 09:00～23:00
定休日： 不定休
",1,1
29,カフェゴーガ 麹町店,35.6842527401,139.739078254,東京都千代田区麹町3-2-5垣見麹町ビル別館1F,,,03-5226-3223,"月～金： 06:30～21:00
    土： 08:00～20:00
    日祝： 08:00～19:00
定休日： 不定休
",1,1
290,カフェゴーガ 新栄葵町店,35.170646786,136.921066215,愛知県名古屋市東区葵1-21-4,,,052-930-4817,"月～土： 07:00～22:00
    日祝： 08:00～22:00
定休日： 不定休
",1,1
291,カフェゴーガ 奈良西大寺駅前店,34.6942512025,135.783378469,奈良県奈良市西大寺東町2-1-63サンワシティ西大寺,,,0742-32-1550,"月～金： 07:30～22:00
    土日祝： 08:00～22:00
定休日： 不定休
",1,0
292,カフェゴーガ 盛岡菜園店,39.7015931887,141.146865797,岩手県盛岡市菜園1-11-11ホテルロイヤル盛岡,,,019-606-0130,"07:30～21:00
定休日： 不定休
",1,0
293,カフェゴーガ 大宮西口店,35.9055920115,139.621486717,埼玉県さいたま市大宮区桜木町1-1-12NYビル,,,048-647-4882,"月～木： 07:00～22:00
    金： 07:00～22:30
    土： 08:00～22:30
    日祝： 08:00～22:00
定休日： 不定休
",1,1
294,カフェゴーガ 千葉中央駅店,35.6075167377,140.118255019,千葉県千葉市中央区本千葉町15-1ミラマーレショッピングセンターミーオ2,,,043-202-1501,"06:30～22:00
定休日： 不定休
",1,0
295,カフェゴーガ ベイシア西部モール店,36.3311440262,139.162139159,群馬県伊勢崎市宮子町3423-15ベイシア西部モール,,,0270-30-8155,"09:00～22:00
定休日： 不定休
",1,0
296,カフェゴーガ フルルガーデン八千代店,35.7218969822,140.117032354,千葉県八千代市村上南1-4-1フルルガーデン八千代,,,047-405-6931,"09:30～22:00
定休日： 不定休
",1,1
297,カフェゴーガ 那覇メインプレイス店,26.2251930106,127.695704004,沖縄県那覇市おもろまち4-4-9サンエー那覇メインプレイス,,,098-951-3349,"09:00～24:00
定休日： 不定休
",1,1
298,カフェゴーガ 川崎 ラ チッタデッラ店,35.528350366,139.698076338,神奈川県川崎市川崎区小川町4-1LACITTADELLA,,,044-223-1570,"07:00～23:00
定休日： 不定休
",1,1
299,カフェゴーガ 南青山骨董通り店,35.6614197519,139.714434685,東京都港区南青山5-4-27Barbizon104,,,03-5766-1405,"月～金： 07:00～22:00
    土： 08:00～22:00
    日祝： 08:00～21:00
定休日： 不定休
",1,1
3,カフェゴーガ 赤坂店,35.6677573055,139.740406403,東京都港区赤坂,,,03-3224-3495,"月～金： 07:00～20:30
    土： 08:00～19:00
    日祝： 09:00～19:00
定休日： 不定休
",1,1
30,カフェゴーガ 新横浜店,35.5086599119,139.61511469,神奈川県横浜市港北区新横浜2-5-1日総第１３ビル1F,,,045-471-3676,"07:00～22:00
定休日： 不定休
",1,0
300,カフェゴーガ あびこショッピングプラザ店,35.8765879954,140.009091973,千葉県我孫子市我孫子4-11-1あびこショッピングプラザ,,,04-7181-7951,"09:00～21:00
定休日： 不定休
",1,0
301,カフェゴーガ 武蔵小杉北口店,35.5774783195,139.659110645,神奈川県川崎市中原区小杉町1-403STMビル,,,044-738-3137,"07:00～22:00
定休日： 不定休
",1,0
302,カフェゴーガ 広尾店,35.6504041149,139.721829578,東京都渋谷区広尾5-14-5ノースゲートビル,,,03-3473-8720,"月～土： 07:00～22:00
    日祝： 07:00～21:30
定休日： 不定休
",1,1
303,カフェゴーガ 有楽町ビル店,35.6748796994,139.762045111,東京都千代田区有楽町1-10-1有楽町ビル,,,03-5288-7075,"月～金： 08:00～22:00
    土： 09:00～21:00
    日祝： 09:00～20:00
定休日： 不定休
",1,1
304,カフェゴーガ 北大路関西電力ビル店,35.043829755,135.757888655,京都府京都市北区小山北上総町50-1,,,075-494-1388,"08:00～22:00
定休日： 不定休
",0,1
305,カフェゴーガ 熊本シャワー通り店,32.7986889067,130.707758945,熊本県熊本市中央区下通2-3-1エスキュービック,,,096-327-5755,"08:00～23:00
定休日： 不定休
",1,1
306,カフェゴーガ イオンモール伊丹店,34.782201056,135.422995459,兵庫県伊丹市藤ノ木1-1-1,,,072-771-7188,"09:00～22:00
定休日： 不定休
",1,0
307,カフェゴーガ ザ・モール春日井店,35.2588400913,136.982432891,愛知県春日井市六軒屋町東丘22ザ・モール春日井,,,0568-87-5631,"10:00～21:00
定休日： 不定休
",1,1
308,カフェゴーガ ＪＲ明石駅店,34.6492388823,134.993247828,兵庫県明石市大明石町1-1-23ステーションプラザ明石,,,078-919-1191,"06:30～22:00
定休日： 不定休
",1,1
309,カフェゴーガ 岡山一番街店,34.6651492448,133.918723833,岡山県岡山市北区駅元町一番街地下３号岡山一番街,,,086-236-0363,"月～木： 07:00～22:00
    金土： 07:00～22:30
    日祝： 07:00～22:00
定休日： 不定休
",1,1
31,カフェゴーガ 西新宿三井ビル店,35.6951879185,139.689029685,東京都新宿区西新宿6-24-1西新宿三井ビル,,,03-5323-5631,"月～金： 07:30～20:00
    土： 10:00～18:00
定休日： 日・祝
",1,0
310,カフェゴーガ やすな大宮店,35.9072638384,139.62498996,埼玉県さいたま市大宮区大門町1-94やすなビル,,,048-658-5077,"月～木： 07:00～22:30
    金土： 07:00～23:00
    日祝： 07:00～22:00
定休日： 不定休
",1,0
311,カフェゴーガ イオン那覇ショッピングセンター店,26.1967235964,127.666228041,沖縄県那覇市金城5-10-2イオン那覇ショッピングセンター,,,098-852-1140,"月～土： 10:00～24:00
    日： 09:00～24:00
    祝： 10:00～24:00
定休日： 不定休
",1,0
312,カフェゴーガ 京都新京極店,35.0076407358,135.76736509,京都府京都市中京区新京極通三条下ル桜之町421小町ビル,,,075-254-6877,"07:30～22:00
定休日： 不定休
",1,1
313,カフェゴーガ イオンモール高岡店,36.7235932053,137.017824171,富山県高岡市下伏間江383,,,0766-32-1167,"10:00～23:00
定休日： 不定休
",1,0
314,カフェゴーガ 大手町ビル店,35.6864018506,139.764923786,東京都千代田区大手町1-6-1大手町ビル,,,03-5288-7330,"月～金： 07:00～22:00
    土： 07:00～21:00
定休日： 日・祝
",1,0
315,カフェゴーガ 渋谷オルガン坂店,35.6622154995,139.698494861,東京都渋谷区宇田川町14-14渋谷Ｋビル,,,03-5459-7235,"07:30～22:30
定休日： 不定休
",1,0
316,カフェゴーガ 成田空港第１ターミナル店,35.763311383,140.384035773,千葉県成田市三里塚御料牧場1-1成田空港第１旅客ターミナル中央ビル,,,0476-33-5005,"07:00～21:00
定休日： 不定休
",0,0
317,カフェゴーガ 六本木ヒルズ メトロハット／ハリウッドプラザ店,35.6615941642,139.729563143,東京都港区六本木6-4-1メトロハット/ハリウッドプラザ,,,03-3403-7716,"07:00～23:00
定休日： 不定休
",1,1
318,カフェゴーガ 六本木ヒルズ ウエストウォーク店,35.660447052,139.728840756,東京都港区六本木6-10-1森タワー,,,03-3403-7713,"07:00～23:00
定休日： 不定休
",1,1
319,カフェゴーガ 汐留シティセンター店,35.6654981849,139.761018406,東京都港区東新橋1-5-2汐留シティセンター,,,03-5537-2780,"月～金： 07:00～22:00
    土： 10:00～19:00
    日祝： 10:00～18:00
定休日： 不定休
",1,1
32,カフェゴーガ 青山骨董通り店,35.6627926011,139.711029071,東京都港区南青山5-10-1H2AOYAMABUILDING,,,03-5468-1608,"月～金： 07:00～22:30
    土： 08:00～22:30
    日祝： 08:00～22:00
定休日： 不定休
",1,0
320,カフェゴーガ イオンモール鈴鹿店,34.8719502682,136.531776743,三重県鈴鹿市庄野羽山4-1-2,,,0593-75-0509,"10:00～22:00
定休日： 不定休
",1,0
321,カフェゴーガ イオン札幌桑園店,43.0691653983,141.332391713,北海道札幌市中央区北8条西14丁目28イオン札幌桑園ショッピングセンター,,,011-204-7254,"08:00～23:00
定休日： 不定休
",1,1
323,カフェゴーガ イオン若松店,33.8919389853,130.743508414,福岡県北九州市若松区二島1-3-1イオン若松ショッピングセンター,,,093-772-1512,"09:00～22:00
定休日： 不定休
",1,1
324,カフェゴーガ 阿佐ヶ谷駅前店,35.7048081797,139.635671173,東京都杉並区阿佐谷南3-58-1,,,03-5327-6095,"07:00～22:30
定休日： 不定休
",1,0
325,カフェゴーガ ザ・モール仙台長町 Ｐａｒｔ２店,38.2261207404,140.877206411,宮城県仙台市太白区長町7-20-3ザ・モール仙台長町Part2,,,022-304-3552,"10:00～21:00
定休日： 不定休
",1,1
326,カフェゴーガ 八王子東急スクエア店,35.657423338,139.33867302,東京都八王子市旭町9-1八王子東急スクエア1F,,,0426-43-8038,"07:00～22:00
定休日： 不定休
",1,1
327,カフェゴーガ 国立店,35.6977181431,139.447035221,東京都国立市東1-6,,,042-580-2561,"07:00～22:00
定休日： 不定休
",1,1
328,カフェゴーガ 飯田橋アイガーデンテラス店,35.7010728042,139.750327101,東京都千代田区飯田橋3-10-9アイガーデンテラス,,,03-3239-8222,"月～金： 07:00～21:00
    土日祝： 07:00～19:00
定休日： 不定休
",1,0
329,カフェゴーガ 静岡　市役所前店,34.974506902,138.38240555,静岡県静岡市葵区呉服町2-2-9呉服町共同ビル,,,054-205-6121,"07:00～22:00
定休日： 不定休
",1,1
33,カフェゴーガ 横浜ランドマークプラザ店,35.4544737693,139.631365002,神奈川県横浜市西区みなとみらい2-2-1横浜ランドマークタワー,,,045-225-0317,"07:00～22:30
定休日： 不定休
",1,0
330,カフェゴーガ 湘南台イトーヨーカドー店,35.3927607649,139.447225914,神奈川県藤沢市石川6-2-1イトーヨーカドー湘南台店,,,0466-86-6383,"10:00～21:30
定休日： 不定休
",1,1
331,カフェゴーガ 札幌ステラプレイス センター1階店,43.0678630831,141.350900791,北海道札幌市中央区北5条西2丁目5JRタワー「ステラプレイス」,,,011-209-5305,"07:00～23:00
定休日： 不定休
",1,0
332,カフェゴーガ 覚王山店,35.1666127605,136.952155763,愛知県名古屋市千種区末盛通1-1末盛ビル,,,052-757-3773,"月～金： 07:00～22:00
    土日祝： 08:00～22:00
定休日： 不定休
",1,0
333,カフェゴーガ 佐野プレミアム・アウトレット店,36.2925556083,139.604816672,栃木県佐野市越名町２０５８番地佐野プレミアム・アウトレット３７０区,,,0283-27-3033,"09:30～20:30
定休日： 不定休
",1,0
334,カフェゴーガ ＪＲ東京駅日本橋口店,35.6833050317,139.769048308,東京都千代田区丸の内1-9-1丸の内中央ビル,,,03-5219-6066,"07:00～22:30
定休日： 不定休
",1,1
335,カフェゴーガ 玉川高島屋Ｓ・Ｃ店,35.6133105898,139.626837786,東京都世田谷区玉川3-17-1玉川高島屋Ｓ・Ｃ(南館７階),,,03-5797-3121,"10:00～23:00
定休日： 不定休
",1,1
336,カフェゴーガ 成田ボンベルタ店,35.7782053789,140.29053563,千葉県成田市赤坂2-1-10ボンベルタ成田,,,0476-29-7745,"09:00～21:00
定休日： 不定休
",1,1
337,カフェゴーガ ＯＢＰ松下ＩＭＰビル店,34.691844541,135.530396256,大阪府大阪市中央区城見1-3-7松下IMPビル,,,06-6966-9157,"月～金： 07:30～23:00
    土日祝： 08:00～23:00
定休日： 不定休
",1,0
338,カフェゴーガ エビスタ西宮店,34.7367164012,135.339165071,兵庫県西宮市田中町1-6エビスタ西宮,,,0798-37-1533,"07:00～22:00
定休日： 不定休
",1,1
339,カフェゴーガ 新大手町ビル店,35.6846523532,139.767083132,東京都千代田区大手町2-2-1新大手町ビル,,,03-6202-2391,"月～金： 07:00～21:00
    土： 09:00～16:00
定休日： 日・祝
",1,1
34,カフェゴーガ 東戸塚オーロラシティ店,35.4303347958,139.558220799,神奈川県横浜市戸塚区品濃町537-1オーロラシティ３４街区,,,045-827-0515,"07:00～22:00
定休日： 不定休
",1,0
340,カフェゴーガ アピタ新潟西店,37.8807277334,139.0035232,新潟県新潟市西区小新白鳥474アピタ新潟西店,,,025-201-1315,"09:00～21:00
定休日： 不定休
",1,1
341,カフェゴーガ 朝霞駅前店,35.7966330043,139.599516058,埼玉県朝霞市本町2-4-18バモスビル,,,048-460-1960,"月～木： 07:00～22:00
    金： 07:00～22:30
    土： 08:00～22:30
    日祝： 08:00～22:00
定休日： 不定休
",1,0
342,カフェゴーガ 蛍池ルシオーレ店,34.7940202438,135.448869433,大阪府豊中市蛍池中町3-2-1ルシオーレ（310),,,06-6840-8161,"08:00～22:00
定休日： 不定休
",1,0
343,カフェゴーガ 西本町店,34.681203986,135.497076458,大阪府大阪市西区阿波座1-3-18エッグビル本町,,,06-4390-3361,"月～金： 07:30～22:00
    土日祝： 08:00～21:00
定休日： 不定休
",1,1
344,カフェゴーガ 東京ドームシティ ラクーア店,35.7068683376,139.752739133,東京都文京区春日1-1-1ラクーア,,,03-3868-8061,"08:00～22:00
定休日： 不定休
",1,1
345,カフェゴーガ 小倉京町店,33.8856190103,130.881166994,福岡県北九州市小倉北区京町2-7-3ユニバース京町ビル,,,093-512-6031,"月～木： 07:00～22:00
    金： 07:00～23:00
    土： 08:00～23:00
    日祝： 08:00～22:00
定休日： 不定休
",1,1
346,カフェゴーガ 甲府店,35.6611945066,138.569920857,山梨県甲府市中央1-6-18野々垣ビル,,,055-221-3385,"07:00～22:00
定休日： 不定休
",1,0
347,カフェゴーガ 星が丘テラス店,35.1612605713,136.984883014,愛知県名古屋市千種区星が丘元町14-25星が丘テラスWEST,,,052-789-0681,"07:30～22:00
定休日： 不定休
",1,0
348,カフェゴーガ 清瀬駅前店,35.7725747409,139.51981073,東京都清瀬市元町1-8-1三福ビル,,,0424-96-7705,"07:00～22:00
定休日： 不定休
",1,0
349,カフェゴーガ 西武新宿ＰｅＰｅ店,35.694481245,139.700214899,東京都新宿区歌舞伎町1-30-1西武新宿ペペ,,,03-5155-3826,"07:00～23:00
定休日： 不定休
",1,0
35,カフェゴーガ 自由が丘店,35.6087201229,139.667413239,東京都目黒区自由が丘2-10-18栗山ビルⅡ1F,,,03-5701-3217,"月～木： 07:00～22:30
    金： 07:00～23:00
    土日祝： 07:30～23:00
定休日： 不定休
",1,0
351,カフェゴーガ イオンモール富津店,35.3302871812,139.845472661,千葉県富津市青木1-5-1,,,0439-80-1768,"09:00～21:00
定休日： 不定休
",1,1
352,カフェゴーガ 松山いよてつ会館ビル店,33.8414417377,132.770536007,愛媛県松山市大街道3-1-1いよてつ会館ビル,,,089-987-8515,"月～金： 07:30～22:00
    土日祝： 08:00～22:00
定休日： 不定休
",1,0
353,カフェゴーガ 下関大丸店,33.9498995349,130.923156936,山口県下関市竹崎町4-4-10下関大丸,,,083-228-2216,"月～木： 08:00～21:00
    金土： 08:00～22:00
    日祝： 08:00～21:00
定休日： 不定休
",1,1
354,カフェゴーガ 秋田アルス店,39.7176292443,140.128693228,秋田県秋田市中通7-2-1おしゃれかんアルス,,,018-884-7011,"月～木： 07:00～22:00
    金土： 07:00～22:30
    日祝： 07:00～22:00
定休日： 不定休
",1,1
355,カフェゴーガ 千葉センシティタワー店,35.6113145714,140.112905566,千葉県千葉市中央区新町1000千葉センシティタワー,,,043-204-2790,"07:00～22:00
定休日： 不定休
",1,0
356,カフェゴーガ 渋谷ファイヤー通り店,35.6635554011,139.701068475,東京都渋谷区神南1-12-10,,,03-5728-6285,"月～土： 07:30～22:00
    日祝： 08:00～22:00
定休日： 不定休
",1,0
357,カフェゴーガ 浜松イズム店,34.7039900254,137.731656217,静岡県浜松市中区鍛冶町140イズム・ハママツ,,,053-459-1805,"07:00～22:00
定休日： 不定休
",1,1
358,カフェゴーガ イオンモール富谷店,38.3645270094,140.875024941,宮城県黒川郡富谷町大清水1-33-1イオンモール富谷,,,022-779-0861,"09:00～21:00
定休日： 不定休
",1,1
359,カフェゴーガ イオンモール佐野新都市店,36.2990338311,139.606352912,栃木県佐野市高萩町1324-1イオンモール佐野新都市,,,0283-20-4128,"09:00～22:00
定休日： 不定休
",1,1
36,カフェゴーガ 神戸国際会館ＳＯＬ店,34.6920120068,135.195507116,兵庫県神戸市中央区御幸通8-1-6神戸国際会館B1F,,,078-230-3339,"月～木： 07:00～22:00
    金土： 07:00～22:30
    日祝： 07:00～22:00
定休日： 不定休
",1,1
360,カフェゴーガ 川口店,35.8035054899,139.720285434,埼玉県川口市栄町3-13-3マツマルビル,,,048-240-0055,"07:00～22:00
定休日： 不定休
",1,0
361,カフェゴーガ リバーウォーク北九州デコシティ店,33.8855208633,130.875331095,福岡県北九州市小倉北区室町1-1リバーウォーク北九州デコシティ1F,,,093-573-1761,"08:00～23:00
定休日： 不定休
",1,1
362,カフェゴーガ イオンモール熱田店,35.1368535375,136.909825371,愛知県名古屋市熱田区六野1-201イオンモール熱田,,,052-884-0218,"09:00～22:00
定休日： 不定休
",1,0
363,カフェゴーガ 長野駅前店,36.6449628888,138.18800061,長野県長野市南千歳町826C-one,,,026-229-5864,"07:00～22:00
定休日： 不定休
",1,0
364,カフェゴーガ イオン北千里店,34.8196405049,135.509387949,大阪府吹田市古江台4-2-50ディオス北千里7番館,,,06-6155-1362,"08:00～22:00
定休日： 不定休
",1,0
366,カフェゴーガ イオン入間店,35.8213912432,139.395854055,埼玉県入間市上藤沢下原462イオン入間ショッピングセンター,,,04-2901-4556,"09:00～22:00
定休日： 不定休
",1,1
367,カフェゴーガ みのおキューズモール店,34.8326690424,135.489536498,大阪府箕面市西宿1-17-22みのおキューズモール,,,072-749-6745,"月～金： 10:00～22:00
    土日祝： 09:00～22:00
定休日： 不定休
",1,0
368,カフェゴーガ 長崎 浜町 Ｓ東美店,32.7440624619,129.877066282,長崎県長崎市浜町1-22長崎松竹会館,,,095-818-3721,"07:30～22:00
定休日： 不定休
",1,0
369,カフェゴーガ イオンモール札幌苗穂店,43.0774102057,141.403659025,北海道札幌市東区東苗穂2条3丁目1-1イオンモール札幌苗穂,,,011-780-7679,"09:00～22:00
定休日： 不定休
",1,1
37,カフェゴーガ 日本橋本町店,35.6871580628,139.77533872,東京都中央区日本橋本町2-4-5扶桑日本橋ビル1F,,,03-5200-1008,"月～金： 07:00～21:00
    土： 08:00～18:00
    日祝： 11:00～18:00
定休日： 不定休
",1,0
370,カフェゴーガ 浦安店,35.6655349467,139.893909868,千葉県浦安市北栄1-15-9寿ビル,,,047-306-5231,"月～金： 07:00～22:00
    土日祝： 08:00～22:00
定休日： 不定休
",1,1
371,カフェゴーガ 二俣川西友店,35.4618932043,139.533132819,神奈川県横浜市旭区二俣川2-52-1西友二俣川店,,,045-360-8281,"08:00～22:00
定休日： 不定休
",1,1
372,カフェゴーガ ＦＫＤ宇都宮インターパーク店,36.4910254778,139.906217224,栃木県宇都宮市インターパーク6-1-1FKDショッピングモール宇都宮インターパーク,,,028-657-6121,"10:00～21:00
定休日： 不定休
",1,1
373,カフェゴーガ 横浜ビジネスパーク店,35.4541462608,139.597063977,神奈川県横浜市保土ヶ谷区神戸町134横浜ビジネスパーク/プレッツォ,,,045-348-2260,"月～金： 07:30～22:00
    土日祝： 08:00～22:00
定休日： 不定休
",1,0
374,カフェゴーガ イオンモール扶桑店,35.3622459034,136.898794242,愛知県丹羽郡扶桑町南山名高塚5-1イオンモール扶桑,,,0587-91-3143,"09:00～22:00
定休日： 不定休
",1,0
375,カフェゴーガ ＪＲ東海 品川駅店,35.6292839138,139.740013763,東京都港区港南2-1-78東海道新幹線品川駅,,,03-6717-6548,"月～金： 06:30～22:00
    土日祝： 07:00～22:00
定休日： 不定休
",1,0
376,カフェゴーガ イオンモール盛岡店,39.7113202039,141.099163755,岩手県盛岡市前潟4－7－1,,,019-605-2746,"09:00～21:00
定休日： 不定休
",1,0
377,カフェゴーガ ゆめタウン久留米店,33.322230215,130.537660353,福岡県久留米市新合川1-2-1ゆめタウン久留米,,,0942-45-7658,"10:00～22:00
定休日： 不定休
",1,0
378,カフェゴーガ 東銀座店,35.6677877721,139.767305557,東京都中央区銀座5-15-8時事通信ビル,,,03-3544-6240,"月～金： 07:00～21:00
    土日祝： 08:00～20:00
定休日： 不定休
",1,0
379,カフェゴーガ 宇都宮パセオ店,36.5607378823,139.898259675,栃木県宇都宮市川向町1-23パセオ1F,,,028-627-8401,"06:30～22:00
定休日： 不定休
",1,1
38,カフェゴーガ 横浜元町店,35.4413199536,139.650425136,神奈川県横浜市中区元町1-13-5ラヴィ元町1F,,,045-664-2741,"月～日： 07:30～22:00
    祝： 08:30～22:00
定休日： 不定休
",1,1
381,カフェゴーガ 大塚駅前店,35.7322926966,139.728604134,東京都豊島区北大塚2-13-1Ｇ.Ｈ.Ｙ.ビル,,,03-5961-5920,"07:00～23:00
定休日： 不定休
",1,1
382,カフェゴーガ 東京急行大井町駅店,35.6075825225,139.734212466,東京都品川区大井1-1-1,,,03-5746-0201,"07:00～22:30
定休日： 不定休
",1,0
384,カフェゴーガ イオン東大阪店,34.6793237991,135.602080601,大阪府東大阪市荒本北2-3-22イオン東大阪ショッピングモール1階,,,06-6748-4010,"09:00～22:00
定休日： 不定休
",1,1
385,カフェゴーガ 蕨 イトーヨーカドー錦町店,35.8218680455,139.676885693,埼玉県蕨市錦町1-12-1イトーヨーカドー錦町店,,,048-447-8148,"10:00～22:00
定休日： 不定休
",1,0
386,カフェゴーガ イオンモール太田店,36.2944490622,139.400677149,群馬県太田市石原町81,,,0276-47-8636,"10:00～22:00
定休日： 不定休
",1,0
387,カフェゴーガ 逗子駅前店,35.2970927495,139.579329071,神奈川県逗子市逗子1-4-1菊池ビルディング,,,046-870-6890,"07:00～22:00
定休日： 不定休
",1,1
388,カフェゴーガ 関 マーゴ店,35.478092976,136.899897427,岐阜県関市倉知516サンサンシティマーゴ,,,0575-21-0240,"月～土： 10:00～21:00
    日： 09:30～21:00
    祝： 10:00～21:00
定休日： 不定休
",1,1
389,カフェゴーガ 名古屋 伏見 ＡＴビル店,35.1682540786,136.894540195,愛知県名古屋市中区錦1-18-22名古屋ATビル,,,052-220-6232,"月～金： 07:00～22:00
    土： 07:30～22:00
    日祝： 07:30～21:00
定休日： 不定休
",1,1
39,カフェゴーガ 日本橋スルガビル店,35.6847460897,139.774835262,東京都中央区日本橋室町1-7-1スルガビル1F,,,03-5200-2616,"月～土： 06:30～22:00
    日祝： 08:00～21:00
定休日： 不定休
",1,0
390,カフェゴーガ イオンモール香椎浜店,33.6570988869,130.428931186,福岡県福岡市東区香椎浜3‐12‐1イオンモール香椎浜,,,092-673-6151,"09:00～21:00
定休日： 不定休
",1,0
391,カフェゴーガ 佐世保四ヶ町店,33.172027289,129.720726504,長崎県佐世保市島瀬町7-14柏田ビル,,,0956-42-4070,"07:30～22:00
定休日： 不定休
",1,1
392,カフェゴーガ ルミネ川越店,35.9070136045,139.482848165,埼玉県川越市脇田本町39-19ルミネ川越,,,049-240-6205,"07:00～22:00
定休日： 不定休
",1,0
393,カフェゴーガ イオンモール京都五条店,34.9975555548,135.727053069,京都府京都市右京区西院追分町25-1-043,,,075-326-8650,"09:00～22:00
定休日： 不定休
",1,0
394,カフェゴーガ ＬＡＬＡガーデンつくば店,36.0742398724,140.102359293,茨城県つくば市小野崎千駄苅278-1LALAガーデン,,,029-860-5208,"10:00～22:00
定休日： 不定休
",0,0
395,カフェゴーガ ＪＲ高槻駅北店,34.8517033963,135.616808941,大阪府高槻市芥川町1-2B-0202号アクトアモーレ,,,072-684-8477,"08:00～22:00
定休日： 不定休
",1,0
396,カフェゴーガ 福生西友店,35.7428612376,139.328130795,東京都福生市東町5-1福生西友,,,042-539-0717,"09:00～23:00
定休日： 不定休
",1,0
397,カフェゴーガ イオンモール橿原店,34.505329088,135.761776462,奈良県橿原市曲川町7-20-1-102,,,0744-21-8091,"10:00～22:00
定休日： 不定休
",1,0
398,カフェゴーガ イオンモール広島府中店,34.394470342,132.498972539,広島県安芸郡府中町大須2-1-1,,,082-561-0040,"09:00～22:00
定休日： 不定休
",1,1
399,カフェゴーガ 軽井沢・プリンスショッピングプラザ店,36.3419739856,138.637732489,長野県北佐久郡軽井沢町軽井沢軽井沢・プリンスショッピングプラザ・ニューイースト,,,0267-41-1072,"09:30～19:30
定休日： 不定休
",1,1
4,カフェゴーガ 八重洲店,35.679545196,139.77133718,東京都中央区八重洲,,,03-3243-0421,"06:30～22:00
定休日： 不定休
",1,0
40,カフェゴーガ 本厚木店,35.4404706128,139.364909998,神奈川県厚木市中町2-6-20相模興業本厚木中町ビル１F,,,046-221-0648,"07:30～22:00
定休日： 不定休
",1,1
400,カフェゴーガ 京都タワー店,34.9874038742,135.759505286,京都府京都市下京区烏丸通七条下ル東塩小路町721-1京都タワービル,,,075-353-0458,"07:00～23:00
定休日： 不定休
",1,1
401,カフェゴーガ 東武新越谷駅店,35.8755890001,139.790146591,埼玉県越谷市南越谷1-11-4東武新越谷駅ビル,,,048-961-3005,"07:00～23:00
定休日： 不定休
",1,0
403,カフェゴーガ イオン宇品店,34.362588776,132.468538479,広島県広島市南区宇品東6-1-15イオン宇品ショッピングセンター,,,082-250-8120,"09:00～22:00
定休日： 不定休
",1,0
404,カフェゴーガ ＪＲ東海 小田原駅店,35.2566057824,139.155180049,神奈川県小田原市城山1-1-1JR小田原駅構内,,,0465-20-1185,"06:30～21:00
定休日： 不定休
",0,0
405,カフェゴーガ アトレ恵比寿店,35.6466623723,139.710476805,東京都渋谷区恵比寿南1-5-5アトレ恵比寿,,,03-5475-8402,"07:00～22:30
定休日： 不定休
",1,1
406,カフェゴーガ 中部国際空港セントレア店,34.8593057422,136.815437657,愛知県常滑市セントレア１－１中部国際空港セントレア(4F),,,0569-38-7188,"07:00～22:00
定休日： 不定休
",1,0
407,カフェゴーガ アクタ西宮店,34.7473242117,135.358285495,兵庫県西宮市北口町1-2ACTA西宮東館,,,0798-69-0686,"08:30～22:00
定休日： 不定休
",1,0
408,カフェゴーガ イオンモール旭川西店,43.794032983,142.325056728,北海道旭川市緑町23丁目2161-3イオンモール旭川西,,,0166-59-7919,"09:00～22:00
定休日： 不定休
",1,0
409,カフェゴーガ 大和郡山アピタ店,34.6414204959,135.769278739,奈良県大和郡山市田中町宮西517アピタ大和郡山店,,,0743-54-2651,"10:00～21:00
定休日： 不定休
",1,1
41,カフェゴーガ 築地駅前店,35.6678681233,139.772001552,東京都中央区築地2-12-8喜津禰ビル1F,,,03-3545-2058,"月～金： 06:30～22:00
    土： 07:00～20:00
    日祝： 08:00～20:00
定休日： 不定休
",1,1
410,カフェゴーガ 大宮宮原ステラタウン店,35.9331779398,139.620915772,埼玉県さいたま市北区宮原町1-854-1ステラタウン,,,048-662-5538,"10:00～22:00
定休日： 不定休
",1,1
411,カフェゴーガ 松本なぎさライフサイト店,36.2320305016,137.955869458,長野県松本市渚１-7-1なぎさライフサイト,,,0263-24-0552,"07:30～24:00
定休日： 不定休
",1,0
412,カフェゴーガ イオン南風原店,26.2005666455,127.737101422,沖縄県島尻郡南風原町宮平264イオン南風原ショッピングセンター,,,098-940-6152,"10:00～23:00
定休日： 不定休
",1,1
413,カフェゴーガ イオンモール福岡店,33.597064267,130.480634101,福岡県糟屋郡粕屋町酒殿老ノ木192-1,,,092-939-7370,"09:00～21:00
定休日： 不定休
",1,0
414,カフェゴーガ イオンモール木曽川店,35.3492459448,136.773850495,愛知県一宮市木曽川町黒田南八ツヶ池,,,0586-84-3977,"10:00～22:00
定休日： 不定休
",1,0
415,カフェゴーガ 東武北千住駅店,35.7503710011,139.805851331,東京都足立区千住旭町42-1東武北千住駅,,,03-5813-5051,"07:00～23:00
定休日： 不定休
",1,0
416,カフェゴーガ 熊本ゆめタウン光の森店,32.8600709091,130.784792499,熊本県菊池郡菊陽町光の森7-39-1ゆめタウン光の森,,,096-233-2212,"10:00～22:00
定休日： 不定休
",1,1
417,カフェゴーガ 近鉄東大阪店,34.6643461157,135.56348033,大阪府東大阪市長堂1-1-1近鉄東大阪店,,,06-6783-8061,"月～金： 07:00～22:00
    土日祝： 08:00～22:00
定休日： 不定休
",1,1
418,カフェゴーガ イオンモール浜松志都呂店,34.6964916628,137.652259268,静岡県浜松市西区志都呂2-37-1,,,053-415-1354,"10:00～22:00
定休日： 不定休
",1,1
419,カフェゴーガ 平塚ＯＳＣ湘南シティ店,35.3284249834,139.358389588,神奈川県平塚市代官町33-1OSC湘南シティ,,,0463-25-0561,"10:00～21:00
定休日： 不定休
",1,0
42,カフェゴーガ 銀座コリドー通り店,35.6712103401,139.760350699,東京都中央区銀座7-2-22銀座同和ビル,,,03-3575-0938,"月～金： 07:00～22:30
    土： 08:00～22:30
    日祝： 08:00～22:00
定休日： 不定休
",1,1
420,カフェゴーガ モラージュ柏店,35.8828113573,139.969324989,千葉県柏市大山台2-3モラージュ柏,,,04-7137-6116,"10:00～21:00
定休日： 不定休
",1,0
421,カフェゴーガ イオン上田店,36.3920211661,138.257990333,長野県上田市常田2-12-18イオン上田ショッピングセンター,,,0268-29-9350,"09:00～22:00
定休日： 不定休
",1,0
422,カフェゴーガ らびすた新杉田店,35.3850965379,139.619478073,神奈川県横浜市磯子区杉田1-1-1らびすた新杉田,,,045-778-6508,"07:00～22:00
定休日： 不定休
",1,1
423,カフェゴーガ 豊島園駅前店,35.7431090197,139.647945334,東京都練馬区練馬4-18-8ティーズガーデン,,,03-5912-6881,"月～金： 07:00～22:00
    土日祝： 08:00～22:00
定休日： 不定休
",1,0
424,カフェゴーガ ゆめタウン呉店,34.2424817581,132.555801763,広島県呉市宝町5-10ゆめタウン呉,,,0823-32-5370,"09:00～21:30
定休日： 不定休
",1,0
425,カフェゴーガ 関西国際空港エアサイド店,34.434657906,135.245449819,大阪府泉佐野市泉州空港北1関西国際空港旅客ターミナルビル3階,,,072-456-8691,"08:00～21:30
定休日： 不定休
",0,1
426,カフェゴーガ 宇都宮イトーヨーカドー店,36.5551537244,139.928178558,栃木県宇都宮市陽東6-2-1イトーヨーカドー宇都宮店,,,028-613-0831,"10:00～22:00
定休日： 不定休
",1,0
427,カフェゴーガ アピタ千代田橋店,35.1875119385,136.969463086,愛知県名古屋市千種区千代田橋2-1-1アピタ千代田橋店,,,052-719-2051,"10:00～21:00
定休日： 不定休
",1,1
428,カフェゴーガ 具志川メインシティ店,26.3530618877,127.826018127,沖縄県うるま市江洲450-1サンエー具志川メインシティ,,,098-982-6540,"09:00～24:00
定休日： 不定休
",1,0
429,カフェゴーガ イオンモール堺北花田店,34.5835178123,135.515517202,大阪府堺市北区東浅香山町4丁1-12,,,072-246-5044,"10:00～22:00
定休日： 不定休
",1,1
43,カフェゴーガ 津田沼パルコ店,35.6923204283,140.021893006,千葉県船橋市前原西2-18-1津田沼パルコＢ館1F,,,047-493-5700,"07:00～22:00
定休日： 不定休
",1,0
430,カフェゴーガ ららぽーと甲子園店,34.7167859282,135.364973846,兵庫県西宮市甲子園八番町1-100ららぽーと甲子園,,,0798-81-6571,"10:00～23:00
定休日： 不定休
",1,0
431,カフェゴーガ 昭島モリタウン店,35.7136855377,139.36384945,東京都昭島市田中町562-1モリタウン,,,042-500-5801,"10:00～21:00
定休日： 不定休
",1,0
432,カフェゴーガ イオンモール北戸田店,35.8262754987,139.653485211,埼玉県戸田市美女木東1-3-1イオンモール北戸田,,,048-449-0498,"09:00～22:00
定休日： 不定休
",1,1
433,カフェゴーガ イオンモールりんくう泉南店,34.3807473921,135.267579074,大阪府泉南市りんくう南浜3-1,,,072-480-6626,"10:00～22:00
定休日： 不定休
",1,1
434,カフェゴーガ 浜松プラザ フレスポ店,34.7254591371,137.764557774,静岡県浜松市東区上西町1020-33浜松プラザフレスポ棟,,,053-411-7240,"09:30～22:30
定休日： 不定休
",1,0
435,カフェゴーガ アピタ鳴海店,35.0943517213,136.959058795,愛知県名古屋市緑区鳴海町伝治山3-9アピタ鳴海店,,,052-899-4861,"10:00～22:00
定休日： 不定休
",1,0
436,カフェゴーガ イオン八代店,32.5248279987,130.584970642,熊本県八代市沖町六番割3987-3イオン八代ショッピングセンター,,,0965-39-3558,"10:00～22:00
定休日： 不定休
",1,0
437,カフェゴーガ イオンモール姫路大津店,34.8066941737,134.606473254,兵庫県姫路市大津区大津町2-5イオンモール姫路大津,,,079-230-6912,"09:00～22:00
定休日： 不定休
",1,1
438,カフェゴーガ ガーデンパーク和歌山店,34.23885752,135.153466196,和歌山県和歌山市松江向鵜ノ島1469-1ガーデンパーク和歌山,,,073-480-3791,"月～木： 09:00～23:00
    金土： 09:00～24:00
    日祝： 09:00～23:00
定休日： 不定休
",1,1
439,カフェゴーガ イオンモール与野店,35.8910723389,139.614930152,埼玉県さいたま市中央区本町西5-2-9イオンモール与野,,,048-856-7113,"09:00～22:00
定休日： 不定休
",1,1
44,カフェゴーガ 横浜ベイサイドマリーナ店,35.379711441,139.644569293,神奈川県横浜市金沢区白帆4-2マリーナプラザ1F,,,045-772-1507,"09:00～21:00
定休日： 不定休
",1,0
440,カフェゴーガ 府中くるる店,35.6711632375,139.480663929,東京都府中市宮町1-50くるる,,,042-354-8830,"07:00～22:30
定休日： 不定休
",1,1
442,カフェゴーガ 池袋ショッピングパーク店,35.7301320943,139.712698888,東京都豊島区南池袋1-29-1池袋ショッピングパーク,,,03-5911-5661,"07:00～22:30
定休日： 不定休
",1,1
443,カフェゴーガ ぺディ汐留店,35.6631392681,139.760878527,東京都港区東新橋1-9-1東京汐留ビルディング内Pedi汐留,,,03-6274-5021,"月～金： 07:00～22:00
    土日祝： 08:00～20:00
定休日： 不定休
",1,1
444,カフェゴーガ サンリブシティ小倉店,33.8386745013,130.908060256,福岡県北九州市小倉南区上葛原2-14-１サンリブシティ小倉,,,093-932-1661,"09:30～22:00
定休日： 不定休
",1,1
445,カフェゴーガ 甲府リバーシティ店,35.6148848544,138.512988551,山梨県中央市山ノ神1122リバーシティショッピングセンター,,,055-273-7866,"10:00～21:00
定休日： 不定休
",1,1
446,カフェゴーガ 水戸エクセル店,36.3712165709,140.475560457,茨城県水戸市宮町1-1-1エクセル,,,029-303-1417,"07:00～22:30
定休日： 不定休
",1,0
447,カフェゴーガ 中部国際空港出発ターミナル内店,34.8586657448,136.811666611,愛知県常滑市セントレア１－１中部国際空港セントレア(3F),,,0569-38-7186,"07:00～22:00
定休日： 不定休
",1,1
449,カフェゴーガ つくばキュート店,36.0823980487,140.111518712,茨城県つくば市吾妻1-6-1Q't2F,,,029-863-1730,"07:00～23:00
定休日： 不定休
",1,1
45,カフェゴーガ 西武高田馬場駅店,35.713022385,139.704083169,東京都新宿区高田馬場1-35-2高田馬場西武ラチ内コンコース,,,03-5291-2931,"06:00～23:00
定休日： 不定休
",1,1
451,カフェゴーガ アピタ四日市店,34.9681175844,136.617146059,三重県四日市市安島1-3-31LaLaスクエア四日市店,,,059-350-4471,"07:00～22:00
定休日： 不定休
",1,0
453,カフェゴーガ イオンモール八千代緑が丘店,35.72872075,140.072370749,千葉県八千代市緑が丘2-1-3イオンモール八千代緑が丘,,,047-458-5388,"09:00～22:00
定休日： 不定休
",1,1
455,カフェゴーガ 広島アルパーク店,34.373197467,132.394949658,広島県広島市西区草津新町2-26-1アルパーク,,,082-501-1229,"08:00～22:00
定休日： 不定休
",1,1
456,カフェゴーガ くずはモール店,34.8610456749,135.677244047,大阪府枚方市楠葉花園町15-1-112くずはモール,,,072-836-3165,"08:00～23:00
定休日： 不定休
",1,1
457,カフェゴーガ イオンモール直方店,33.7683364836,130.749861633,福岡県直方市湯野原2-1-1,,,0949-29-8668,"09:00～21:00
定休日： 不定休
",1,1
458,カフェゴーガ イオンモール新発田店,37.9424323247,139.310263496,新潟県新発田市住吉町5-11-5イオンモール新発田,,,0254-21-7874,"09:00～22:00
定休日： 不定休
",1,1
459,カフェゴーガ アリオ蘇我店,35.5879866769,140.122399185,千葉県千葉市中央区川崎町52-7アリオ蘇我,,,043-209-6531,"10:00～21:00
定休日： 不定休
",1,1
46,カフェゴーガ 虎ノ門駅前店,35.6703858039,139.750052425,東京都港区虎ノ門1-1-23ウンピン虎ノ門ビル1F,,,03-5512-1102,"月～金： 06:30～22:00
    土日祝： 08:00～19:00
定休日： 不定休
",1,1
460,カフェゴーガ あべのHoop店,34.6452789543,135.513812555,大阪府大阪市阿倍野区阿倍野筋1-2-30あべのHoop,,,06-6622-1747,"07:00～23:00
定休日： 不定休
",1,0
461,カフェゴーガ 四街道イトーヨーカドー店,35.6669303673,140.165075062,千葉県四街道市中央5番地イトーヨーカドー四街道店,,,043-304-3481,"09:00～21:00
定休日： 不定休
",1,1
462,カフェゴーガ 天満橋京阪シティモール店,34.6899520091,135.516978846,大阪府大阪市中央区天満橋京町1-1京阪シティモール,,,06-6920-5975,"月～金： 07:00～22:30
    土日祝： 08:00～22:00
定休日： 不定休
",1,1
463,カフェゴーガ イオンタウン千種店,35.1620411022,136.924642425,愛知県名古屋市千種区千種2-16-13イオンタウン千種,,,052-734-5254,"09:00～23:00
定休日： 不定休
",1,1
464,カフェゴーガ イオンモール苫小牧店,42.6562927356,141.641448946,北海道苫小牧市柳町3-1-20イオンモール苫小牧,,,0144-51-3347,"09:00～22:00
定休日： 不定休
",1,0
465,カフェゴーガ グランデュオ蒲田店,35.5624420325,139.715994669,東京都大田区西蒲田7-68-1グランデュオ蒲田西館,,,03-5713-6310,"07:00～23:00
定休日： 不定休
",1,1
466,カフェゴーガ イオンモール浜松市野店,34.740295305,137.763245533,静岡県浜松市東区天王町諏訪1981-3イオンモール浜松市野,,,053-468-1821,"09:00～22:00
定休日： 不定休
",1,0
467,カフェゴーガ ゆめタウン八代店,32.5057969914,130.58569618,熊本県八代市建馬町3-1ゆめタウン八代,,,0965-30-0170,"10:00～22:00
定休日： 不定休
",1,0
468,カフェゴーガ VIA MALL アピタ江南西店,35.3425111275,136.854391894,愛知県江南市松竹町上野205VIAMALLアピタ江南西,,,0587-51-5931,"09:30～21:30
定休日： 不定休
",1,0
469,カフェゴーガ 成城店,35.6398850401,139.59906748,東京都世田谷区成城2-40-25パレブラン成城,,,03-5727-3502,"月～土： 07:00～22:30
    日祝： 07:00～22:00
定休日： 不定休
",1,1
47,カフェゴーガ 稲毛海岸ベイマークスクエア店,35.6277740709,140.073723063,千葉県千葉市美浜区高洲3-15ベイマークスクエア1F,,,043-303-0561,"07:00～22:00
定休日： 不定休
",1,1
470,カフェゴーガ 鎌倉御成町店,35.3196414556,139.547911475,神奈川県鎌倉市御成町15-11,,,0467-61-2161,"08:00～21:00
定休日： 不定休
",1,0
471,カフェゴーガ アピタ高蔵寺店,35.2830250502,137.048662388,愛知県春日井市中央台2-5アピタ高蔵寺店,,,0568-94-5831,"09:00～21:00
定休日： 不定休
",1,0
472,カフェゴーガ 大倉山駅前店,35.521615457,139.630237004,神奈川県横浜市港北区大倉山1－2－10,,,045-533-0451,"07:00～22:00
定休日： 不定休
",1,0
474,カフェゴーガ イオンモール秋田店,39.6636089132,140.160615287,秋田県秋田市御所野地蔵田1-1-1,,,018-889-6588,"09:00～21:00
定休日： 不定休
",1,0
475,カフェゴーガ イオン北谷店,26.3145334134,127.756948693,沖縄県中頭郡北谷町美浜8-3イオン北谷店,,,098-921-7386,"10:00～23:00
定休日： 不定休
",1,0
477,カフェゴーガ 三郷イトーヨーカドー店,35.8433052362,139.854061936,埼玉県三郷市天神2-22イトーヨーカドー三郷店,,,048-949-1830,"09:30～21:00
定休日： 不定休
",1,0
478,カフェゴーガ 白金高輪店,35.6440972303,139.734344107,東京都港区白金1-17-2-102白金アエルシティ,,,03-5789-3124,"月～金： 07:00～22:00
    土日祝： 08:00～21:00
定休日： 不定休
",1,0
479,カフェゴーガ CoCoLo長岡店,37.4464810021,138.853354556,新潟県長岡市城内町1-611-1CoCoLo長岡,,,0258-31-0015,"07:00～21:00
定休日： 不定休
",1,1
48,カフェゴーガ NBF日比谷ビル店,35.6719318821,139.757632558,東京都千代田区内幸町1-1-7NBF日比谷ビル,,,03-5510-0090,"月～金： 07:30～20:00
    土： 08:00～20:00
定休日： 日・祝
",1,1
481,カフェゴーガ イオンモール熊本店,32.7373108536,130.745520302,熊本県上益城郡嘉島町上島長池2232,,,096-235-6811,"09:00～21:00
定休日： 不定休
",1,1
482,カフェゴーガ 鶴川店,35.5835587434,139.482068402,東京都町田市能ヶ谷1-5-1小田急マルシェ鶴川２,,,042-737-6577,"07:00～22:00
定休日： 不定休
",1,0
483,カフェゴーガ 草加ヴァリエ店,35.8282387434,139.803557935,埼玉県草加市高砂2-5-25ヴァリエ,,,048-922-8030,"07:00～23:00
定休日： 不定休
",1,1
485,カフェゴーガ イオンモール名古屋みなと店,35.1035637864,136.863348819,愛知県名古屋市港区品川町2-1-6イオンモール名古屋みなと,,,052-659-5271,"09:00～22:00
定休日： 不定休
",1,0
486,カフェゴーガ イオンモール水戸内原店,36.3745336299,140.359309126,茨城県水戸市中原町西135,,,029-259-1129,"10:00～23:00
定休日： 不定休
",1,0
487,カフェゴーガ 新百合ヶ丘エルミロード店,35.603104629,139.50933246,神奈川県川崎市麻生区上麻生1-4-1小田急新百合ケ丘エルミロード,,,044-965-3193,"10:00～22:00
定休日： 不定休
",0,0
49,カフェゴーガ 三軒茶屋店,35.6444235659,139.669683629,東京都世田谷区太子堂4-20-25海津ビル1F,,,03-5430-5088,"月～金： 07:00～22:30
    土日祝： 08:00～22:30
定休日： 不定休
",1,0
490,カフェゴーガ 天神西通り店,33.5878943375,130.396713715,福岡県福岡市中央区大名1-13-25,,,092-738-0777,"月～木： 08:00～23:00
    金土： 08:00～25:00
    日祝： 08:00～23:00
定休日： 不定休
",1,1
491,カフェゴーガ 江坂オッツ店,34.7580579623,135.495609707,大阪府吹田市豊津町14-8江坂オッツ,,,06-6821-8411,"月～金： 07:30～23:00
    土： 08:00～23:00
    日祝： 08:00～22:00
定休日： 不定休
",1,0
492,カフェゴーガ アピタ長津田店,35.5180474131,139.497737895,神奈川県横浜市緑区長津田みなみ台4-7-1アピタ長津田,,,045-988-0553,"10:00～21:00
定休日： 不定休
",1,0
493,カフェゴーガ アリオ札幌店,43.071534156,141.371188382,北海道札幌市東区北７条東9丁目2-20アリオ札幌,,,011-702-6745,"10:00～22:00
定休日： 不定休
",1,0
494,カフェゴーガ 別府トキハ店,33.2801371792,131.505545798,大分県別府市北浜2-9-1トキハ別府店,,,0977-73-8630,"08:00～21:00
定休日： 不定休
",1,0
495,カフェゴーガ 幕張ＷＢＧ店,35.648510977,140.03948134,千葉県千葉市美浜区中瀬2-6-1WBG,,,043-213-5801,"月～金： 07:00～22:00
    土日祝： 08:00～21:00
定休日： 不定休
",1,0
496,カフェゴーガ 沖縄西原シティ店,26.2243862575,127.76532687,沖縄県中頭郡西原町嘉手苅130サンエー西原シティ,,,098-882-8556,"09:00～23:00
定休日： 不定休
",1,1
497,カフェゴーガ アピタ静岡店,34.9586739241,138.40121555,静岡県静岡市駿河区石田1-5-1アピタ静岡店,,,054-654-5822,"09:00～22:00
定休日： 不定休
",1,1
498,カフェゴーガ 岡山大学病院店,34.6509577408,133.92064766,岡山県岡山市北区鹿田町2-5-1岡山大学病院,,,086-803-2117,"月～金： 07:00～20:00
    土日祝： 10:00～17:00
定休日： 不定休
",0,0
499,カフェゴーガ アリオ亀有店,35.7651174534,139.852073757,東京都葛飾区亀有3-49-3アリオ亀有,,,03-3601-2209,"09:30～23:00
定休日： 不定休
",1,1
5,カフェゴーガ みなとみらい店,35.4568818921,139.634056334,神奈川県横浜市西区みなとみらい,,,045-682-2755,"07:30～22:30
定休日： 不定休
",1,1
50,カフェゴーガ 吉祥寺東急店,35.7052854498,139.577720686,東京都武蔵野市吉祥寺本町2-3-1東急百貨店吉祥寺店1F,,,0422-20-0735,"09:00～22:00
定休日： 不定休
",1,0
501,カフェゴーガ 北の丸スクエア店,35.6956470104,139.75117228,東京都千代田区九段北1-13-12北の丸スクエア,,,03-3221-5431,"月～金： 06:30～22:00
    土日祝： 08:00～20:00
定休日： 不定休
",1,1
504,カフェゴーガ 東京ミッドタウン コンプレックス スタジオ店,35.6656545849,139.730804797,東京都港区赤坂9-7-3E-0110東京ミッドタウンプラザ1F,,,03-5413-3518,"月～木： 07:00～23:00
    金土： 07:00～24:00
    日祝： 07:00～23:00
定休日： 不定休
",1,1
505,カフェゴーガ 佐野プレミアム・アウトレット プレイグラウンド店,36.2942840437,139.605343493,栃木県佐野市越名町２０５８番地佐野プレミアム・アウトレット７０２０区,,,0283-27-2161,"09:30～20:30
定休日： 不定休
",1,0
506,カフェゴーガ モザイクモール港北店,35.5544160469,139.578613948,神奈川県横浜市都筑区中川中央1-31-1モザイクモール港北（区画番号2193),,,045-914-2211,"10:00～20:00
定休日： 不定休
",1,1
507,カフェゴーガ イオンモールナゴヤドーム前店,35.1875101266,136.945230376,愛知県名古屋市東区矢田南4-102-3イオンモールナゴヤドーム前,,,052-725-6534,"09:00～22:00
定休日： 不定休
",1,0
509,カフェゴーガ アトレ新浦安店,35.6499994455,139.913208703,千葉県浦安市入船1-1-1アトレ新浦安,,,047-390-6861,"月～金： 10:00～22:00
    土日祝： 10:00～21:00
定休日： 不定休
",1,1
51,カフェゴーガ 横浜モアーズ店,35.4669864377,139.622208797,神奈川県横浜市西区南幸1-3-1横浜モアーズ2F,,,045-411-0488,"07:00～23:00
定休日： 不定休
",1,0
510,カフェゴーガ イオンモール浦和美園店,35.8919231579,139.730638837,埼玉県さいたま市緑区大門3710イオンモール浦和美園,,,048-812-6502,"09:00～22:00
定休日： 不定休
",1,1
511,カフェゴーガ 関西国際空港4階ノースゲート店,34.4341523904,135.244645742,大阪府泉南郡田尻町泉州空港中1関西国際空港旅客ターミナルビル4階,,,072-456-8795,"07:00～22:30
定休日： 不定休
",0,1
512,カフェゴーガ イオンモール千葉ニュータウン店,35.8022141735,140.114099732,千葉県印西市中央北3-2,,,0476-48-4593,"09:00～22:00
定休日： 不定休
",1,1
514,カフェゴーガ イオンモール柏店,35.8518389833,139.961809539,千葉県柏市豊町2-5-25イオンモール柏,,,04-7142-5293,"09:00～22:00
定休日： 不定休
",1,1
515,カフェゴーガ 関西国際空港2階到着ロビー店,34.434910363,135.244534883,大阪府泉南郡田尻町泉州空港中1関西国際空港旅客ターミナルビル2階,,,072-456-8696,"07:00～22:30
定休日： 不定休
",0,0
518,カフェゴーガ 関西国際空港1階サウスゲート店,34.434473999,135.243286951,大阪府泉南郡田尻町泉州空港中1関西国際空港旅客ターミナルビル1階,,,072-456-8797,"06:30～22:30
定休日： 不定休
",0,1
519,カフェゴーガ モレラ岐阜店,35.4549056677,136.673468688,岐阜県本巣市三橋1100モレラ岐阜,,,058-320-0841,"月～金： 10:00～22:00
    土日祝： 09:00～22:00
定休日： 不定休
",1,0
52,カフェゴーガ 大阪空港店,34.7898511315,135.442357388,大阪府豊中市蛍池西町3-555大阪国際空港ターミナルビル3F,,,06-6857-0266,"06:00～20:00
定休日： 不定休
",1,0
520,カフェゴーガ イオンモール福岡伊都店,33.5777105101,130.258363174,福岡県福岡市西区北原1-2-1イオンモール福岡伊都,,,092-805-8182,"10:00～22:00
定休日： 不定休
",1,1
521,カフェゴーガ 東武久喜駅店,36.0655164435,139.677708295,埼玉県久喜市中央2-1-1東武久喜駅,,,0480-29-1550,"07:00～22:00
定休日： 不定休
",1,1
523,カフェゴーガ ミスターマックス湘南藤沢ショッピングセンター店,35.3402025332,139.465164622,神奈川県藤沢市辻堂新町4-3-5ミスターマックス湘南藤沢ショッピングセンター,,,0466-33-5681,"10:00～22:00
定休日： 不定休
",1,0
524,カフェゴーガ 新宿西口店,35.689971956,139.697404785,東京都新宿区西新宿1-12-1高倉第一ビル,,,03-5324-0106,"07:00～23:00
定休日： 不定休
",1,1
526,カフェゴーガ 獨協医科大学病院店,36.4723099537,139.825221479,栃木県下都賀郡壬生町北小林880,,,0282-85-0310,"月～土： 07:00～22:00
    日祝： 08:00～20:00
定休日： 不定休
",1,0
527,カフェゴーガ 東京大学工学部店,35.7136743959,139.759586585,東京都文京区本郷7-3-1工学部11号館,,,03-5842-5716,"月～金： 08:00～20:00
    土日祝： 09:00～20:00
定休日： 不定休
",1,0
53,カフェゴーガ 竹橋パレスサイド店,35.691150932,139.757319755,東京都千代田区一ツ橋1-1-1竹橋パレスサイドビルディング1F,,,03-3212-3510,"月～金： 07:00～21:00
    土： 08:00～17:00
定休日： 日・祝
",1,1
531,カフェゴーガ 岡山シネマタウン岡南店,34.6026849202,133.940657388,岡山県岡山市南区築港新町1-25-1シネマタウン岡南,,,086-902-1211,"08:30～22:00
定休日： 不定休
",0,0
532,カフェゴーガ ＡＳＴＹ静岡店,34.9723116947,138.388897612,静岡県静岡市葵区黒金町47ＡＳＴＹ静岡,,,054-275-3066,"07:00～22:00
定休日： 不定休
",0,1
533,カフェゴーガ ラゾーナ川崎店,35.5317843991,139.695551112,神奈川県川崎市幸区堀川町72-1ラゾーナ川崎プラザ,,,044-874-8359,"07:30～22:00
定休日： 不定休
",1,1
534,カフェゴーガ ららぽーと豊洲店,35.6551462326,139.792594316,東京都江東区豊洲2-4-9ららぽーと豊洲,,,03-6910-1336,"月～金： 10:00～21:00
    土日祝： 10:00～22:00
定休日： 不定休
",1,1
536,カフェゴーガ 鹿児島天文館店,31.5920191893,130.55476027,鹿児島県鹿児島市東千石町16-18STYLISHビル,,,099-219-9896,"月～木： 09:00～21:00
    金土： 09:00～22:00
    日祝： 09:00～21:00
定休日： 不定休
",1,0
538,カフェゴーガ 香川大学病院店,34.2921657609,134.122878775,香川県木田郡三木町池戸1750-1香川大学医学部付属病院,,,087-891-7701,"月～金： 07:00～20:00
    土日祝： 09:00～18:00
定休日： 不定休
",1,1
539,カフェゴーガ 慈恵大学病院店,35.6635701683,139.751440124,東京都港区西新橋3-19-18東京慈恵会医科大学附属病院,,,03-5777-1672,"月～土： 07:00～18:00
定休日： 日・祝
",0,1
54,カフェゴーガ 京都四条通ヤサカビル店,35.0038383044,135.763911663,京都府京都市下京区四条通柳馬場西入ル立売中之町106ヤサカ四条ビル,,,075-231-5008,"07:00～23:00
定休日： 不定休
",1,1
540,カフェゴーガ 宮崎山形屋店,31.9161477541,131.423713735,宮崎県宮崎市橘通東3-4-12宮崎山形屋,,,0985-31-3015,"月～木： 08:00～21:00
    金土： 08:00～22:00
    日祝： 08:00～21:00
定休日： 不定休
",1,1
542,カフェゴーガ イオンモール高崎店,36.3903599891,139.007376507,群馬県高崎市棟高町1400,,,027-310-9051,"10:00～22:00
定休日： 不定休
",1,1
543,カフェゴーガ イオンモール大日店,34.7490867792,135.579681194,大阪府守口市大日東町1-18イオンモール大日,,,06-4252-3521,"08:00～23:00
定休日： 不定休
",1,1
544,カフェゴーガ 蓮田サービスエリア（上り線）店,36.0002179814,139.668049326,埼玉県蓮田市黒浜3475-3東北自動車道蓮田サービスエリア（上り線）内,,,048-765-7711,"06:30～21:00
定休日： 不定休
",1,0
546,カフェゴーガ 藤が丘effe店,35.1818434487,137.021208216,愛知県名古屋市名東区藤が丘170-4effe,,,052-760-1835,"07:00～22:00
定休日： 不定休
",1,1
547,カフェゴーガ イオンモール盛岡南店,39.6831004052,141.128715378,岩手県盛岡市本宮7-1-1イオンモール盛岡南,,,019-631-3108,"09:00～22:00
定休日： 不定休
",1,1
548,カフェゴーガ 金沢フォーラス店,36.5794652489,136.649826092,石川県金沢市堀川新町3-1金沢フォーラス,,,076-265-8101,"07:00～23:00
定休日： 不定休
",1,0
549,カフェゴーガ 栄ラシック店,35.1671208169,136.907607217,愛知県名古屋市中区栄3-6-1,,,052-259-6287,"11:00～21:00
定休日： 不定休
",1,1
55,カフェゴーガ 渋谷３丁目店,35.6562357101,139.705740646,東京都渋谷区渋谷3-11-7第２ミネギシビル,,,03-5467-2005,"月～金： 07:00～22:00
    土： 07:30～22:00
    日祝： 07:30～21:00
定休日： 不定休
",1,1
550,カフェゴーガ なんばパークス店,34.6617939202,135.501672525,大阪府大阪市浪速区難波中2-10-70なんばパークスTーterrace2階,,,06-6636-8152,"月～木： 09:00～22:00
    金土日祝： 09:00～22:30
定休日： 不定休
",1,0
551,カフェゴーガ ららぽーと横浜店,35.5172231463,139.566468891,神奈川県横浜市都筑区池辺町4035-1ららぽーと横浜(店舗番号35010),,,045-414-2405,"10:00～23:00
定休日： 不定休
",1,0
557,カフェゴーガ イオンモールむさし村山店,35.7460663315,139.384937041,東京都武蔵村山市榎1-1-3,,,042-566-8528,"10:00～22:00
定休日： 不定休
",1,0
558,カフェゴーガ アリオ八尾店,34.6324330469,135.605844392,大阪府八尾市光町2-3アリオ八尾,,,072-997-2571,"10:00～21:00
定休日： 不定休
",1,1
559,カフェゴーガ イオンモール八幡東店,33.8702386078,130.811648476,福岡県北九州市八幡東区東田3-2-102イオンモール八幡東,,,093-663-7162,"09:00～21:00
定休日： 不定休
",1,0
56,カフェゴーガ 浜松町東芝ビル店,35.650914399,139.757122457,東京都港区芝浦1-1-1東芝ビルディングプラザ,,,03-3457-5782,"月～金： 06:30～20:00
定休日： 土 ・日・祝
",1,0
562,カフェゴーガ ゆめタウン佐賀店,33.2756514666,130.308187945,佐賀県佐賀市兵庫北5-14-1ゆめタウン佐賀,,,0952-36-8250,"10:00～22:00
定休日： 不定休
",1,1
563,カフェゴーガ 和歌山県立医科大学附属病院店,34.1880287273,135.181684526,和歌山県和歌山市紀三井寺811-1和歌山県立医科大学附属病院,,,073-447-0275,"月～金： 07:30～20:00
    土日祝： 09:00～19:00
定休日： 不定休
",0,0
564,カフェゴーガ 浜松駅 新幹線ラチ内店,34.7038223281,137.735237594,静岡県浜松市中区鍛冶町140イズム・ハママツ（浜松イズム店）,,,053-413-5070,"07:00～21:00
定休日： 不定休
",1,1
565,カフェゴーガ 羽田空港第1ターミナル　マーケットプレイス3階店,35.5485191592,139.784295193,東京都大田区羽田空港3-3-2東京国際空港第１ターミナルビル,,,03-5757-9088,"06:30～20:00
定休日： 不定休
",1,1
566,カフェゴーガ 富士川サービスエリア（下り線）店,35.1591557492,138.620158969,静岡県富士市岩淵1348－3東名高速道路富士川サービスエリア（下り線）,,,0545-56-2277,"07:00～22:00
定休日： 不定休
",1,0
567,カフェゴーガ 天神地下街店,33.58797163,130.401212782,福岡県福岡市中央区天神2丁目地下０号天神地下街,,,092-738-0031,"07:00～23:00
定休日： 不定休
",1,1
569,カフェゴーガ 浜名湖サービスエリア店,34.7814404022,137.607287146,静岡県浜松市北区三ケ日町佐久米61-2東名高速道路浜名湖サービスエリア内,,,053-528-1200,"07:00～22:00
定休日： 不定休
",1,1
57,カフェゴーガ 青山外苑西通り店,35.669121724,139.715470356,東京都港区北青山3-2-2ＡＹビル1F,,,03-5412-3918,"月～金： 07:00～22:00
    土： 08:00～22:00
    日祝： 08:00～21:00
定休日： 不定休
",1,0
570,カフェゴーガ イオンモール名取店,38.1631753026,140.896072187,宮城県名取市杜せきのした5-3-1,,,022-381-0817,"09:00～21:00
定休日： 不定休
",1,0
571,カフェゴーガ 山梨大学医学部附属病院店,35.6099100103,138.539156885,山梨県中央市下河東1110山梨大学医学部附属病院,,,055-278-5877,"07:00～20:00
定休日： 不定休
",1,1
574,カフェゴーガ 新丸ビル店,35.6825283657,139.764334847,東京都千代田区丸の内1-5-1新丸の内ビル,,,03-5224-8688,"07:00～22:00
定休日： 不定休
",1,1
576,カフェゴーガ 旭川医科大学病院店,43.7298656068,142.384492525,北海道旭川市緑が丘東2条1丁目1-1旭川医科大学病院,,,0166-60-6577,"月～金： 07:30～19:30
    土日祝： 08:30～19:30
定休日： 不定休
",0,0
577,カフェゴーガ 大阪大学医学部附属病院店,34.8192928182,135.528373333,大阪府吹田市山田丘2-15大阪大学医学部附属病院内,,,06-4864-8071,"月～金： 07:00～20:00
    土日祝： 10:00～18:00
定休日： 不定休
",0,1
579,カフェゴーガ けやきウォーク前橋店,36.3790460476,139.078205312,群馬県前橋市文京町2-1-1けやきウォーク前橋,,,027-210-6685,"10:00～22:00
定休日： 不定休
",1,0
58,カフェゴーガ 城山ガーデン店,35.6649443206,139.743130195,東京都港区虎ノ門4-3-1城山トラストタワー,,,03-3431-7590,"月～金： 07:00～20:30
    土： 08:00～19:00
定休日： 日・祝
",1,1
581,カフェゴーガ イオンモール札幌平岡店,42.9967328465,141.458384862,北海道札幌市清田区平岡三条5丁目3-1イオンモール札幌平岡,,,011-889-5098,"09:00～22:00
定休日： 不定休
",1,0
582,カフェゴーガ 埼玉医科大学国際医療センター店,35.921249001,139.322371948,埼玉県日高市山根稲荷山1397-1埼玉医科大学国際医療センター,,,042-984-0031,"月～金： 08:00～21:00
    土： 08:00～20:00
    日祝： 10:00～20:00
定休日： 不定休
",1,1
583,カフェゴーガ 慶應義塾大学病院店,35.6806763707,139.718290145,東京都新宿区信濃町35,,,03-5369-3186,"月～土： 07:00～21:00
    日祝： 08:00～20:00
定休日： 不定休
",1,1
584,カフェゴーガ ゆめタウン博多店,33.6115034622,130.411663886,福岡県福岡市東区東浜1-1-1ゆめタウン博多,,,092-643-6737,"09:30～22:00
定休日： 不定休
",1,0
585,カフェゴーガ おやまゆうえんハーヴェストウォーク店,36.3331778753,139.80842428,栃木県小山市喜沢1475おやまゆうえんハーヴェストウォーク,,,0285-20-1707,"10:00～23:00
定休日： 不定休
",1,0
586,カフェゴーガ 東京ステーションシティ サピアタワー店,35.6837113689,139.768581384,東京都千代田区丸の内1-7-12,,,03-5224-8075,"月～金： 07:00～22:00
    土日祝： 07:00～19:00
定休日： 不定休
",1,1
587,カフェゴーガ 横浜ワールドポーターズ店,35.4540744978,139.638817457,神奈川県横浜市中区新港2-2-1横浜ワールドポーターズ,,,045-222-2148,"10:30～22:00
定休日： 不定休
",1,0
589,カフェゴーガ 長岡リバーサイド千秋店,37.4605004308,138.82698249,新潟県長岡市千秋2-278リバーサイド千秋,,,0258-25-9655,"10:00～21:00
定休日： 不定休
",1,0
59,カフェゴーガ 飯田橋軽子坂店,35.7019928579,139.743132378,東京都新宿区揚場町2-1軽子坂ＭＮビル1F,,,03-5261-8040,"月～土： 07:00～22:00
    日祝： 08:00～21:00
定休日： 不定休
",1,0
590,カフェゴーガ 港北ノースポート・モール店,35.5520915855,139.579313163,神奈川県横浜市都筑区中川中央1-25-1ノースポート・モール,,,045-914-7375,"10:00～21:00
定休日： 不定休
",1,0
591,カフェゴーガ イオンモール高松店,34.3516448259,134.004192282,香川県高松市香西本町１－１イオンモール高松,,,087-842-8216,"09:00～21:30
定休日： 不定休
",1,0
592,カフェゴーガ イオンモール大垣店,35.3366361655,136.613858252,岐阜県大垣市外野2-100イオンモール大垣,,,0584-87-3426,"09:00～22:00
定休日： 不定休
",1,0
593,カフェゴーガ イオンモール高の原店,34.7258365566,135.790326437,京都府木津川市相楽台１-1-1イオンモール高の原,,,0774-75-1603,"09:00～23:00
定休日： 不定休
",1,1
594,カフェゴーガ 名古屋市立大学病院店,35.1392812307,136.93574894,愛知県名古屋市瑞穂区瑞穂町川澄1名古屋市立大学病院外来診療棟,,,052-858-3155,"月～金： 07:00～21:00
    土日祝： 08:00～19:00
定休日： 不定休
",1,0
596,カフェゴーガ ララガーデン春日部店,35.9775752575,139.755122304,埼玉県春日部市南1-1-1(店舗番号1230)ララガーデン春日部,,,048-731-6750,"09:30～21:00
定休日： 不定休
",1,1
597,カフェゴーガ 東京ドームシティ ミーツポート店,35.7029787903,139.754840805,東京都文京区後楽1-3-61ミーツポート,,,03-5840-9275,"07:00～22:30
定休日： 不定休
",1,1
598,カフェゴーガ 神戸三田プレミアム・アウトレット店,34.8618371215,135.192413442,兵庫県神戸市北区上津台7-3神戸三田プレミアム・アウトレット(120区),,,078-983-3495,"09:30～20:00
定休日： 不定休
",1,1
599,カフェゴーガ 福島県立医科大学附属病院店,37.6899865509,140.471290642,福島県福島市光が丘1福島県立医科大学附属病院,,,024-547-2131,"月～金： 07:00～20:00
    土日祝： 09:00～19:00
定休日： 不定休
",0,0
6,カフェゴーガ 原宿店,35.6699909145,139.706257192,東京都渋谷区神宮前,,,03-5413-0330,"月～金： 07:30～22:30
    土： 08:00～22:30
    日祝： 08:00～22:00
定休日： 不定休
",1,0
60,カフェゴーガ 聖蹟桜ヶ丘オーパ店,35.6499676895,139.446720779,東京都多摩市関戸4-72聖蹟桜ヶ丘ＯＰＡ1F,,,042-356-3341,"07:00～22:30
定休日： 不定休
",1,0
600,カフェゴーガ カレッタ汐留店,35.6643674887,139.761945604,東京都港区東新橋1-8-2カレッタ汐留,,,03-5537-2471,"月～金： 07:00～22:00
    土日祝： 09:00～21:00
定休日： 不定休
",1,0
602,カフェゴーガ MIDORI松本店,36.2309621563,137.964544342,長野県松本市深志1-1-1MIDORI松本店,,,0263-31-8571,"07:00～22:00
定休日： 不定休
",1,0
603,カフェゴーガ 高知あぞの店,33.5788348887,133.553338366,高知県高知市薊野北町1-9-39,,,088-803-1225,"08:00～24:00
定休日： 不定休
",1,0
604,カフェゴーガ 赤坂Bizタワー店,35.6729647397,139.736724247,東京都港区赤坂5-3-1赤坂Bizタワー(区画番号206),,,03-5574-8560,"07:00～21:00
定休日： 不定休
",1,0
605,カフェゴーガ 海ほたるパーキングエリア店,35.4635220685,139.87565152,千葉県木更津市中島地先海ほたる海ほたるパーキングエリア,,,0438-40-0530,"07:30～22:00
定休日： 不定休
",1,0
606,カフェゴーガ 芝大門店,35.6568797821,139.751974277,東京都港区芝公園2-3-4ホテルコンソレイユ芝・東京,,,03-6430-7950,"月～金： 06:30～21:00
    土日祝： 07:00～20:00
定休日： 不定休
",1,1
607,カフェゴーガ 葉山海岸通り店,35.2748750205,139.57329365,神奈川県三浦郡葉山町堀内980葉山館,,,046-877-5788,"07:00～22:00
定休日： 不定休
",1,1
608,カフェゴーガ ルミネ荻窪店,35.7046543173,139.620341342,東京都杉並区上荻1-7-1ルミネ荻窪店,,,03-5347-2825,"07:00～22:00
定休日： 不定休
",1,1
609,カフェゴーガ イオンモール各務原店,35.3917553374,136.824452113,岐阜県各務原市那加萱場町3-8イオンモール各務原,,,058-375-3687,"09:00～22:00
定休日： 不定休
",1,1
61,カフェゴーガ 虎ノ門２丁目タワー店,35.6685251081,139.746531692,東京都港区虎ノ門2-3-17虎ノ門２丁目タワー,,,03-3592-5021,"月～金： 07:00～20:30
定休日： 土 ・日・祝
",1,0
611,カフェゴーガ 大分大学医学部附属病院店,33.2096296755,131.534758563,大分県由布市挾間町医大ヶ丘1-1大分大学医学部附属病院,,,097-586-5312,"月～金： 07:00～19:30
    土日祝： 10:00～18:30
定休日： 不定休
",1,0
613,カフェゴーガ ルミネエスト新宿店,35.6917226674,139.701139394,東京都新宿区新宿3-38-1ルミネエスト２Ｆ,,,03-3351-8134,"07:30～23:00
定休日： 不定休
",1,0
614,カフェゴーガ 札幌医科大学附属病院店,43.0551766358,141.333479489,北海道札幌市中央区南1条西16丁目札幌医科大学附属病院,,,011-632-8055,"月～金： 07:00～20:00
    土日祝： 08:00～19:00
定休日： 不定休
",0,0
615,カフェゴーガ 池袋サンシャイン通り店,35.730805404,139.715466405,東京都豊島区東池袋1-20-5七富久ビル,,,03-5953-3525,"07:00～22:30
定休日： 不定休
",1,0
616,カフェゴーガ イオンモール羽生店,36.1433846146,139.540937457,埼玉県羽生市川崎2-281-3イオンモール羽生,,,048-560-0131,"10:00～22:00
定休日： 不定休
",1,1
617,カフェゴーガ イオンモール鹿児島店,31.5274482711,130.536171454,鹿児島県鹿児島市東開町7イオンモール鹿児島,,,099-263-1949,"10:00～22:00
定休日： 不定休
",1,1
619,カフェゴーガ 富山総曲輪フェリオ店,36.6896405272,137.213193954,富山県富山市総曲輪3-8-6総曲輪フェリオ,,,076-492-8213,"08:00～22:00
定休日： 不定休
",1,1
62,カフェゴーガ 御堂筋本町東芝ビル店,34.683449636,135.500329695,大阪府大阪市中央区本町4-2-12東芝大阪ビル,,,06-4704-2124,"月～金： 06:30～23:00
    土日祝： 07:00～23:00
定休日： 不定休
",1,0
621,カフェゴーガ 新宿サブナード店,35.6938910464,139.701132628,東京都新宿区歌舞伎町1丁目サブナード1新宿サブナード,,,03-5312-0531,"07:00～22:00
定休日： 不定休
",1,0
622,カフェゴーガ 浦和パルコ店,35.8587260148,139.659108806,埼玉県さいたま市浦和区東高砂町11-1浦和パルコ,,,048-611-8142,"10:00～21:00
定休日： 不定休
",1,1
623,カフェゴーガ 北参道店,35.6780936528,139.70590657,東京都渋谷区千駄ケ谷3-39-9IBF-PLANNINGビル,,,03-5414-3941,"07:30～21:00
定休日： 不定休
",1,0
624,カフェゴーガ 三芳パーキングエリア(下り線）店,35.8416556577,139.502325946,埼玉県入間郡三芳町上富2218-1三芳パーキングエリア(下り線）,,,049-274-5481,"07:00～22:00
定休日： 不定休
",1,0
625,カフェゴーガ 代々木店,35.6827444666,139.701461725,東京都渋谷区代々木1-38-7川本ビル,,,03-5304-0158,"07:00～21:00
定休日： 不定休
",1,0
627,カフェゴーガ 上里サービスエリア(上り線）店,36.2559946579,139.119793914,埼玉県児玉郡上里町五明849-1上里サービスエリア(上り線）,,,0495-35-1075,"07:00～22:00
定休日： 不定休
",1,0
628,カフェゴーガ イオンモール新潟南店,37.8761837473,139.081453604,新潟県新潟市江南区下早通柳田1-1-1イオンモール新潟南,,,025-383-5635,"09:00～22:00
定休日： 不定休
",1,0
629,カフェゴーガ 鹿児島OPSIAミスミ店,31.5435739013,130.543768414,鹿児島県鹿児島市宇宿2-3-5OPSIAMisumi,,,099-812-7212,"10:00～24:00
定休日： 不定休
",1,0
63,カフェゴーガ 岸和田カンカン ベイサイドモール店,34.4670119052,135.370373232,大阪府岸和田市港緑町3-1岸和田カンカンベイサイドモール1F,,,072-432-9050,"10:00～22:00
定休日： 不定休
",1,0
630,カフェゴーガ Qiz溝の口店,35.5998865101,139.613222313,神奈川県川崎市高津区溝口1-13-1Qiz溝の口,,,044-829-6030,"07:00～22:30
定休日： 不定休
",1,1
631,カフェゴーガ 枚方市駅北口店,34.8158986036,135.647970224,大阪府枚方市岡本町2-22枚方デパートメントビル,,,072-804-3055,"07:00～22:30
定休日： 不定休
",1,1
632,カフェゴーガ レミィ五反田店,35.6255482097,139.72454022,東京都品川区東五反田2-1-2レミィ五反田,,,03-5795-4321,"07:00～23:00
定休日： 不定休
",1,0
636,カフェゴーガ イオンモール日の出パブリックコート店,35.734493408,139.273919294,東京都西多摩郡日の出町平井237-3イオンモール日の出,,,042-588-8089,"09:00～22:00
定休日： 不定休
",1,0
637,カフェゴーガ イオンモール日の出店,35.7349014487,139.275568305,東京都西多摩郡日の出町平井237-3イオンモール日の出,,,042-588-8041,"09:00～21:00
定休日： 不定休
",1,0
638,カフェゴーガ 上里サービスエリア（下り線）店,36.2546920074,139.119100976,埼玉県児玉郡上里町五明820上里サービスエリア（下り線）,,,0495-35-1101,"07:00～22:00
定休日： 不定休
",1,1
64,カフェゴーガ 関内馬車道店,35.4465913502,139.635437249,神奈川県横浜市中区常盤町4-45アートビル1F,,,045-664-9099,"07:00～22:00
定休日： 不定休
",1,0
640,カフェゴーガ 目黒権之助坂店,35.6341679277,139.713467687,東京都目黒区下目黒1-2-19ホテルミッドイン目黒駅前,,,03-5436-2253,"月～金： 07:00～22:00
    土日祝： 08:00～21:00
定休日： 不定休
",1,1
641,カフェゴーガ ミーナ津田沼店,35.6897110074,140.023160521,千葉県習志野市津田沼1-3-1mina津田沼,,,047-403-4871,"06:30～22:00
定休日： 不定休
",1,0
643,カフェゴーガ 浦和別所店,35.854997876,139.647415782,埼玉県さいたま市南区別所3-2-2,,,048-872-8280,"07:00～24:00
定休日： 不定休
",1,1
644,カフェゴーガ 秋葉原駅前店,35.6979057754,139.773811407,東京都千代田区神田佐久間町1-6-5AKIBA・TOLIM,,,03-5295-7380,"07:00～22:30
定休日： 不定休
",1,0
647,カフェゴーガ 三木サービスエリア（下り線)店,34.8159205728,134.981609175,兵庫県三木市加佐湯谷1142三木サービスエリア（下り線）,,,0794-86-7671,"07:00～22:00
定休日： 不定休
",1,1
648,カフェゴーガ 獨協医科大学越谷病院店,35.8777432111,139.789977617,埼玉県越谷市南越谷2-1-50獨協医科大学越谷病院,,,048-960-5051,"月～土： 07:30～19:00
    日祝： 11:00～18:00
定休日： 不定休
",0,0
649,カフェゴーガ 赤坂プルデンシャルタワー店,35.676065829,139.738560063,東京都千代田区永田町2-13-10プルデンシャルタワー,,,03-3519-3171,"月～金： 07:00～22:00
    土日祝： 10:00～18:00
定休日： 不定休
",1,0
65,カフェゴーガ 山王パークタワー店,35.6732661583,139.74026755,東京都千代田区永田町2-11-1山王パークタワー,,,03-3502-0323,"月～金： 07:00～22:00
    土日祝： 08:00～18:00
定休日： 不定休
",1,1
650,カフェゴーガ 甲府山交百貨店,35.6659453812,138.569564835,山梨県甲府市丸の内1-3-3山交百貨店,,,055-225-0507,"07:00～22:00
定休日： 不定休
",1,1
651,カフェゴーガ 尼崎つかしん店,34.7615590412,135.419790565,兵庫県尼崎市塚口本町4-8-1グンゼタウンセンターつかしん,,,06-4961-6673,"10:00～21:00
定休日： 不定休
",1,1
652,カフェゴーガ 淀屋橋odona店,34.6909268974,135.500651824,大阪府大阪市中央区今橋4-1-1淀屋橋odonaB1F,,,06-4706-6277,"月～金： 07:00～23:00
    土日祝： 08:00～22:00
定休日： 不定休
",1,0
653,カフェゴーガ ゆめタウン広島店,34.3762088985,132.463537157,広島県広島市南区皆実町2-224-7ゆめタウン広島,,,082-250-6162,"10:00～22:00
定休日： 不定休
",1,0
655,カフェゴーガ イオンモール大高店,35.0526570926,136.947639719,愛知県名古屋市緑区大高町奥平子1-13Fイオンモール大高,,,052-626-2863,"09:00～22:00
定休日： 不定休
",1,0
656,カフェゴーガ 舞浜　イクスピアリ店,35.6351524763,139.884486494,千葉県浦安市舞浜1-4イクスピアリ(店舗番号169),,,047-305-5728,"08:00～22:00
定休日： 不定休
",1,1
657,カフェゴーガ 筑波大学中央図書館店,36.1091047367,140.101349993,茨城県つくば市天王台1-1-1筑波大学中央図書館,,,029-860-3131,"月～金： 08:00～20:00
    土日祝： 10:00～18:00
定休日： 不定休
",1,1
658,カフェゴーガ イオンモール大高オレンジコート店,35.0528006884,136.947639712,愛知県名古屋市緑区大高町奥平子1-11Fイオンモール大高,,,052-626-2819,"09:00～22:00
定休日： 不定休
",1,1
659,カフェゴーガ 阪神御影クラッセ店,34.7156810784,135.255483823,兵庫県神戸市東灘区御影中町3-2-1御影クラッセ,,,078-854-7081,"08:00～22:00
定休日： 不定休
",1,0
66,カフェゴーガ 淡路町駅前店,35.6956753508,139.767648688,東京都千代田区神田淡路町1-2クリスタルビル,,,03-5294-7850,"月～土： 07:00～22:00
    日祝： 08:00～21:00
定休日： 不定休
",1,0
660,カフェゴーガ 三宮磯上通店,34.6919900864,135.196749792,兵庫県神戸市中央区磯上通7-1-19PROGRESSKOBE,,,078-230-0033,"月～木： 07:00～22:00
    金土： 07:00～22:30
    日祝： 07:00～22:00
定休日： 不定休
",1,0
661,カフェゴーガ 千葉県がんセンター店,35.5815969426,140.162097849,千葉県千葉市中央区仁戸名町666-2千葉県がんセンター,,,043-209-8811,"月～金： 07:30～19:00
    土日祝： 10:00～17:00
定休日： 不定休
",0,0
662,カフェゴーガ 名古屋大須万松寺店,35.1585028183,136.905802208,愛知県名古屋市中区大須3-31-14山惣第２ビル,,,052-249-2675,"月～金： 07:00～22:00
    土日祝： 08:00～22:00
定休日： 不定休
",1,0
663,カフェゴーガ 倉敷天満屋店,34.6012231421,133.766299713,岡山県倉敷市阿知1-7-1天満屋倉敷店,,,086-430-0027,"07:00～21:00
定休日： 不定休
",1,1
665,カフェゴーガ おのだサンパーク店,33.9855456158,131.171510225,山口県山陽小野田市中川6-4-1おのだサンパーク,,,0836-81-0501,"10:00～21:00
定休日： 不定休
",1,1
667,カフェゴーガ アリオ鳳店,34.5248594893,135.459068758,大阪府堺市西区鳳南町3-199-12アリオ鳳,,,072-273-3871,"10:00～22:00
定休日： 不定休
",1,0
668,カフェゴーガ 札幌パルコ店,43.0587327177,141.353583766,北海道札幌市中央区南1条西3丁目3札幌パルコ,,,011-214-2300,"07:30～23:00
定休日： 不定休
",1,0
669,カフェゴーガ 六本木ヒルズ ウエストウォーク ラウンジ店,35.6603942775,139.728706047,東京都港区六本木6-10-1森タワー,,,03-5771-1117,"月～金： 07:00～21:00
    土： 09:00～21:00
    日祝： 09:00～20:00
定休日： 不定休
",1,1
67,カフェゴーガ 八重洲さくら通り店,35.6814877515,139.770507715,東京都中央区八重洲1-6-3小鉄ビル,,,03-5203-1880,"07:00～22:30
定休日： 不定休
",1,0
671,カフェゴーガ ルミネ北千住店,35.7503762638,139.805020566,東京都足立区千住旭町42-2ルミネ北千住,,,03-5284-1416,"07:00～23:00
定休日： 不定休
",1,0
672,カフェゴーガ アトレヴィ田端店,35.7381529136,139.76101145,東京都北区東田端1-17-2アトレヴィ田端,,,03-5832-6107,"月～金： 07:00～22:00
    土日祝： 08:00～21:00
定休日： 不定休
",1,0
675,カフェゴーガ イオンモール佐久平店,36.2758616273,138.463643047,長野県佐久市佐久平駅南11－10イオンモール佐久平,,,0267-66-3449,"09:00～22:00
定休日： 不定休
",1,0
677,カフェゴーガ 長崎空港店,32.9126160471,129.921751477,長崎県大村市箕島町593長崎空港ビルディング,,,0957-20-7121,"07:00～20:00
定休日： 不定休
",1,0
678,カフェゴーガ 豊橋ココラフロント店,34.762960149,137.384215412,愛知県豊橋市駅前大通1-55ココラフロント,,,0532-57-1377,"07:30～22:00
定休日： 不定休
",1,1
68,カフェゴーガ 堺筋本町店,34.6838191556,135.506896077,大阪府大阪市中央区本町1-8-12オーク堺筋本町ビル1F,,,06-6263-2733,"月～金： 07:00～22:00
    土日祝： 08:00～21:00
定休日： 不定休
",1,1
680,カフェゴーガ 筑波大学附属病院店,36.0927326008,140.101452405,茨城県つくば市天久保2-1-1筑波大学附属病院,,,029-860-2780,"月～金： 07:30～19:30
    土日祝： 10:00～18:00
定休日： 不定休
",0,0
681,カフェゴーガ 赤坂サカス店,35.6724906036,139.735570198,東京都港区赤坂5-3-6,,,03-5114-6165,"07:00～22:00
定休日： 不定休
",1,1
682,カフェゴーガ 京都錦小路店,35.0050645153,135.761229052,京都府京都市中京区東洞院通蛸薬師下ル元竹田町651,,,075-257-7877,"07:00～23:00
定休日： 不定休
",1,0
683,カフェゴーガ 越谷イオンレイクタウン mori 1階店,35.8820453711,139.828663373,埼玉県越谷市東町2-8イオンレイクタウンmori,,,048-930-7355,"09:00～23:00
定休日： 不定休
",1,1
684,カフェゴーガ 越谷イオンレイクタウン mori ガーデンウォーク店,35.8810740716,139.827831542,埼玉県越谷市東町2-8イオンレイクタウンmori,,,048-930-7368,"10:00～23:00
定休日： 不定休
",1,1
685,カフェゴーガ 越谷イオンレイクタウン kaze店,35.8770147241,139.824427012,埼玉県越谷市東町4-21-1イオンレイクタウンkaze,,,048-934-3103,"09:00～22:00
定休日： 不定休
",1,0
686,カフェゴーガ 仙台パルコ店,38.261986975,140.881263311,宮城県仙台市青葉区中央1-2-3仙台パルコ,,,022-774-8201,"08:00～21:00
定休日： 不定休
",1,1
687,カフェゴーガ 越谷イオンレイクタウン mori 3階店,35.8802241657,139.828014622,埼玉県越谷市東町2-8イオンレイクタウンmori,,,048-930-7466,"09:00～22:00
定休日： 不定休
",1,1
688,カフェゴーガ 大手町カンファレンスセンター店,35.6884535423,139.763018017,東京都千代田区大手町1-3-1JAビル,,,03-6213-0650,"月～金： 07:00～22:00
    土： 08:00～19:00
定休日： 日・祝
",1,0
689,カフェゴーガ イーアスつくば店,36.0867012786,140.084239946,茨城県つくば市研究学園C50街区1イーアスつくば,,,029-868-7175,"10:00～22:00
定休日： 不定休
",1,1
69,カフェゴーガ 神田小川町２丁目店,35.6942154253,139.762978588,東京都千代田区神田小川町2-5-5紀陽東京ビル1F,,,03-5281-1115,"月～金： 07:00～22:00
    土日祝： 09:00～21:00
定休日： 不定休
",1,0
690,カフェゴーガ ララガーデン川口店,35.8058326419,139.698711286,埼玉県川口市宮町18-9ララガーデン川口,,,048-240-5277,"09:00～22:00
定休日： 不定休
",1,0
691,カフェゴーガ 自治医科大学附属病院店,36.3984559569,139.859780898,栃木県下野市薬師寺3311-1自治医科大学附属病院,,,0285-40-0127,"月～金： 07:00～21:00
    土日祝： 08:00～20:00
定休日： 不定休
",1,0
692,カフェゴーガ 仙台泉パークタウン タピオ店,38.3429105743,140.835431447,宮城県仙台市泉区寺岡6-5-1泉パークタウンタピオ,,,022-342-7961,"10:00～22:00
定休日： 不定休
",1,0
693,カフェゴーガ 明治神宮前メトロピア店,35.6698194842,139.702837762,東京都渋谷区神宮前1-18-22駅事務室千代田線明治神宮前駅,,,03-6419-9311,"月～金： 07:00～22:30
    土： 08:00～22:30
    日祝： 08:00～22:00
定休日： 不定休
",0,0
694,カフェゴーガ 経塚シティ店,26.2376913085,127.722500092,沖縄県浦添市経塚652サンエー経塚シティ,,,098-871-3365,"09:00～23:00
定休日： 不定休
",1,1
695,カフェゴーガ イオンモール大曲店,39.4375508929,140.511769866,秋田県大仙市和合坪立177イオンモール大曲,,,0187-66-3619,"09:00～21:00
定休日： 不定休
",1,0
696,カフェゴーガ みらい長崎ココウォーク店,32.7624877739,129.864633411,長崎県長崎市茂里町1-55みらい長崎ココウオーク,,,095-848-2171,"10:00～21:00
定休日： 不定休
",1,1
698,カフェゴーガ 京都烏丸六角店,35.0076547699,135.759859602,京都府京都市中京区六角通東洞院西入堂之前町254,,,075-257-7325,"月～金： 07:00～22:00
    土日祝： 08:00～22:00
定休日： 不定休
",1,1
699,カフェゴーガ イオンモール下妻店,36.1896016793,139.989862768,茨城県下妻市堀篭972－1イオンモール下妻,,,0296-38-5576,"09:00～22:00
定休日： 不定休
",1,0
7,カフェゴーガ 町田東急ツインズ店,35.5433277099,139.446892898,東京都町田市原町田6-4-1町田東急ツインズウエスト３階W306,,,042-728-3822,"10:00～21:00
定休日： 不定休
",1,0
70,カフェゴーガ 南町田グランベリーモール店,35.5100666916,139.471174357,東京都町田市鶴間3-4-1グランベリ－モール,,,042-795-2495,"08:00～21:00
定休日： 不定休
",1,1
701,カフェゴーガ イオンモール筑紫野店,33.4796312153,130.525091649,福岡県筑紫野市立明寺434-1イオンモール筑紫野,,,092-918-3388,"09:00～21:00
定休日： 不定休
",1,1
702,カフェゴーガ イオンモールかほく店,36.7102643579,136.700043676,石川県かほく市内日角タ25イオンモールかほく,,,076-289-1525,"10:00～22:00
定休日： 不定休
",1,0
703,カフェゴーガ 横川サービスエリア(上り線)店,36.3401665378,138.740970388,群馬県安中市松井田町横川917上信越自動車道横川サービスエリア（上り線）内,,,027-380-4088,"月～土： 07:00～21:00
    日： 07:00～20:00
    祝： 07:00～21:00
定休日： 不定休
",1,0
704,カフェゴーガ 神宮前6丁目店,35.6658490907,139.703703984,東京都渋谷区神宮前6-17-11JPR原宿ビル,,,03-5766-5477,"月～金： 07:00～22:00
    土日祝： 07:00～21:00
定休日： 不定休
",1,1
705,カフェゴーガ 仙台フォーラス店,38.262246782,140.87180464,宮城県仙台市青葉区一番町3-11-15仙台フォーラス,,,022-264-5451,"08:00～22:00
定休日： 不定休
",1,0
706,カフェゴーガ クリスタ長堀店,34.6752374995,135.502656547,大阪府大阪市中央区南船場3丁目長堀地下街4号CRYSTA,,,06-6282-2160,"07:00～22:00
定休日： 不定休
",1,1
708,カフェゴーガ アトレ川崎店,35.5308367591,139.697637093,神奈川県川崎市川崎区駅前本町26-1アトレ川崎,,,044-221-6333,"10:00～21:00
定休日： 不定休
",1,1
709,カフェゴーガ イオンモール草津店,34.9976763792,135.918114974,滋賀県草津市新浜町300イオンモール草津,,,077-599-5149,"10:00～23:00
定休日： 不定休
",1,0
71,カフェゴーガ 渋谷マークシティ店,35.6578059588,139.697786234,東京都渋谷区道玄坂1-12-3渋谷マークシティイースト3F,,,03-3461-0739,"07:00～23:00
定休日： 不定休
",1,1
710,カフェゴーガ 新宿マルイ本館2階店,35.6909980745,139.704106403,東京都新宿区新宿3-30-13新宿マルイ本館,,,03-5919-8023,"07:00～23:00
定休日： 不定休
",0,0
712,カフェゴーガ 富山環水公園店,36.7093945331,137.213633008,富山県富山市湊入船町5富山富岩運河環水公園,,,076-439-2630,"08:00～22:30
定休日： 不定休
",1,1
713,カフェゴーガ 丸の内パークビル店,35.6790781539,139.762885404,東京都千代田区丸の内2-6-1丸の内パークビルディング,,,03-5220-2082,"月～金： 07:00～22:00
    土日祝： 08:00～22:00
定休日： 不定休
",1,0
714,カフェゴーガ つくば駅店,36.0827119008,140.111336768,茨城県つくば市吾妻2-128,,,029-868-3980,"月～金： 07:00～21:00
    土日祝： 08:00～20:00
定休日： 不定休
",1,0
715,カフェゴーガ 酒々井パーキングエリア(下り線）店,35.7115543567,140.285057209,千葉県印旛郡酒々井町墨1420-11酒々井パーキングエリア(下り線）,,,043-481-6511,"06:30～22:00
定休日： 不定休
",1,0
716,カフェゴーガ 町田パリオ店,35.5434270939,139.444042019,東京都町田市森野1-15-13パリオビル,,,042-710-8841,"07:00～23:00
定休日： 不定休
",1,0
717,カフェゴーガ アトレ大森店,35.5891285708,139.728932921,東京都大田区大森北1-6-16アトレ大森,,,03-5767-9972,"07:00～22:00
定休日： 不定休
",1,1
718,カフェゴーガ 新宿三井ビル店,35.6915064533,139.693923337,東京都新宿区西新宿2-1-1新宿三井ビルディング,,,03-5324-0741,"07:00～21:00
定休日： 不定休
",1,1
72,カフェゴーガ イオンモール成田店,35.7954326634,140.320077938,千葉県成田市ウイング土屋24,,,0476-23-8204,"09:00～23:00
定休日： 不定休
",1,0
720,カフェゴーガ ラザウォーク甲斐双葉店,35.6845819183,138.485438186,山梨県甲斐市志田柿木645-1ラザウォーク甲斐双葉,,,0551-28-8577,"10:00～21:30
定休日： 不定休
",1,0
721,カフェゴーガ 銀座ファイブ店,35.6730307278,139.761890765,東京都中央区銀座5丁目1番先GINZAFIVE,,,03-6252-5995,"月～土： 07:00～22:30
    日祝： 10:00～22:00
定休日： 不定休
",1,1
722,カフェゴーガ たまプラーザテラス店,35.5772471496,139.558909255,神奈川県横浜市青葉区美しが丘1-1-2たまプラーザテラスゲートプラザ,,,045-905-0774,"08:00～22:30
定休日： 不定休
",1,1
723,カフェゴーガ 霞ダイニング店,35.6708629223,139.747026821,東京都千代田区霞が関3丁目2-5霞が関ビルディング,,,03-5251-5551,"月～金： 07:00～21:00
    土： 08:00～18:00
定休日： 日・祝
",1,0
725,カフェゴーガ 伊勢崎SMARK店,36.3384525729,139.235009715,群馬県伊勢崎市西小保方町368伊勢崎SMARK,,,0270-40-0530,"09:30～21:00
定休日： 不定休
",1,1
726,カフェゴーガ 札幌円山店,43.0547364155,141.318169114,北海道札幌市中央区南1条西27丁目1-1マルヤマクラス,,,011-640-1234,"07:00～22:00
定休日： 不定休
",1,0
727,カフェゴーガ イオンモール広島祇園店,34.4444471182,132.461414468,広島県広島市安佐南区祇園3-2-1イオンモール広島祇園,,,082-832-3516,"09:00～21:00
定休日： 不定休
",1,0
729,カフェゴーガ 談合坂サービスエリア(上り線）店,35.6280910574,139.044394922,山梨県上野原市大野4943談合坂サービスエリア(上り線）,,,0554-66-5030,"07:00～22:00
定休日： 不定休
",1,0
73,カフェゴーガ 渋谷クロスタワー店,35.6586504431,139.705243909,東京都渋谷区渋谷2-15-1クロスタワー3F,,,03-3498-8139,"月～金： 07:00～20:00
    土： 10:00～19:00
    日祝： 11:00～18:00
定休日： 不定休
",1,0
731,カフェゴーガ 新宿野村ビル店,35.6929854854,139.695273712,東京都新宿区西新宿1-26-2新宿野村ビルB1F,,,03-5909-8817,"月～金： 07:00～21:00
    土： 08:00～20:00
    日祝： 09:00～20:00
定休日： 不定休
",1,0
732,カフェゴーガ 三木サービスエリア(上り線)店,34.8175195273,134.97925263,兵庫県三木市大村大門1067-110三木サービスエリア(上り線),,,0794-86-7080,"07:00～22:00
定休日： 不定休
",1,0
733,カフェゴーガ 戸塚東急プラザ店,35.4008358459,139.533119242,神奈川県横浜市戸塚区戸塚町16-1(区画番号Ｄ-101）,,,045-860-5171,"月～土： 07:00～22:30
    日祝： 08:00～22:30
定休日： 不定休
",1,1
735,カフェゴーガ ららぽーと磐田店,34.7499522959,137.840938081,静岡県磐田市高見丘1200ららぽーと磐田,,,0538-59-0311,"10:00～22:00
定休日： 不定休
",1,0
736,カフェゴーガ 尾張一宮パーキングエリア（上り線）店,35.2778490217,136.846763838,愛知県一宮市丹陽町三ツ井2709-6尾張一宮パーキングエリア（上り線）,,,0586-75-3057,"07:00～21:00
定休日： 不定休
",1,0
737,カフェゴーガ 尾張一宮パーキングエリア（下り線）店,35.2815079261,136.854153056,愛知県一宮市千秋町塩尻14-2尾張一宮パーキングエリア（下り線）,,,0586-75-3657,"07:00～21:00
定休日： 不定休
",0,1
738,カフェゴーガ 福岡空港店,33.5970898117,130.448365668,福岡県福岡市博多区下臼井778-1福岡空港第2ターミナルビル,,,092-626-7828,"06:30～21:00
定休日： 不定休
",1,0
739,カフェゴーガ 宮島サービスエリア(下り線)店,34.3656055503,132.318246933,広島県廿日市市上平良293宮島サービスエリア(下り線),,,0829-37-4077,"07:00～21:00
定休日： 不定休
",1,1
74,カフェゴーガ 大阪マルビル店,34.6999600364,135.497131145,大阪府大阪市北区梅田1-9-20大阪マルビル1F,,,06-6341-6150,"07:00～26:00
定休日： 不定休
",1,1
740,カフェゴーガ 金立サービスエリア（下り線）店,33.3284233805,130.311528015,佐賀県佐賀市金立町金立1197-57金立サービスエリア（下り線）,,,0952-71-8500,"07:00～21:00
定休日： 不定休
",1,0
741,カフェゴーガ イオンモール土浦店,36.0803069811,140.180720283,茨城県土浦市上高津367イオンモール土浦,,,029-835-8679,"09:00～22:00
定休日： 不定休
",1,0
742,カフェゴーガ 多賀サービスエリア（上り線）店,35.2181314022,136.283412263,滋賀県犬上郡多賀町敏満寺62-2多賀サービスエリア（上り線）,,,0749-48-7031,"月～木： 07:00～21:00
    金土日祝： 07:00～22:00
定休日： 不定休
",1,0
743,カフェゴーガ 諏訪湖サービスエリア(下り線)店,36.0264568097,138.075953673,長野県岡谷市湊方久保461諏訪湖サービスエリア（下り線）,,,0266-21-2053,"07:00～21:00
定休日： 不定休
",1,0
744,カフェゴーガ 基山パーキングエリア（上り線）店,33.4408154555,130.530150517,佐賀県三養基郡基山町小倉2097-1基山パーキングエリア（上り線）,,,0942-81-7177,"07:00～21:00
定休日： 不定休
",1,1
745,カフェゴーガ リーフウォーク稲沢店,35.2608797983,136.819119693,愛知県稲沢市長野7-1-2リーフウォーク稲沢,,,0587-33-3231,"10:00～21:30
定休日： 不定休
",1,1
746,カフェゴーガ 上小田井mozoワンダーシティ店,35.2247164558,136.883400464,愛知県名古屋市西区二方町40mozoワンダーシティ,,,052-506-2732,"10:00～22:00
定休日： 不定休
",1,1
747,カフェゴーガ 南条サービスエリア（上り線）店,35.8312157823,136.201377789,福井県南条郡南越前町牧谷39南条サービスエリア（上り線）,,,0778-47-3705,"07:30～21:00
定休日： 不定休
",1,1
748,カフェゴーガ 国際新赤坂ビル店,35.6721023389,139.737118421,東京都港区赤坂2-14-2７国際新赤坂ビル,,,03-5549-2158,"月～金： 07:00～22:00
    土： 08:00～20:00
    日祝： 09:00～20:00
定休日： 不定休
",1,1
749,カフェゴーガ 神戸北野異人館店,34.6999232913,135.190265243,兵庫県神戸市中央区北野町3-1-31北野物語館,,,078-230-6302,"08:00～22:00
定休日： 不定休
",1,1
75,カフェゴーガ 肥後橋南店,34.6915998062,135.496368538,大阪府大阪市西区江戸堀1-2-16肥後橋南山下ビル,,,06-6449-6377,"月～金： 06:30～22:00
    土： 08:00～22:00
    日祝： 08:00～20:00
定休日： 不定休
",1,1
750,カフェゴーガ 御器所駅前店,35.1492751198,136.933347846,愛知県名古屋市昭和区阿由知通4-2-1,,,052-858-3081,"月～木： 07:00～22:00
    金： 07:00～22:30
    土： 08:00～22:30
    日祝： 08:00～22:00
定休日： 不定休
",1,0
751,カフェゴーガ 黒埼パーキングエリア（下り線）店,37.82399373,138.983519141,新潟県新潟市西区木場1206-3黒埼パーキングエリア（下り線）,,,025-370-6131,"07:00～20:00
定休日： 不定休
",1,1
753,カフェゴーガ アトレヴィ三鷹店,35.7024426705,139.560225603,東京都三鷹市下連雀3-46-4,,,0422-45-6271,"06:30～22:30
定休日： 不定休
",1,0
754,カフェゴーガ 恵比寿ガーデンプレイス店,35.6424750934,139.713394533,東京都渋谷区恵比寿4-20-3恵比寿ガーデンプレイスタワー,,,03-5793-1155,"月～金： 07:00～22:00
    土日祝： 08:00～22:00
定休日： 不定休
",1,0
756,カフェゴーガ 新宿マルイ本館8階店,35.6909405794,139.704035578,東京都新宿区新宿3-30-13新宿マルイ本館,,,03-5363-8980,"月～土： 11:00～21:00
    日祝： 11:00～20:30
定休日： 不定休
",0,0
757,カフェゴーガ 梓川サービスエリア(上り線)店,36.2706523397,137.931835786,長野県安曇野市豊科高家961-1梓川サービスエリア(上り線),,,0263-71-2602,"月～金： 07:00～20:00
    土日祝： 07:00～21:00
定休日： 不定休
",1,0
758,カフェゴーガ 高松レインボーロード店,34.3118364538,134.060359728,香川県高松市伏石町2084-5ヤマダ電機テックランドNew高松,,,087-815-0781,"09:00～22:00
定休日： 不定休
",1,1
759,カフェゴーガ 淡路サービスエリア（下り線）店,34.5842232005,135.017273826,兵庫県淡路市岩屋2568淡路サービスエリア（下り線）,,,0799-73-2051,"07:00～22:00
定休日： 不定休
",1,1
76,カフェゴーガ 八重洲アーバンスクエア店,35.6780605893,139.768859955,東京都中央区八重洲2-4-13アーバンスクエア八重洲1F,,,03-3278-1012,"月～金： 07:00～20:00
    土： 09:00～20:00
    日祝： 10:00～19:00
定休日： 不定休
",1,0
760,カフェゴーガ ピオニウォーク東松山店,36.0050823962,139.409893319,埼玉県東松山市あずま町4-3,,,0493-31-0105,"10:00～22:00
定休日： 不定休
",1,1
761,カフェゴーガ 恵那峡サービスエリア（下り線）店,35.4541218928,137.438523798,岐阜県恵那市大井町2194-82恵那峡サービスエリア（下り線）,,,0573-20-0311,"月～金： 07:00～21:00
    土日祝： 07:00～22:00
定休日： 不定休
",1,1
762,カフェゴーガ EXPASA足柄サービスエリア（上り線）店,35.3142870939,138.963268609,静岡県御殿場市深沢1801-1東名高速道路EXPASA足柄（上り線）,,,0550-70-0255,"07:00～21:00
定休日： 不定休
",1,0
763,カフェゴーガ EXPASA足柄サービスエリア（下り線）店,35.3135158589,138.967352472,静岡県駿東郡小山町桑木599東名高速道路EXPASA足柄（下り線）,,,0550-70-1117,"07:00～21:00
定休日： 不定休
",1,1
764,カフェゴーガ 羽生パーキングエリア（下り線）店,36.1805055944,139.585804243,埼玉県羽生市弥勒三新田824Pasar羽生,,,048-566-3611,"月～金： 07:00～22:00
    土日祝： 06:30～22:00
定休日： 不定休
",1,1
765,カフェゴーガ アトレ秋葉原1店,35.698513178,139.771956256,東京都千代田区外神田1-17-6アトレ秋葉原１,,,03-5289-3841,"07:00～22:30
定休日： 不定休
",1,0
766,カフェゴーガ アリオ北砂店,35.6827574667,139.825589471,東京都江東区北砂2-17-1アリオ北砂,,,03-5857-2421,"10:00～22:00
定休日： 不定休
",1,0
767,カフェゴーガ イオンモール富士宮店,35.2209634271,138.611250474,静岡県富士宮市浅間町1-8イオンモール富士宮,,,0544-68-7213,"09:00～22:00
定休日： 不定休
",1,0
768,カフェゴーガ 大丸梅田店,34.7018628741,135.496311681,大阪府大阪市北区梅田3-1-1大丸大阪梅田店,,,06-6456-3260,"08:00～23:00
定休日： 不定休
",1,0
77,カフェゴーガ 新橋駅前店,35.6668088547,139.759677902,東京都港区新橋2-19-3カシケイビル1F,,,0476-48-8888,"9:00～20:00
資材館 7:00～20:00
",1,0
770,カフェゴーガ アクアシティお台場店,35.6276296658,139.772940827,東京都港区台場1-7-1（区番R301）アクアシティお台場,,,03-5564-2010,"09:00～23:00
定休日： 不定休
ラストオーダー： 22:30",1,1
771,カフェゴーガ 福岡大濠公園店,33.5870988183,130.378025859,福岡県福岡市中央区大濠公園1-8,,,092-717-2880,"08:00～22:00
定休日： 不定休
",1,0
772,カフェゴーガ アトレ吉祥寺店,35.7031062651,139.57925177,東京都武蔵野市吉祥寺南町1-1-24アトレ吉祥寺,,,0422-22-2059,"07:30～22:00
定休日： 不定休
",1,1
773,カフェゴーガ 二子玉川ライズ　ドッグウッドプラザ店,35.6128020444,139.627484701,東京都世田谷区玉川2-23-1二子玉川ライズショッピングセンタードッグウッドプラザ,,,03-5491-4581,"07:00～23:00
定休日： 不定休
",1,0
776,カフェゴーガ 湾岸幕張パーキングエリア（下り線）店,35.6601301262,140.030116861,千葉県千葉市美浜区浜田2-102湾岸幕張パーキングエリア（下り線）,,,043-350-0301,"07:00～22:00
定休日： 不定休
",1,0
777,カフェゴーガ 福山ポートプラザ天満屋店,34.4865258418,133.377538948,広島県福山市入船町3-1-25福山ポートプラザ,,,084-932-6933,"10:00～21:00
定休日： 不定休
",1,0
778,カフェゴーガ 徳島駅クレメントプラザ店,34.0741482327,134.551442389,徳島県徳島市寺島本町西1-61徳島駅クレメントプラザ,,,088-656-1721,"月～金： 07:30～22:00
    土日祝： 08:00～22:00
定休日： 不定休
",1,0
779,カフェゴーガ LUCUA osaka店,34.7029574831,135.496533557,大阪府大阪市北区梅田3-1-3LUCUAosaka9階,,,06-6347-0617,"10:00～21:00
定休日： 不定休
",0,1
78,カフェゴーガ 九段下店,35.6958211773,139.752251627,東京都千代田区九段北1-2-1九段北1丁目ビル1F,,,03-5275-1158,"月～金： 06:30～22:00
    土日祝： 08:00～22:00
定休日： 不定休
",1,0
780,カフェゴーガ EXPASA多賀サービスエリア（下り線）店,35.2189063515,136.285254574,滋賀県犬上郡多賀町敏満寺66-11名神高速道路EXPASA多賀（下り線）,,,0749-48-7071,"07:00～22:00
定休日： 不定休
",1,0
782,カフェゴーガ EXPASA御在所サービスエリア（下り線）店,35.0191422782,136.594010075,三重県四日市市山之一色町乱取口1491-2東名阪自動車道EXPASA御在所(下り線）,,,059-330-1711,"07:00～21:00
定休日： 不定休
",1,1
783,カフェゴーガ アリオ橋本店,35.590895633,139.348926066,神奈川県相模原市緑区大山町1-22アリオ橋本,,,042-700-0281,"10:00～22:00
定休日： 不定休
",1,1
784,カフェゴーガ サザンスカイタワー八王子店,35.6540878588,139.338520409,東京都八王子市子安町4-7-1サザンスカイタワー八王子,,,042-655-8345,"07:00～22:00
定休日： 不定休
",1,1
785,カフェゴーガ 富山ファボーレ店,36.6627576706,137.171281728,富山県富山市婦中町下轡田165-1フューチャーシティファボーレ,,,076-465-5081,"10:00～21:00
定休日： 不定休
",1,1
786,カフェゴーガ 錦糸町テルミナ2店,35.6971490461,139.813303162,東京都墨田区錦糸1-2-47テルミナ2,,,03-5619-1601,"07:00～23:00
定休日： 不定休
",1,1
787,カフェゴーガ 大阪京橋ダイエー店,34.696206893,135.53273225,大阪府大阪市都島区片町2-3-51京橋ダイエー,,,06-6136-1335,"07:00～23:00
定休日： 不定休
",1,1
789,カフェゴーガ イオンモール伊丹昆陽店,34.7847850587,135.38172349,兵庫県伊丹市池尻4-1-1イオンモール伊丹昆陽,,,072-787-8835,"09:00～21:00
定休日： 不定休
",1,0
79,カフェゴーガ 川崎モアーズ店,35.5305668174,139.699321132,神奈川県川崎市川崎区駅前本町7川崎モアーズ2F,,,044-200-0977,"07:00～22:30
定休日： 不定休
",1,1
790,カフェゴーガ 京都四条河原町店,35.0039861411,135.768186301,京都府京都市下京区四条通寺町東入二丁目御旅町30番地京都セントラルイン,,,075-254-7376,"07:00～23:00
定休日： 不定休
",1,0
791,カフェゴーガ 金沢八景ダイエー店,35.3343206385,139.6228243,神奈川県横浜市金沢区泥亀1-27-1ダイエー金沢八景,,,045-780-3115,"09:00～22:00
定休日： 不定休
",1,0
793,カフェゴーガ TSUTAYA 京都リサーチパーク店,34.9958400873,135.737488948,京都府京都市下京区中堂寺粟田町91京都リサーチパーク9号館,,,075-325-1235,"10:00～26:00
定休日： 不定休
",1,0
795,カフェゴーガ 阪急大井町ガーデン店,35.6056388449,139.734407262,東京都品川区大井1-50-5新阪急大井町ビル,,,03-5709-7307,"07:00～22:00
定休日： 不定休
",0,1
796,カフェゴーガ ヒルズウォーク徳重ガーデンズ店,35.0948384807,136.999155443,愛知県名古屋市緑区鳴海町徳重18-44ヒルズウォーク徳重ガーデンズ,,,052-879-6846,"10:00～22:00
定休日： 不定休
",1,0
797,カフェゴーガ 港南台バーズ店,35.3752179688,139.577296198,神奈川県横浜市港南区港南台3-1-3港南台バーズ,,,045-836-1361,"07:00～22:00
定休日： 不定休
",1,0
798,カフェゴーガ ショッパーズプラザ横須賀シーサイドビレッジ店,35.2828140357,139.660945728,神奈川県横須賀市本町2-1-12ショッパーズプラザ横須賀,,,046-828-4878,"月～木： 07:00～22:00
    金土： 07:00～22:30
    日祝： 07:00～22:00
定休日： 不定休
",1,1
799,カフェゴーガ 札幌パセオ店,43.068187472,141.349706153,北海道札幌市北区北6条西4丁目3-1パセオ,,,011-213-5623,"07:00～23:00
定休日： 不定休
",1,0
8,カフェゴーガ 銀座松屋通り店,35.6716737338,139.766643488,東京都中央区銀座3-7-14ＥＳＫビル1F,,,03-5250-2751,"月～木： 07:00～22:30
    金土： 07:00～23:00
    日祝： 07:00～22:30
定休日： 不定休
",1,1
80,カフェゴーガ 渋谷公園通り店,35.6640369839,139.699217495,東京都渋谷区神南1-7-5渋谷公園通りＪＮビル1F,,,03-5458-2610,"07:00～22:30
定休日： 不定休
",1,1
800,カフェゴーガ 青森ELM店,40.7982704651,140.454777776,青森県五所川原市唐笠柳517-1ELM,,,0173-33-5005,"10:00～21:00
定休日： 不定休
",1,1
803,カフェゴーガ 山形エスパル店,38.2487095644,140.327997093,山形県山形市香澄町1-1-1エスパル山形,,,023-628-1315,"07:00～22:00
定休日： 不定休
",1,1
804,カフェゴーガ アコルデ代々木上原店,35.6690113908,139.679819988,東京都渋谷区西原3-8-5アコルデ代々木上原,,,03-5452-1060,"07:00～22:30
定休日： 不定休
",1,0
805,カフェゴーガ 函館ベイサイド店,41.766592557,140.715439318,北海道函館市末広町24－6函館西波止場,,,0138-21-4522,"08:00～23:00
定休日： 不定休
",1,0
806,カフェゴーガ イオンモール倉敷店,34.6027759247,133.744278693,岡山県倉敷市水江1イオンモール倉敷,,,086-430-5182,"10:00～22:00
定休日： 不定休
",1,0
808,カフェゴーガ 日比谷シャンテ店,35.6735728639,139.760278374,東京都千代田区有楽町1-2-2日比谷シャンテ,,,03-5510-7081,"07:00～22:00
定休日： 不定休
",1,0
809,カフェゴーガ イオンモール新居浜店,33.9541514432,133.268918316,愛媛県新居浜市前田町8-8イオンモール新居浜,,,0897-65-1167,"09:00～22:00
定休日： 不定休
",1,1
81,カフェゴーガ ＫＤＤＩ大手町ビル店,35.6877067028,139.764454321,東京都千代田区大手町1-8-1ＫＤＤＩ大手町ビル1F,,,03-3231-2065,"月～金： 08:00～22:00
    土： 09:00～18:00
定休日： 日・祝
",1,1
810,カフェゴーガ 新千歳空港店,42.7875821474,141.68019385,北海道千歳市美々新千歳空港連絡施設3F,,,0123-46-2235,"08:00～21:00
定休日： 不定休
",1,0
811,カフェゴーガ イオンモール甲府昭和店,35.6231208876,138.527156995,山梨県中巨摩郡昭和町常永土地区画整理地内１街区イオンモール甲府昭和,,,055-269-5147,"10:00～22:00
定休日： 不定休
",1,0
812,カフェゴーガ ヴィーナスフォート グランド店,35.6254550332,139.780654453,東京都江東区青海1-3-15ヴィーナスフォート,,,03-3599-1675,"月～金： 11:00～21:00
    土日祝： 11:00～22:00
定休日： 不定休
",1,0
814,カフェゴーガ なんばCITY店,34.6646322194,135.50119299,大阪府大阪市中央区難波5-1-60なんばCITY,,,06-6644-2909,"月～金： 10:00～22:00
    土日祝： 09:00～22:00
定休日： 不定休
",1,1
815,カフェゴーガ アリオ上田店,36.399329031,138.244111427,長野県上田市天神3-5-1アリオ上田,,,0268-29-7081,"09:00～21:00
定休日： 不定休
",1,1
816,カフェゴーガ 栄大津通店,35.1650496384,136.906970143,愛知県名古屋市中区栄3-27-7サンサカエビル,,,052-238-1067,"月～木： 07:00～22:30
    金： 07:00～23:00
    土： 08:00～23:00
    日祝： 08:00～22:00
定休日： 不定休
",1,0
817,カフェゴーガ イーサイト高崎店,36.3219540797,139.013509703,群馬県高崎市八島町222E'site高崎,,,027-310-1220,"07:00～22:00
定休日： 不定休
",1,1
819,カフェゴーガ NU茶屋町プラス店,34.7075142728,135.499671697,大阪府大阪市北区茶屋町8-26NU茶屋町プラス区画番号109,,,06-6292-7650,"月～金： 07:00～23:00
    土日祝： 08:00～23:00
定休日： 不定休
",1,1
82,カフェゴーガ 京都三条烏丸ビル店,35.0087357567,135.759362371,京都府京都市中京区三条通烏丸西入ル御倉町85-1ＫＤＸ京都烏丸ビル1F,,,075-231-5565,"月～木： 06:30～23:00
    金： 06:30～24:00
    土： 07:00～24:00
    日祝： 07:00～23:00
定休日： 不定休
",1,0
821,カフェゴーガ 越谷レイクタウン アウトレット店,35.8801985634,139.825181247,埼玉県越谷市東町4-50レイクタウンアウトレット,,,048-940-1759,"10:00～21:00
定休日： 不定休
",1,1
822,カフェゴーガ テラスモール湘南店,35.3380099401,139.446407392,神奈川県藤沢市辻堂神台1-3-1テラスモール湘南,,,0466-38-2175,"10:00～21:00
定休日： 不定休
",1,0
823,カフェゴーガ ビバモール寝屋川店,34.7664136821,135.651594424,大阪府寝屋川市寝屋南2-22-2ビバモール寝屋川,,,072-825-7158,"09:30～22:00
定休日： 不定休
",1,1
824,カフェゴーガ 友部サービスエリア（上り線）店,36.3101904904,140.342164901,茨城県笠間市長兎路梶山久保1059-6友部サービスエリア（上り線）,,,0296-70-5103,"07:00～21:00
定休日： 不定休
",1,1
825,カフェゴーガ イオンタウン伊勢ララパーク店,34.5058916401,136.722369993,三重県伊勢市小木町538イオンタウンイセララパーク,,,0596-31-2600,"10:00～21:00
定休日： 不定休
",1,0
826,カフェゴーガ 友部サービスエリア（下り線）店,36.3093277716,140.340257322,茨城県笠間市長兎路梶山久保1051-3友部サービスエリア（下り線）,,,0296-70-5234,"07:00～21:00
定休日： 不定休
",1,1
827,カフェゴーガ 木の葉モール橋本店,33.5558522866,130.321631703,福岡県福岡市西区橋本2-27-2木の葉モール橋本,,,092-811-5762,"10:00～21:00
定休日： 不定休
",1,0
83,カフェゴーガ 谷町筋ＮＳビル店,34.686353516,135.517603127,大阪府大阪市中央区谷町2-2-22ＮＳビル1F,,,06-6944-2670,"月～金： 07:00～22:00
    土： 08:00～22:00
    日祝： 08:00～21:00
定休日： 不定休
",1,1
830,カフェゴーガ 青山一丁目店,35.6729000733,139.723621727,東京都港区北青山１-2-6栄光青山ビル,,,03-5413-3640,"月～土： 07:00～21:00
    日祝： 07:30～20:00
定休日： 不定休
",1,1
831,カフェゴーガ 東京スカイツリー・ソラマチ東6階店,35.7103637197,139.811924891,東京都墨田区押上1-1-2東京スカイツリータウン,,,03-5610-2874,"10:00～23:00
定休日： 不定休
ラストオーダー： 22:30",1,1
832,カフェゴーガ モラージュ菖蒲店,36.0751792561,139.611649447,埼玉県久喜市菖蒲町菖蒲3555-1モラージュ菖蒲,,,0480-87-1033,"10:00～21:00
定休日： 不定休
",1,0
834,カフェゴーガ 京都マルイ店,35.0035337167,135.769747304,京都府京都市下京区四条通河原町東入真町68番地,,,075-222-5008,"10:30～20:30
定休日： 不定休
",0,1
835,カフェゴーガ 東京スカイツリー・ソラマチ西1階店,35.7097584614,139.809334022,東京都墨田区押上1-1-2東京スカイツリータウン,,,03-5610-3014,"07:00～23:00
定休日： 不定休
ラストオーダー： 22:30",1,0
836,カフェゴーガ EXPASA談合坂サービスエリア（下り線）店,35.6328744999,139.064031126,山梨県上野原市野田尻710中央自動車道談合坂サービスエリア(下り線）内,,,0554-20-6055,"06:00～21:00
定休日： 不定休
",1,1
839,カフェゴーガ 福島エスパル店,37.7538648045,140.460313335,福島県福島市栄町１-１エスパル福島,,,024-525-8651,"07:30～22:00
定休日： 不定休
",1,0
84,カフェゴーガ 赤羽駅前店,35.778400948,139.720008836,東京都北区赤羽1-1-1赤羽駅ショッピングセンターアルカード赤羽2,,,03-3598-0121,"月～金： 07:00～22:30
    土日祝： 08:00～22:30
定休日： 不定休
",1,0
840,カフェゴーガ ホリデイ・スクエア豊橋店,34.7448074258,137.371598685,愛知県豊橋市藤沢町141,,,0532-38-8531,"月～木： 08:00～22:00
    金土日祝： 08:00～24:00
定休日： 不定休
",1,1
841,カフェゴーガ 表参道 神宮前4丁目店,35.6665416423,139.710899187,東京都渋谷区神宮前4-3-4東京ソワール表参道ビル,,,03-5772-7627,"月～金： 07:00～22:30
    土日祝： 08:00～22:00
定休日： 不定休
",1,0
844,カフェゴーガ 三井アウトレットパーク倉敷店,34.6034639958,133.765283583,岡山県倉敷市寿町12-3三井アウトレットパーク倉敷,,,086-435-7317,"10:00～20:00
定休日： 不定休
",1,0
845,カフェゴーガ 名古屋久屋南店,35.1635245491,136.908420926,愛知県名古屋市中区栄3-31-10松坂屋久屋南パークテラス,,,052-269-0230,"月～金： 07:00～22:30
    土日祝： 08:00～22:00
定休日： 不定休
",1,0
846,カフェゴーガ イオン秦野店,35.3777902096,139.228349225,神奈川県秦野市入船町12-1イオン秦野,,,0463-85-2113,"09:00～22:00
定休日： 不定休
",1,0
847,カフェゴーガ 三井アウトレットパーク木更津店,35.4351375308,139.935039561,千葉県木更津市中島398三井アウトレットパーク木更津,,,0438-40-0581,"09:30～21:00
定休日： 不定休
",1,0
848,カフェゴーガ ヴァル小山店,36.3155458482,139.807039652,栃木県小山市城山町3-3-22VAL小山,,,0285-20-5201,"月～土： 06:30～22:00
    日祝： 07:30～22:00
定休日： 不定休
",1,1
849,カフェゴーガ 郡山駅店,37.3979288453,140.388606791,福島県郡山市燧田195エキナカ,,,024-927-5770,"07:30～22:00
定休日： 不定休
",1,0
85,カフェゴーガ 名古屋ＪＲセントラルタワーズ店,35.1703580957,136.882963004,愛知県名古屋市中村区名駅1-1-4ＪＲセントラルタワーズ13F,,,052-586-7087,"08:00～23:00
定休日： 不定休
ラストオーダー： 22:30",0,0
850,カフェゴーガ 太宰府天満宮表参道店,33.5196326373,130.533390785,福岡県太宰府市宰府3-2-43,,,092-919-5690,"08:00～20:00
定休日： 不定休
",1,1
851,カフェゴーガ ゆめタウン徳島店,34.1195299844,134.500247329,徳島県板野郡藍住町奥野東中須88-1ゆめタウン徳島,,,088-693-1507,"10:00～22:00
定休日： 不定休
",1,1
853,カフェゴーガ イオンモール宮崎店,31.9228026066,131.456015468,宮崎県宮崎市新別府町江口862-1イオンモール宮崎,,,0985-35-3297,"09:00～21:00
定休日： 不定休
",1,1
854,カフェゴーガ 天神南渡辺通り店,33.5873258665,130.401258364,福岡県福岡市中央区渡辺通4-9-18福酒ビル,,,092-737-7615,"07:00～23:00
定休日： 不定休
",1,1
855,カフェゴーガ 東急プラザ 表参道原宿店,35.6686335556,139.706019496,東京都渋谷区神宮前4-30-3東急プラザ表参道原宿,,,03-5414-5851,"08:30～23:00
定休日： 不定休
",1,0
858,カフェゴーガ 心斎橋BIG STEP店,34.6721166533,135.498712851,大阪府大阪市中央区西心斎橋1-6-14BIGSTEP,,,06-4963-8166,"08:00～23:00
定休日： 不定休
",1,0
859,カフェゴーガ アトレ四谷店,35.6861707124,139.730151129,東京都新宿区四谷1-5-25アトレ四谷,,,03-5368-1751,"07:30～22:00
定休日： 不定休
",1,0
86,カフェゴーガ 福岡ホークスタウン店,33.5927526725,130.36294824,福岡県福岡市中央区地行浜2-2-1ホークスタウン内,,,092-844-3664,"月～木： 09:00～22:00
    金土： 09:00～23:00
    日祝： 09:00～22:00
定休日： 不定休
",1,0
860,カフェゴーガ ルミネ池袋店,35.7292771342,139.709749727,東京都豊島区西池袋1-11-1ルミネ池袋,,,03-5928-5091,"08:00～21:30
定休日： 不定休
",1,0
861,カフェゴーガ ダイバーシティ東京 プラザ店,35.6256715965,139.776063158,東京都江東区青海1-1-10ダイバーシティ東京プラザ2階,,,03-3527-8175,"09:00～22:00
定休日： 不定休
",1,0
862,カフェゴーガ イオンモール船橋店,35.7125686223,139.97887759,千葉県船橋市山手1-1-8,,,047-420-7520,"09:00～22:00
定休日： 不定休
",1,1
865,カフェゴーガ イオンモール明和店,34.5814616459,136.612950045,三重県多気郡明和町中村1223イオンモール明和,,,0596-55-8080,"09:00～22:00
定休日： 不定休
",1,0
866,カフェゴーガ 天王寺ミオ店,34.6467960263,135.51450215,大阪府大阪市天王寺区悲田院町10-39天王寺MIO,,,06-6776-7036,"11:00～21:00
定休日： 不定休
",1,1
867,カフェゴーガ 諏訪湖サービスエリア（上り線）店,36.027046223,138.077781272,長野県諏訪市豊田所久保3171中央自動車道諏訪湖サービスエリア(上り線）内,,,0266-54-2092,"07:00～22:00
定休日： 不定休
",1,1
869,カフェゴーガ イオンモール久御山店,34.8928679179,135.746077421,京都府久世郡久御山町森南大内156-1,,,075-633-5195,"10:00～22:00
定休日： 不定休
",1,1
87,カフェゴーガ 市ヶ谷駅前店,35.6911588867,139.735689606,東京都千代田区五番町2市ヶ谷ストア2F,,,03-3261-1881,"月～土： 07:00～22:00
    日祝： 08:00～21:00
定休日： 不定休
",1,0
873,カフェゴーガ 東武池袋店,35.7301267751,139.710294921,東京都豊島区西池袋1-1-25東武百貨店池袋店,,,03-5928-1380,"10:00～20:00
定休日： 不定休
",0,1
874,カフェゴーガ 横浜スカイビル店,35.4647331202,139.625220873,神奈川県横浜市西区高島2-19-12スカイビル,,,045-440-3280,"07:00～22:00
定休日： 不定休
",1,0
876,カフェゴーガ イオンモール福津店,33.7543593576,130.494850399,福岡県福津市793(福間駅東地区100街区１画地)イオンモール福津,,,0940-38-5281,"09:00～21:00
定休日： 不定休
",1,0
877,カフェゴーガ 神楽坂下店,35.7003769081,139.742473896,東京都新宿区神楽坂1-9-2秀永ビル,,,03-5227-7671,"07:00～23:00
定休日： 不定休
",1,0
879,カフェゴーガ 東海大学医学部付属病院店,35.4077637935,139.3149176,神奈川県伊勢原市下糟屋143東海大学医学部付属病院,,,0463-90-1230,"月～金： 07:30～20:00
    土日祝： 09:00～18:00
定休日： 不定休
",1,0
88,カフェゴーガ イオン橋本店,35.5961694424,139.344866438,神奈川県相模原市緑区橋本6-2-1イオン橋本,,,042-770-6556,"月～金： 07:00～22:00
    土日祝： 07:30～22:00
定休日： 不定休
",1,1
880,カフェゴーガ 武蔵小杉東急スクエア店,35.5764373274,139.659547879,神奈川県川崎市中原区小杉町3-472,,,044-738-2350,"07:00～22:30
定休日： 不定休
",1,1
881,カフェゴーガ 上野恩賜公園店,35.7157824729,139.773725591,東京都台東区上野公園8-22,,,03-5834-1630,"08:00～21:00
定休日： 不定休
",1,1
882,カフェゴーガ PLiCO神戸店　,34.6799116137,135.178417426,兵庫県神戸市中央区相生町3-1-1PLiCO神戸,,,078-361-7223,"07:00～22:00
定休日： 不定休
",1,1
883,カフェゴーガ 金沢フォーラス6Fクーゴ店,36.5792849882,136.649699999,石川県金沢市堀川新町3-1金沢フォーラス6F,,,076-265-3542,"10:00～23:00
定休日： 不定休
",1,1
884,カフェゴーガ あべのsolaha店,34.6456055991,135.514563311,大阪府大阪市阿倍野区阿倍野筋1-1-43あべのハルカス近鉄本店ウィング館3F,,,06-6628-5123,"10:00～21:00
定休日： 不定休
",1,1
885,カフェゴーガ ピオレ姫路店,34.8275889583,134.690284776,兵庫県姫路市駅前町188-1ピオレ姫路（本館）,,,079-223-4010,"10:00～21:00
定休日： 不定休
",1,0
887,カフェゴーガ 所沢ステーションビル店,35.7864257748,139.472981482,埼玉県所沢市日吉町1-11所沢ステーションビル1F,,,04-2929-3651,"07:00～23:00
定休日： 不定休
",1,1
89,カフェゴーガ 恵比寿ユニオンビル店,35.6460482244,139.707786778,東京都渋谷区恵比寿南1-2-10エビスユニオンビル１F,,,03-5722-5051,"月～金： 06:30～22:30
    土日祝： 07:00～22:30
定休日： 不定休
",1,1
890,カフェゴーガ 丸井大宮店,35.9066530211,139.622168556,埼玉県さいたま市大宮区桜木町2－3丸井大宮,,,048-650-3531,"08:00～22:00
定休日： 不定休
",0,0
893,カフェゴーガ イオンモール四日市北店,35.0074235249,136.657236197,三重県四日市市富州原町2-40イオンモール四日市北,,,059-361-3901,"09:00～22:00
定休日： 不定休
",1,0
9,カフェゴーガ 新宿３丁目店,35.692058278,139.706350612,東京都新宿区新宿3-11-6エクレ新宿1F,,,03-3226-9201,"月～木： 07:00～22:30
    金： 07:00～23:00
    土： 07:30～23:00
    日祝： 07:30～22:30
定休日： 不定休
",1,0
90,カフェゴーガ 京橋駅前店,35.6765016022,139.76958941,東京都中央区京橋2-4-12京橋第一生命ビルディング1F,,,03-5202-8656,"月～土： 07:00～22:00
    日祝： 09:00～21:00
定休日： 不定休
",1,1
903,カフェゴーガ 杏林大学病院店,35.6775557201,139.566519282,東京都三鷹市新川6-20-2,,,0422-70-3577,"月～土： 07:00～21:00
    日祝： 10:00～20:00
定休日： 不定休
",0,1
904,カフェゴーガ 酒々井プレミアム・アウトレット店,35.7150182835,140.292536151,千葉県印旛郡酒々井町飯積2-4-1,,,043-481-7525,"09:30～20:00
定休日： 不定休
",1,1
905,カフェゴーガ フレンテ南大沢店,35.6140300827,139.379569955,東京都八王子市南大沢2-1-6フレンテ南大沢,,,042-670-5031,"07:00～22:00
定休日： 不定休
",1,1
906,カフェゴーガ MARK IS 静岡店,34.9844324197,138.409208701,静岡県静岡市葵区柚木191MARKIS静岡,,,054-267-2290,"10:00～21:00
定休日： 不定休
",1,0
91,カフェゴーガ 新宿マインズタワー店,35.6865862317,139.698815379,東京都渋谷区代々木2-1-1新宿マインズタワー1F,,,03-3373-3370,"月～金： 07:00～20:30
    土日祝： 08:00～20:30
定休日： 不定休
",1,1
910,カフェゴーガ アトレヴィ大塚店,35.731242259,139.7289286,東京都豊島区南大塚3-33-1アトレヴィ大塚,,,03-5957-7281,"07:30～22:30
定休日： 不定休
",1,1
911,カフェゴーガ イオンモール札幌発寒店,43.0957543752,141.277606705,北海道札幌市西区発寒8条12丁目1-1イオンモール札幌発寒,,,011-669-5434,"09:00～22:00
定休日： 不定休
",1,1
913,カフェゴーガ イオンモール春日部店,35.9878194549,139.787803562,埼玉県春日部市下柳420-1,,,048-718-1025,"10:00～22:00
定休日： 不定休
",1,1
914,カフェゴーガ シャミネ松江店,35.4639258001,133.062753417,島根県松江市朝日町472-2,,,0852-60-0590,"07:00～21:00
定休日： 不定休
",1,1
915,カフェゴーガ 目黒店,35.6345876183,139.714231493,東京都品川区上大崎2-25-2新目黒東急ビル,,,03-5719-4668,"月～金： 07:00～21:00
    土日祝： 08:00～20:00
定休日： 不定休
",1,1
916,カフェゴーガ 青森ラビナ店,40.8282032596,140.734440672,青森県青森市柳川1-2-3青森駅ビル・ラビナ,,,017-721-5066,"08:00～21:00
定休日： 不定休
",1,1
917,カフェゴーガ ミーナ天神店,33.5926585811,130.398487237,福岡県福岡市中央区天神4-3-8ミーナ天神,,,092-717-2772,"月～木： 07:00～21:00
    金土： 07:00～22:00
    日祝： 07:00～21:00
定休日： 不定休
",1,0
918,カフェゴーガ イオンモールつくば店,36.0298812881,140.134414784,茨城県つくば市稲岡66-1,,,029-839-2212,"09:00～22:00
定休日： 不定休
",1,0
92,カフェゴーガ 大阪ガーデンシティ店,34.6989728212,135.491488048,大阪府大阪市北区梅田3-3-20明治安田生命大阪ビル,,,06-6452-9262,"月～金： 07:00～22:00
    土： 08:00～22:00
    日祝： 08:00～21:00
定休日： 不定休
",1,1
920,カフェゴーガ 二子玉川公園店,35.60748159,139.632502307,東京都世田谷区玉川1-16-1,,,03-5797-5505,"月～土： 08:00～21:00
    日祝： 08:00～20:00
定休日： 不定休
",1,1
922,カフェゴーガ 田園調布 東急スクエアガーデンサイト店,35.5973591156,139.667396819,東京都大田区田園調布2-62-3東急スクエアガーデンサイトアネックス,,,03-5483-0215,"07:00～22:00
定休日： 不定休
",1,0
923,カフェゴーガ 東京医科歯科大学店,35.7009691701,139.764277336,東京都文京区湯島1-5-45東京医科歯科大学,,,03-5840-6806,"月～土： 06:30～21:00
    日祝： 08:00～19:00
定休日： 不定休
",1,0
924,カフェゴーガ 守谷サービスエリア(下り線）店,35.9395457974,139.966626767,茨城県守谷市野木崎86守谷サービスエリア(下り線）,,,0297-47-1301,"07:00～22:00
定休日： 不定休
",1,0
925,カフェゴーガ イオンモール石巻店,38.4477957509,141.265161762,宮城県石巻市茜平4-104イオンモール石巻,,,0225-92-1359,"09:00～21:00
定休日： 不定休
",1,0
926,カフェゴーガ 神戸ハーバーランドumie店,34.6791592609,135.182236032,兵庫県神戸市中央区東川崎町1-7-2A201,,,078-360-8102,"10:00～21:00
定休日： 不定休
",1,0
927,カフェゴーガ 三井アウトレットパーク滋賀竜王店,35.0621449006,136.101011538,滋賀県蒲生郡竜王町薬師砂山1178-694三井アウトレットパーク滋賀竜王,,,0748-58-5085,"10:00～20:00
定休日： 不定休
",1,0
929,カフェゴーガ 玉川3丁目店,35.6160305236,139.62379958,東京都世田谷区玉川3-34-2リオ・ヴェルテ,,,03-5797-2350,"09:00～22:00
定休日： 不定休
",1,0
93,カフェゴーガ 国分寺店,35.7010725509,139.481379992,東京都国分寺市本町2-10-2ハタマンビル1F,,,042-359-0081,"月～金： 07:00～22:30
    土日祝： 07:30～22:30
定休日： 不定休
",1,1
931,カフェゴーガ 小田急相模大野ステーションスクエア店,35.5318693196,139.437078407,神奈川県相模原市南区相模大野3-8-1,,,042-767-1080,"07:00～22:30
定休日： 不定休
",1,0
934,カフェゴーガ ぽっぽ町田店,35.5423109158,139.449278024,東京都町田市原町田4-10-20,,,042-709-6101,"07:00～23:00
定休日： 不定休
",1,1
94,カフェゴーガ 小田原Ｄｙｎａｃｉｔｙ ＷＥＳＴ店,35.2845008287,139.185523744,神奈川県小田原市中里208ＤｙｎａｃｉｔｙＷＥＳＴ1F,,,0465-49-8124,"10:00～20:00
定休日： 不定休
",1,0
940,カフェゴーガ 宇都宮インターパークステージ店,36.4938274502,139.909071858,栃木県宇都宮市インターパーク4-2-3インターパークステージ,,,028-657-7811,"10:00～21:00
定休日： 不定休
",1,0
941,カフェゴーガ アスナル金山店,35.1436040507,136.901027735,愛知県名古屋市中区金山1-17-1,,,052-339-1671,"07:00～22:00
定休日： 不定休
",1,0
942,カフェゴーガ 守谷サービスエリア（上り線）店,35.9395544703,139.970216191,茨城県守谷市大柏166,,,0297-47-8067,"06:30～22:00
定休日： 不定休
",1,0
943,カフェゴーガ 札幌ステラプレイス イースト2階店,43.0681039179,141.352458428,北海道札幌市中央区北5条西2丁目5,,,011-209-5554,"10:00～21:00
定休日： 不定休
",1,0
945,カフェゴーガ 代沢5丁目店,35.6571163421,139.667802089,東京都世田谷区代沢5-8-13クリークス代沢,,,03-5431-5250,"月～木： 09:00～22:00
    金土： 09:00～23:00
    日祝： 09:00～22:00
定休日： 不定休
",1,0
948,カフェゴーガ イオンモール幕張新都心ファミリーモール店,35.6574375573,140.025587916,千葉県千葉市美浜区豊砂1-5イオンモール幕張新都心ファミリーモール,,,043-350-0117,"09:00～22:00
定休日： 不定休
",1,0
95,カフェゴーガ 六本木７丁目店,35.6640147666,139.73116401,東京都港区六本木7-14-1東李閣ビル1F,,,03-3475-3312,"月～金： 07:00～22:30
    土： 08:00～22:30
    日祝： 08:00～22:00
定休日： 不定休
",1,0
950,カフェゴーガ セレオ八王子北館店,35.656247639,139.339158867,東京都八王子市旭町1-1セレオ八王子,,,042-686-3269,"07:00～22:00
定休日： 不定休
",0,0
951,カフェゴーガ イオンモール高知店,33.5766918662,133.542111342,高知県高知市秦南町1-4-8イオンモール高知,,,088-826-2212,"09:00～22:00
定休日： 不定休
",1,1
952,カフェゴーガ イオンモール東員店,35.0631131514,136.579298994,三重県員弁郡東員町長深510-1イオンモール東員,,,0594-86-1823,"09:00～22:00
定休日： 不定休
",1,1
954,カフェゴーガ 池尻2丁目店,35.6491474671,139.683409494,東京都世田谷区池尻2-27-7アリビエ池尻,,,03-5431-3957,"月～木： 09:00～23:00
    金土： 09:00～24:00
    日祝： 09:00～23:00
定休日： 不定休
",1,1
956,カフェゴーガ イオンモール幕張新都心グランドモール店,35.6548617959,140.02983546,千葉県千葉市美浜区豊砂1-1イオンモール幕張新都心グランドモール,,,043-213-3206,"09:00～22:00
定休日： 不定休
",1,0
957,カフェゴーガ 柏 高島屋ステーションモール 6階店,35.8625516048,139.970751915,千葉県柏市末広町1-1柏高島屋ステーションモールＳ館,,,04-7148-2272,"10:00～21:00
定休日： 不定休
",1,0
958,カフェゴーガ させぼ五番街店,33.1644295251,129.722708634,長崎県佐世保市新港町4-10させぼ五番街,,,0956-37-1171,"08:00～23:00
定休日： 不定休
",1,1
959,カフェゴーガ イオンモール大和郡山店,34.6502406865,135.802391972,奈良県大和郡山市下三橋町741イオンモール大和郡山,,,0743-58-5123,"10:00～22:00
定休日： 不定休
",1,1
96,カフェゴーガ イオン板橋店,35.7696153032,139.661102743,東京都板橋区徳丸2-6-1イオン板橋,,,03-3933-1067,"月～木： 08:00～22:00
    金土日祝： 08:00～22:30
定休日： 不定休
",1,0
960,カフェゴーガ テラスウォーク一宮店,35.3106472071,136.816494564,愛知県一宮市両郷町1-2テラスウォーク一宮,,,0586-26-2320,"09:00～21:30
定休日： 不定休
",1,1
961,カフェゴーガ イオンモール和歌山店,34.2752343894,135.149286813,和歌山県和歌山市中楠谷573イオンモール和歌山,,,073-480-5077,"09:00～22:00
定休日： 不定休
",1,1
963,カフェゴーガ トレッサ横浜店,35.5258119459,139.645760244,神奈川県横浜市港北区師岡町700トレッサ横浜北棟2階,,,045-330-2963,"10:00～21:00
定休日： 不定休
",1,1
964,カフェゴーガ アークヒルズサウスタワー店,35.6655083613,139.739371593,東京都港区六本木1-4-5アークヒルズサウスタワー,,,03-5572-6835,"月～金： 07:00～22:00
    土日祝： 08:00～21:00
定休日： 不定休
",1,1
965,カフェゴーガ 京都Porta ウエスト店,34.9865622714,135.758009893,京都府京都市下京区烏丸通塩小路下ル東塩小路町902京都駅前地下街ポルタ312区画,,,075-353-5531,"07:30～22:00
定休日： 不定休
",1,1
967,カフェゴーガ イオンモール天童店,38.3361791432,140.362423262,山形県天童市芳賀土地区画整理事業地内34街区イオンモール天童,,,023-652-0607,"09:00～22:00
定休日： 不定休
",1,0
968,カフェゴーガ ヴェルサウォーク西尾店,34.8638209171,137.059833541,愛知県西尾市高畠町3-23-9ヴェルサウォーク西尾,,,0563-64-0751,"09:00～21:30
定休日： 不定休
",1,1
969,カフェゴーガ アミュプラザ博多店,33.5902336594,130.419928901,福岡県福岡市博多区博多駅中央街1-1アミュプラザ博多,,,092-432-8085,"10:00～21:00
定休日： 不定休
",1,0
97,カフェゴーガ 摂津本山岡本ビル店,34.7270777312,135.276772641,兵庫県神戸市東灘区岡本1-2-17摂津本山二楽園ビル,,,078-441-3175,"月～金： 07:30～22:30
    土日祝： 08:00～22:00
定休日： 不定休
",1,0
970,カフェゴーガ マリエとやま店,36.7005490908,137.213660079,富山県富山市桜町1-1-61マリエとやま1階,,,076-444-0115,"月～金： 07:00～22:00
    土日祝： 08:00～22:00
定休日： 不定休
",0,1
971,カフェゴーガ 名鉄百貨店名古屋店,35.1699503836,136.884224307,愛知県名古屋市中村区名駅1-2-1名鉄百貨店本店本館,,,052-585-7620,"07:30～22:30
定休日： 不定休
",1,0
972,カフェゴーガ 札幌紀伊國屋書店,43.0672750476,141.3484438,北海道札幌市中央区北5条西5丁目7sapporo55紀伊國屋書店内2階,,,011-218-3351,"10:00～21:00
定休日： 不定休
",1,0
973,カフェゴーガ 天神VIORO店,33.5895219694,130.398328506,福岡県福岡市中央区天神2-10-3天神VIORO,,,092-739-0135,"月～木： 08:00～22:00
    金土： 08:00～23:00
    日祝： 08:00～22:00
定休日： 不定休
",1,1
974,カフェゴーガ 北千住マルイ店,35.7508087092,139.804540864,東京都足立区千住3-92北千住マルイ,,,03-5284-3815,"10:30～20:30
定休日： 不定休
",0,0
975,カフェゴーガ 湘南台駅ビル店,35.6893717,139.7193145,東京都新宿区愛住町8-6,,,0466-45-2251,"07:00～22:30
定休日： 不定休
",1,1
98,カフェゴーガ マリンピア神戸店,34.6253779689,135.049285939,兵庫県神戸市垂水区海岸通12-6三井アウトレットパークマリンピア神戸,,,078-706-1031,"10:00～21:00
定休日： 不定休
",1,0
99,カフェゴーガ キャナルシティ博多店,33.5897743952,130.41153212,福岡県福岡市博多区住吉1-2-22キャナルシティＯＰＡB1F,,,092-263-2122,"月～木： 08:00～22:00
    金土： 08:00～23:00
    日祝： 08:00～22:00
定休日： 不定休
",1,0
